{"type":"FeatureCollection","features":[{"type":"Feature","properties":{"id":"admin:adriatic_area:아드리아해 전역","layer":"admin_regions","name_ko":"아드리아해 전역","name":"아드리아해 전역","actor":"기타중립","route":"adriatic_area","valid_from":null,"valid_to":1000000,"confidence":"low","source":"book"},"geometry":{"type":"Polygon","coordinates":[[[12.3,45.4],[13.5,45.6],[14.5,45.3],[16,44.8],[17.5,44],[18.5,43],[19,42],[19.3,41],[18.5,40.2],[17.5,40],[16.5,40.5],[15.5,40.8],[14.5,41.5],[13.5,42.5],[12.8,43.5],[12.3,44.5],[12.3,45.4],[12.3,45.4]]]}},{"type":"Feature","properties":{"id":"admin:aedui_area:아이두이족 영역 (부르고뉴, 기원전 1세기)","layer":"admin_regions","name_ko":"아이두이족 영역 (부르고뉴, 기원전 1세기)","name":"아이두이족 영역 (부르고뉴, 기원전 1세기)","actor":"기타중립","route":"aedui_area","valid_from":-1,"valid_to":1000000,"confidence":"high","source":"book"},"geometry":{"type":"Polygon","coordinates":[[[3.5,47.5],[4.8,47.3],[4.9,46.3],[3.8,46.2],[3,46.8],[3.5,47.5]]]}},{"type":"Feature","properties":{"id":"admin:aegean_area:북에게해","layer":"admin_regions","name_ko":"북에게해","name":"북에게해","actor":"기타중립","route":"aegean_area","valid_from":null,"valid_to":1000000,"confidence":"low","source":"book"},"geometry":{"type":"Polygon","coordinates":[[[23,40.5],[24.5,40.7],[26,40.5],[26.5,40],[25.5,39.3],[24,39],[23,39.5],[23,40.5],[23,40.5]]]}},{"type":"Feature","properties":{"id":"admin:aegean_area:남에게해 (키클라데스 제도)","layer":"admin_regions","name_ko":"남에게해 (키클라데스 제도)","name":"남에게해 (키클라데스 제도)","actor":"기타중립","route":"aegean_area","valid_from":null,"valid_to":1000000,"confidence":"low","source":"book"},"geometry":{"type":"Polygon","coordinates":[[[23.5,39],[25,38.8],[26.5,38.5],[27.5,37.5],[27,36.5],[25.5,36],[24,36.3],[23,37],[22.8,38],[23.5,39],[23.5,39]]]}},{"type":"Feature","properties":{"id":"admin:aegyptus_area:나일 삼각주","layer":"admin_regions","name_ko":"나일 삼각주","name":"나일 삼각주","actor":"기타중립","route":"aegyptus_area","valid_from":null,"valid_to":1000000,"confidence":"low","source":"book"},"geometry":{"type":"Polygon","coordinates":[[[29.85,31.35],[30.4,31.55],[31.2,31.55],[31.85,31.45],[32.35,31.3],[32.55,31],[32.1,30.65],[31.4,30.1],[30.7,30.35],[30,30.75],[29.7,31.05],[29.85,31.35]]]}},{"type":"Feature","properties":{"id":"admin:aegyptus_area:상이집트 나일 계곡","layer":"admin_regions","name_ko":"상이집트 나일 계곡","name":"상이집트 나일 계곡","actor":"기타중립","route":"aegyptus_area","valid_from":null,"valid_to":1000000,"confidence":"low","source":"book"},"geometry":{"type":"Polygon","coordinates":[[[30,29.9],[30.8,28.5],[31.3,27],[32,26.2],[32.5,25.3],[32.6,24.3],[32.75,24.15],[32.7,25.4],[32.3,26.3],[31.6,27.1],[31,28.6],[30.2,30],[30,29.9]]]}},{"type":"Feature","properties":{"id":"admin:aegyptus_area:서부 사막 오아시스 (시와·바하리야·파라프라·다클라·카르가)","layer":"admin_regions","name_ko":"서부 사막 오아시스 (시와·바하리야·파라프라·다클라·카르가)","name":"서부 사막 오아시스 (시와·바하리야·파라프라·다클라·카르가)","actor":"기타중립","route":"aegyptus_area","valid_from":null,"valid_to":1000000,"confidence":"low","source":"book"},"geometry":{"type":"Polygon","coordinates":[[[24.5,29.5],[25,27],[25.5,25.3],[27.5,24],[31,24.3],[30,26.5],[29.5,28],[28,29.5],[26,30],[24.5,29.5]]]}},{"type":"Feature","properties":{"id":"admin:africa_area:아프리카 프로콘술라리스 (본토)","layer":"admin_regions","name_ko":"아프리카 프로콘술라리스 (본토)","name":"아프리카 프로콘술라리스 (본토)","actor":"기타중립","route":"africa_area","valid_from":null,"valid_to":1000000,"confidence":"low","source":"book"},"geometry":{"type":"Polygon","coordinates":[[[9,37.2],[10,37.5],[11,37.3],[11.5,36.9],[11.2,36.2],[10.5,36],[9.5,36.1],[9,36.3],[8.5,36.5],[8.5,37],[9,37.2]]]}},{"type":"Feature","properties":{"id":"admin:africa_area:비자케나","layer":"admin_regions","name_ko":"비자케나","name":"비자케나","actor":"기타중립","route":"africa_area","valid_from":null,"valid_to":1000000,"confidence":"low","source":"book"},"geometry":{"type":"Polygon","coordinates":[[[9.5,36.1],[11.2,36.2],[11.5,35.5],[11,34.3],[9.8,34.2],[9,34.5],[8.8,35.2],[9.2,35.8],[9.5,36.1]]]}},{"type":"Feature","properties":{"id":"admin:alemanni_area:상부 라인·마인·네카르 (슈바벤)","layer":"admin_regions","name_ko":"상부 라인·마인·네카르 (슈바벤)","name":"상부 라인·마인·네카르 (슈바벤)","actor":"기타중립","route":"alemanni_area","valid_from":null,"valid_to":1000000,"confidence":"low","source":"book"},"geometry":{"type":"Polygon","coordinates":[[[7,49.5],[10.5,49.8],[10.8,47.8],[8.5,47.3],[7,48],[7,49.5]]]}},{"type":"Feature","properties":{"id":"admin:alemanni_area:확장 영역 (알자스·스위스 북부)","layer":"admin_regions","name_ko":"확장 영역 (알자스·스위스 북부)","name":"확장 영역 (알자스·스위스 북부)","actor":"기타중립","route":"alemanni_area","valid_from":null,"valid_to":1000000,"confidence":"low","source":"book"},"geometry":{"type":"Polygon","coordinates":[[[6.8,48.7],[8.5,48.5],[9,47.3],[7,47],[6.3,47.8],[6.8,48.7]]]}},{"type":"Feature","properties":{"id":"admin:alps_area:알프스 산맥 전역","layer":"admin_regions","name_ko":"알프스 산맥 전역","name":"알프스 산맥 전역","actor":"기타중립","route":"alps_area","valid_from":null,"valid_to":1000000,"confidence":"low","source":"book"},"geometry":{"type":"Polygon","coordinates":[[[7.3,44.2],[7,44.8],[6.7,45.6],[6.9,46],[7.8,46.4],[8.8,46.75],[9.8,46.95],[10.8,47.15],[11.8,47.35],[12.8,47.05],[13.6,46.65],[14.4,46.35],[14.7,46.05],[14,45.85],[13.2,45.95],[12.2,46.2],[11.2,46.35],[10.2,46.1],[9.2,45.75],[8.3,45.35],[7.6,44.9],[7.3,44.4],[7.3,44.2]]]}},{"type":"Feature","properties":{"id":"admin:apennines_area:아펜니노 산맥 전역","layer":"admin_regions","name_ko":"아펜니노 산맥 전역","name":"아펜니노 산맥 전역","actor":"기타중립","route":"apennines_area","valid_from":null,"valid_to":1000000,"confidence":"low","source":"book"},"geometry":{"type":"Polygon","coordinates":[[[8.4,44.4],[9,44.2],[10,43.8],[11.3,43.4],[12.1,43],[12.8,42.5],[13.3,41.8],[13.8,41.3],[14.4,40.7],[15,40],[15.3,39.3],[15.5,38.6],[15.5,38.1],[16.5,38.1],[16.5,38.6],[16.7,39.3],[16.2,40],[15.6,40.7],[14.9,41.3],[14.3,41.8],[13.8,42.5],[13.1,43],[11,43.8],[10,44.2],[9.2,44.4],[8.4,44.4]]]}},{"type":"Feature","properties":{"id":"admin:apulia_area:아풀리아 (가르가노~살렌토 반도)","layer":"admin_regions","name_ko":"아풀리아 (가르가노~살렌토 반도)","name":"아풀리아 (가르가노~살렌토 반도)","actor":"기타중립","route":"apulia_area","valid_from":null,"valid_to":1000000,"confidence":"low","source":"book"},"geometry":{"type":"Polygon","coordinates":[[[15,41.7],[16.2,41.9],[18,40.5],[17.9,40],[16.6,40.4],[15.4,41],[15,41.7]]]}},{"type":"Feature","properties":{"id":"admin:arabia_area:북부 핵심부: 하우란·보스트라 (트라코니티스)","layer":"admin_regions","name_ko":"북부 핵심부: 하우란·보스트라 (트라코니티스)","name":"북부 핵심부: 하우란·보스트라 (트라코니티스)","actor":"기타중립","route":"arabia_area","valid_from":null,"valid_to":1000000,"confidence":"low","source":"book"},"geometry":{"type":"Polygon","coordinates":[[[35.6,33.2],[36.8,33],[37.2,32],[36.3,31.2],[35.4,31.5],[35.3,32.3],[35.6,33.2]]]}},{"type":"Feature","properties":{"id":"admin:arabia_area:남부: 시나이·페트라·헤자즈 북부 접경","layer":"admin_regions","name_ko":"남부: 시나이·페트라·헤자즈 북부 접경","name":"남부: 시나이·페트라·헤자즈 북부 접경","actor":"기타중립","route":"arabia_area","valid_from":null,"valid_to":1000000,"confidence":"low","source":"book"},"geometry":{"type":"Polygon","coordinates":[[[34.9,30.5],[36,30],[37.5,28],[38,26.5],[36,25],[34.5,26.5],[34.6,28.5],[34.9,30.5]]]}},{"type":"Feature","properties":{"id":"admin:armenia_area:아르메니아 고원 핵심부 (반호수·아라라트산)","layer":"admin_regions","name_ko":"아르메니아 고원 핵심부 (반호수·아라라트산)","name":"아르메니아 고원 핵심부 (반호수·아라라트산)","actor":"기타중립","route":"armenia_area","valid_from":null,"valid_to":1000000,"confidence":"low","source":"book"},"geometry":{"type":"Polygon","coordinates":[[[42.5,41],[44.5,41.2],[46,40],[45.5,38.5],[43.5,38],[41.5,38.8],[41.8,40.2],[42.5,41]]]}},{"type":"Feature","properties":{"id":"admin:armenia_area:서부 확장부 (소아르메니아, 387년 이후 비잔티움령)","layer":"admin_regions","name_ko":"서부 확장부 (소아르메니아, 387년 이후 비잔티움령)","name":"서부 확장부 (소아르메니아, 387년 이후 비잔티움령)","actor":"기타중립","route":"armenia_area","valid_from":null,"valid_to":1000000,"confidence":"low","source":"book"},"geometry":{"type":"Polygon","coordinates":[[[39.5,39.8],[41.8,40.2],[41.5,38.8],[40,38.3],[39,39],[39.5,39.8]]]}},{"type":"Feature","properties":{"id":"admin:asia_area:아시아 속주 (소아시아 서부)","layer":"admin_regions","name_ko":"아시아 속주 (소아시아 서부)","name":"아시아 속주 (소아시아 서부)","actor":"기타중립","route":"asia_area","valid_from":null,"valid_to":1000000,"confidence":"low","source":"book"},"geometry":{"type":"Polygon","coordinates":[[[26.6,39.6],[28,40.4],[29.5,39.5],[30.5,38.5],[29.9,37.2],[28.5,36.7],[27,37],[26.7,38.4],[26.6,39.6],[26.6,39.6]]]}},{"type":"Feature","properties":{"id":"admin:asia_minor_area:서부: 아시아 속주 (에게해 연안)","layer":"admin_regions","name_ko":"서부: 아시아 속주 (에게해 연안)","name":"서부: 아시아 속주 (에게해 연안)","actor":"기타중립","route":"asia_minor_area","valid_from":-133,"valid_to":1000000,"confidence":"high","source":"book"},"geometry":{"type":"Polygon","coordinates":[[[27,40.3],[29.3,40],[29.5,38.5],[28.5,36.9],[27,36.8],[26.2,38],[26.4,39.3],[27,40.3]]]}},{"type":"Feature","properties":{"id":"admin:asia_minor_area:북서부: 비티니아·폰투스 (흑해 연안)","layer":"admin_regions","name_ko":"북서부: 비티니아·폰투스 (흑해 연안)","name":"북서부: 비티니아·폰투스 (흑해 연안)","actor":"기타중립","route":"asia_minor_area","valid_from":-74,"valid_to":1000000,"confidence":"high","source":"book"},"geometry":{"type":"Polygon","coordinates":[[[27,40.4],[30,41.2],[33,42],[36,41.8],[35,40.3],[31,40],[28,40],[27,40.4]]]}},{"type":"Feature","properties":{"id":"admin:asia_minor_area:중부: 갈라티아·프리기아 고원","layer":"admin_regions","name_ko":"중부: 갈라티아·프리기아 고원","name":"중부: 갈라티아·프리기아 고원","actor":"기타중립","route":"asia_minor_area","valid_from":-25,"valid_to":1000000,"confidence":"medium","source":"book"},"geometry":{"type":"Polygon","coordinates":[[[29.5,40],[31,41],[33,41.2],[35,40],[34,38.3],[31.5,38],[29.8,38.7],[29.5,40]]]}},{"type":"Feature","properties":{"id":"admin:asia_minor_area:남부: 킬리키아·팜필리아·리키아 (지중해 연안)","layer":"admin_regions","name_ko":"남부: 킬리키아·팜필리아·리키아 (지중해 연안)","name":"남부: 킬리키아·팜필리아·리키아 (지중해 연안)","actor":"기타중립","route":"asia_minor_area","valid_from":null,"valid_to":1000000,"confidence":"low","source":"book"},"geometry":{"type":"Polygon","coordinates":[[[27.2,36.9],[29.5,36.4],[32,36.2],[34.5,36.4],[36.2,36.7],[35,37.5],[31,37.6],[28,37.5],[27.2,36.9]]]}},{"type":"Feature","properties":{"id":"admin:asia_minor_area:동부: 카파도키아 접경지대","layer":"admin_regions","name_ko":"동부: 카파도키아 접경지대","name":"동부: 카파도키아 접경지대","actor":"기타중립","route":"asia_minor_area","valid_from":null,"valid_to":1000000,"confidence":"low","source":"book"},"geometry":{"type":"Polygon","coordinates":[[[34,40],[36,40.3],[38.5,39.5],[38.8,37.8],[36.5,37.6],[34.5,38.3],[34,40]]]}},{"type":"Feature","properties":{"id":"admin:balkan_area:발칸 산맥 전역(하이무스 산 포함)","layer":"admin_regions","name_ko":"발칸 산맥 전역(하이무스 산 포함)","name":"발칸 산맥 전역(하이무스 산 포함)","actor":"기타중립","route":"balkan_area","valid_from":null,"valid_to":1000000,"confidence":"low","source":"book"},"geometry":{"type":"Polygon","coordinates":[[[20.3,42.7],[21,42.9],[22,43.2],[23.2,43.4],[24.5,43.3],[25.8,43.2],[27,43.1],[28,43],[28,42.5],[27,42.5],[25.8,42.6],[24.5,42.7],[23.2,42.8],[22,42.6],[21,42.4],[20.3,42.2],[20.3,42.7]]]}},{"type":"Feature","properties":{"id":"admin:balkan_peninsula_area:발칸 반도 전역","layer":"admin_regions","name_ko":"발칸 반도 전역","name":"발칸 반도 전역","actor":"기타중립","route":"balkan_peninsula_area","valid_from":null,"valid_to":1000000,"confidence":"low","source":"book"},"geometry":{"type":"Polygon","coordinates":[[[13.5,45.6],[16,46.5],[19,46.1],[21.5,45.8],[23.5,44.5],[28.6,45.2],[29,42],[29,41],[26.6,40],[24,39],[23.5,37.5],[22.4,36.4],[21,38],[19.5,40],[19,42.5],[18,44],[16.5,45],[13.5,45.6],[13.5,45.6]]]}},{"type":"Feature","properties":{"id":"admin:baltic_area:발트해 전역","layer":"admin_regions","name_ko":"발트해 전역","name":"발트해 전역","actor":"기타중립","route":"baltic_area","valid_from":null,"valid_to":1000000,"confidence":"low","source":"book"},"geometry":{"type":"Polygon","coordinates":[[[9.5,54.5],[10.5,55.5],[12,55.5],[12,56],[14,57],[16,58],[18,59.5],[19.5,61],[21,60.5],[20,59],[18.5,57.5],[16,56.5],[14,56],[10,54],[10,54],[9.5,54.5]]]}},{"type":"Feature","properties":{"id":"admin:black_sea_area:서흑해 (보스포루스~크림반도 서안)","layer":"admin_regions","name_ko":"서흑해 (보스포루스~크림반도 서안)","name":"서흑해 (보스포루스~크림반도 서안)","actor":"기타중립","route":"black_sea_area","valid_from":null,"valid_to":1000000,"confidence":"low","source":"book"},"geometry":{"type":"Polygon","coordinates":[[[28,41],[29.5,42],[31,43.5],[32,44.5],[33.5,45.3],[35,45.5],[34.5,44],[33,42.5],[31.5,41.5],[29.5,41],[28,41],[28,41]]]}},{"type":"Feature","properties":{"id":"admin:black_sea_area:동흑해 (크림~캅카스 연안)","layer":"admin_regions","name_ko":"동흑해 (크림~캅카스 연안)","name":"동흑해 (크림~캅카스 연안)","actor":"기타중립","route":"black_sea_area","valid_from":null,"valid_to":1000000,"confidence":"low","source":"book"},"geometry":{"type":"Polygon","coordinates":[[[35,45.5],[36.5,45.3],[38,44.5],[39.5,43.5],[41,42],[41.5,41],[40,41.2],[38,41.5],[36.5,42.5],[35,44],[35,45.5],[35,45.5]]]}},{"type":"Feature","properties":{"id":"admin:bon_cape_area:본 곶(게소리아쿰) 일대","layer":"admin_regions","name_ko":"본 곶(게소리아쿰) 일대","name":"본 곶(게소리아쿰) 일대","actor":"기타중립","route":"bon_cape_area","valid_from":-55,"valid_to":1000000,"confidence":"medium","source":"book"},"geometry":{"type":"Polygon","coordinates":[[[1.5,50.73],[1.55,50.75],[1.62,50.74],[1.63,50.71],[1.58,50.69],[1.51,50.7],[1.5,50.73]]]}},{"type":"Feature","properties":{"id":"admin:bosporus_area:보스포루스 해협 전역","layer":"admin_regions","name_ko":"보스포루스 해협 전역","name":"보스포루스 해협 전역","actor":"기타중립","route":"bosporus_area","valid_from":null,"valid_to":1000000,"confidence":"low","source":"book"},"geometry":{"type":"Polygon","coordinates":[[[28.93,41.25],[29.1,41.2],[29.15,41.1],[29.05,41],[28.98,40.97],[28.88,41.03],[28.85,41.12],[28.9,41.2],[28.93,41.25],[28.93,41.25]]]}},{"type":"Feature","properties":{"id":"admin:britannia_area:브리타니아 본토 (잉글랜드·웨일스)","layer":"admin_regions","name_ko":"브리타니아 본토 (잉글랜드·웨일스)","name":"브리타니아 본토 (잉글랜드·웨일스)","actor":"기타중립","route":"britannia_area","valid_from":null,"valid_to":1000000,"confidence":"low","source":"book"},"geometry":{"type":"Polygon","coordinates":[[[-5.3,50],[-2.9,51.6],[-4.7,53.3],[-3,54],[-1.8,55],[0.5,52.9],[1.4,51.4],[-1,50.7],[-5.3,50]]]}},{"type":"Feature","properties":{"id":"admin:britannia_area:칼레도니아 전초 (안토니누스 방벽 일대)","layer":"admin_regions","name_ko":"칼레도니아 전초 (안토니누스 방벽 일대)","name":"칼레도니아 전초 (안토니누스 방벽 일대)","actor":"기타중립","route":"britannia_area","valid_from":null,"valid_to":1000000,"confidence":"low","source":"book"},"geometry":{"type":"Polygon","coordinates":[[[-4.4,55.9],[-3.2,56],[-2,57.5],[-5,57],[-4.4,55.9]]]}},{"type":"Feature","properties":{"id":"admin:britons_area:브리튼섬 원주민 분포 (로마 정복기, 기원전 1세기~서기 1세기)","layer":"admin_regions","name_ko":"브리튼섬 원주민 분포 (로마 정복기, 기원전 1세기~서기 1세기)","name":"브리튼섬 원주민 분포 (로마 정복기, 기원전 1세기~서기 1세기)","actor":"기타중립","route":"britons_area","valid_from":-55,"valid_to":1000000,"confidence":"medium","source":"book"},"geometry":{"type":"Polygon","coordinates":[[[-5.5,50],[-3,51],[0.5,51],[1.5,52.5],[-0.5,55],[-3,57.5],[-5.5,56.5],[-6,53],[-5,51.5],[-5.5,50]]]}},{"type":"Feature","properties":{"id":"admin:campania_area:캄파니아 (나폴리만 일대)","layer":"admin_regions","name_ko":"캄파니아 (나폴리만 일대)","name":"캄파니아 (나폴리만 일대)","actor":"기타중립","route":"campania_area","valid_from":null,"valid_to":1000000,"confidence":"low","source":"book"},"geometry":{"type":"Polygon","coordinates":[[[13.5,40.9],[13.6,41.5],[14.3,41.5],[14.8,41],[14.5,40.3],[13.9,40.6],[13.5,40.9]]]}},{"type":"Feature","properties":{"id":"admin:cappadocia_area:카파도키아 고원 핵심부","layer":"admin_regions","name_ko":"카파도키아 고원 핵심부","name":"카파도키아 고원 핵심부","actor":"기타중립","route":"cappadocia_area","valid_from":null,"valid_to":1000000,"confidence":"low","source":"book"},"geometry":{"type":"Polygon","coordinates":[[[34.5,39],[36.5,39.3],[38,38.6],[38.5,37.5],[36.8,37.2],[35,37.6],[34.2,38.3],[34.5,39]]]}},{"type":"Feature","properties":{"id":"admin:cappadocia_area:동부 확장: 멜리테네 방면 (유프라테스 접경)","layer":"admin_regions","name_ko":"동부 확장: 멜리테네 방면 (유프라테스 접경)","name":"동부 확장: 멜리테네 방면 (유프라테스 접경)","actor":"기타중립","route":"cappadocia_area","valid_from":null,"valid_to":1000000,"confidence":"low","source":"book"},"geometry":{"type":"Polygon","coordinates":[[[38,38.6],[39.3,38.7],[39.5,37.8],[38.5,37.5],[38,38.6]]]}},{"type":"Feature","properties":{"id":"admin:capri_area:카프리 본섬","layer":"admin_regions","name_ko":"카프리 본섬","name":"카프리 본섬","actor":"기타중립","route":"capri_area","valid_from":null,"valid_to":1000000,"confidence":"low","source":"book"},"geometry":{"type":"Polygon","coordinates":[[[14.19,40.57],[14.25,40.56],[14.28,40.55],[14.25,40.53],[14.2,40.54],[14.18,40.56],[14.19,40.57],[14.19,40.57]]]}},{"type":"Feature","properties":{"id":"admin:carpi_area:동카르파티아·몰다비아","layer":"admin_regions","name_ko":"동카르파티아·몰다비아","name":"동카르파티아·몰다비아","actor":"기타중립","route":"carpi_area","valid_from":null,"valid_to":1000000,"confidence":"low","source":"book"},"geometry":{"type":"Polygon","coordinates":[[[25,48],[28,48],[28.5,46],[25.5,45.5],[24.5,46.5],[25,48]]]}},{"type":"Feature","properties":{"id":"admin:carthage_kingdom:북아프리카 해안 (튀니지/리비아)","layer":"admin_regions","name_ko":"북아프리카 해안 (튀니지/리비아)","name":"북아프리카 해안 (튀니지/리비아)","actor":"기타중립","route":"carthage_kingdom","valid_from":null,"valid_to":1000000,"confidence":"low","source":"book"},"geometry":{"type":"Polygon","coordinates":[[[9.5,37.2],[10.1,37.1],[10.3,36.85],[10.8,36.5],[11,35.6],[11.5,35.8],[11.5,35.5],[13,35],[14.5,34.5],[15.2,33.5],[14.8,32.8],[14.3,32.64],[12.9,32.6],[12.5,32.8],[12,33.5],[11.5,34.5],[10,36.2],[8.2,36.8],[8.2,36.8],[9.5,37.2]]]}},{"type":"Feature","properties":{"id":"admin:carthage_kingdom:사르데냐 섬","layer":"admin_regions","name_ko":"사르데냐 섬","name":"사르데냐 섬","actor":"기타중립","route":"carthage_kingdom","valid_from":null,"valid_to":1000000,"confidence":"low","source":"book"},"geometry":{"type":"Polygon","coordinates":[[[8.6,41.2],[9.8,41],[9.5,39.2],[8.2,39],[8.1,40],[8.6,41.2],[8.6,41.2]]]}},{"type":"Feature","properties":{"id":"admin:carthage_kingdom:코르시카 섬","layer":"admin_regions","name_ko":"코르시카 섬","name":"코르시카 섬","actor":"기타중립","route":"carthage_kingdom","valid_from":null,"valid_to":1000000,"confidence":"low","source":"book"},"geometry":{"type":"Polygon","coordinates":[[[8.7,42.2],[8.85,41.8],[9.15,42],[9.3,42.9],[9.1,43],[8.9,42.6],[8.9,42.6],[8.7,42.2]]]}},{"type":"Feature","properties":{"id":"admin:carthage_kingdom:시칠리아 서부","layer":"admin_regions","name_ko":"시칠리아 서부","name":"시칠리아 서부","actor":"기타중립","route":"carthage_kingdom","valid_from":null,"valid_to":1000000,"confidence":"low","source":"book"},"geometry":{"type":"Polygon","coordinates":[[[12,37.9],[12.5,38.1],[12.7,38],[12.6,37.6],[12.3,37.4],[12,37.9],[12,37.9]]]}},{"type":"Feature","properties":{"id":"admin:carthage_kingdom:발레아레스 제도","layer":"admin_regions","name_ko":"발레아레스 제도","name":"발레아레스 제도","actor":"기타중립","route":"carthage_kingdom","valid_from":null,"valid_to":1000000,"confidence":"low","source":"book"},"geometry":{"type":"Polygon","coordinates":[[[1.5,39.3],[2,39],[1.8,38.6],[1.3,38.8],[1.5,39.3],[1.5,39.3]]]}},{"type":"Feature","properties":{"id":"admin:carthage_kingdom:이베리아 남부 해안","layer":"admin_regions","name_ko":"이베리아 남부 해안","name":"이베리아 남부 해안","actor":"기타중립","route":"carthage_kingdom","valid_from":-237,"valid_to":1000000,"confidence":"low","source":"book"},"geometry":{"type":"Polygon","coordinates":[[[-7.5,36.5],[-6.2,36.6],[-6,36.3],[-7.5,36.2],[-7.5,36.2],[-7.5,36.5]]]}},{"type":"Feature","properties":{"id":"admin:caspian_area:카스피해 전역","layer":"admin_regions","name_ko":"카스피해 전역","name":"카스피해 전역","actor":"기타중립","route":"caspian_area","valid_from":null,"valid_to":1000000,"confidence":"low","source":"book"},"geometry":{"type":"Polygon","coordinates":[[[47.5,47],[49.5,46.5],[51,45],[52.5,43],[53,41],[52.5,39],[51.5,37.5],[50,37],[48.5,38],[47.5,40],[47,42],[46.5,44],[47,46],[47.5,47],[47.5,47]]]}},{"type":"Feature","properties":{"id":"admin:celts_area:라 텐 문화 최대 확산권 (기원전 3세기경)","layer":"admin_regions","name_ko":"라 텐 문화 최대 확산권 (기원전 3세기경)","name":"라 텐 문화 최대 확산권 (기원전 3세기경)","actor":"기타중립","route":"celts_area","valid_from":-3,"valid_to":1000000,"confidence":"low","source":"book"},"geometry":{"type":"Polygon","coordinates":[[[-9.5,53.5],[-2,58],[8,54],[15,50],[23,44],[18,41],[11,44.5],[9,45.5],[2,44],[-2,43],[-9,43.5],[-9.5,48],[-9.5,53.5]]]}},{"type":"Feature","properties":{"id":"admin:china_area:중국 (현대 국경 기준)","layer":"admin_regions","name_ko":"중국 (현대 국경 기준)","name":"중국 (현대 국경 기준)","actor":"기타중립","route":"china_area","valid_from":null,"valid_to":1000000,"confidence":"low","source":"book"},"geometry":{"type":"Polygon","coordinates":[[[135,48.5],[130.5,45.5],[126.5,43.5],[124,40],[122,39],[121.5,31],[120,25],[117,23],[113.5,22.2],[108.5,21.5],[105,22],[102,22.5],[99,25.5],[98.5,27.5],[94,29.5],[91,28],[88,27.8],[85,29],[80,32.5],[78,35],[75,38],[73.5,39.5],[76,42],[80,45],[85,47],[90,49.5],[95,50],[100,50],[110,52],[120,53.3],[127,50],[130.5,48],[135,48.5]]]}},{"type":"Feature","properties":{"id":"admin:christians_area:유다·갈릴리 기원지","layer":"admin_regions","name_ko":"유다·갈릴리 기원지","name":"유다·갈릴리 기원지","actor":"기타중립","route":"christians_area","valid_from":null,"valid_to":1000000,"confidence":"low","source":"book"},"geometry":{"type":"Polygon","coordinates":[[[34.9,33.3],[35.6,33.3],[35.6,31.2],[34.9,31.2],[34.9,33.3]]]}},{"type":"Feature","properties":{"id":"admin:christians_area:안티오크·시리아 거점","layer":"admin_regions","name_ko":"안티오크·시리아 거점","name":"안티오크·시리아 거점","actor":"기타중립","route":"christians_area","valid_from":null,"valid_to":1000000,"confidence":"low","source":"book"},"geometry":{"type":"Polygon","coordinates":[[[35.9,36],[36.5,36],[36.5,35.5],[35.9,35.5],[35.9,36]]]}},{"type":"Feature","properties":{"id":"admin:christians_area:소아시아 (7교회 지역)","layer":"admin_regions","name_ko":"소아시아 (7교회 지역)","name":"소아시아 (7교회 지역)","actor":"기타중립","route":"christians_area","valid_from":null,"valid_to":1000000,"confidence":"low","source":"book"},"geometry":{"type":"Polygon","coordinates":[[[26.5,37.5],[29.5,37.5],[29.5,38.5],[26.5,38.5],[26.5,37.5]]]}},{"type":"Feature","properties":{"id":"admin:christians_area:그리스 (바울 선교지)","layer":"admin_regions","name_ko":"그리스 (바울 선교지)","name":"그리스 (바울 선교지)","actor":"기타중립","route":"christians_area","valid_from":null,"valid_to":1000000,"confidence":"low","source":"book"},"geometry":{"type":"Polygon","coordinates":[[[21.5,37],[23.5,37],[23.5,38.5],[21.5,38.5],[21.5,37]]]}},{"type":"Feature","properties":{"id":"admin:christians_area:로마","layer":"admin_regions","name_ko":"로마","name":"로마","actor":"기타중립","route":"christians_area","valid_from":null,"valid_to":1000000,"confidence":"low","source":"book"},"geometry":{"type":"Polygon","coordinates":[[[12,41.5],[13,41.5],[13,40.8],[12,40.8],[12,41.5]]]}},{"type":"Feature","properties":{"id":"admin:christians_area:북아프리카 (카르타고·히포)","layer":"admin_regions","name_ko":"북아프리카 (카르타고·히포)","name":"북아프리카 (카르타고·히포)","actor":"기타중립","route":"christians_area","valid_from":null,"valid_to":1000000,"confidence":"low","source":"book"},"geometry":{"type":"Polygon","coordinates":[[[8,37],[11,37],[11,35.8],[8,35.8],[8,37]]]}},{"type":"Feature","properties":{"id":"admin:cilicia_area:킬리키아 페디아스 (동부 평야, 타르수스 중심)","layer":"admin_regions","name_ko":"킬리키아 페디아스 (동부 평야, 타르수스 중심)","name":"킬리키아 페디아스 (동부 평야, 타르수스 중심)","actor":"기타중립","route":"cilicia_area","valid_from":-67,"valid_to":1000000,"confidence":"high","source":"book"},"geometry":{"type":"Polygon","coordinates":[[[33.9,37],[35,37.3],[36.2,36.9],[36.2,36.5],[35,36.5],[34,36.6],[33.9,37]]]}},{"type":"Feature","properties":{"id":"admin:cilicia_area:킬리키아 트라케아 (서부 산악지대)","layer":"admin_regions","name_ko":"킬리키아 트라케아 (서부 산악지대)","name":"킬리키아 트라케아 (서부 산악지대)","actor":"기타중립","route":"cilicia_area","valid_from":null,"valid_to":1000000,"confidence":"low","source":"book"},"geometry":{"type":"Polygon","coordinates":[[[32,36.2],[33.9,37],[34,36.6],[33.2,36],[32.2,35.9],[32,36.2]]]}},{"type":"Feature","properties":{"id":"admin:corsica_area:코르시카 본섬","layer":"admin_regions","name_ko":"코르시카 본섬","name":"코르시카 본섬","actor":"기타중립","route":"corsica_area","valid_from":null,"valid_to":1000000,"confidence":"low","source":"book"},"geometry":{"type":"Polygon","coordinates":[[[8.6,43],[9.2,42.8],[9.45,42.4],[9.4,41.9],[9.1,41.65],[8.75,41.75],[8.55,42],[8.6,42.6],[8.6,43],[8.6,43]]]}},{"type":"Feature","properties":{"id":"admin:crete_area:크레타 본섬","layer":"admin_regions","name_ko":"크레타 본섬","name":"크레타 본섬","actor":"기타중립","route":"crete_area","valid_from":null,"valid_to":1000000,"confidence":"low","source":"book"},"geometry":{"type":"Polygon","coordinates":[[[23.5,35.65],[24.2,35.5],[24.9,35.35],[25.7,35.25],[26,35.15],[25.7,34.95],[24.8,35],[23.9,35.2],[23.5,35.4],[23.5,35.65],[23.5,35.65]]]}},{"type":"Feature","properties":{"id":"admin:cyprus_area:키프로스 본섬","layer":"admin_regions","name_ko":"키프로스 본섬","name":"키프로스 본섬","actor":"기타중립","route":"cyprus_area","valid_from":null,"valid_to":1000000,"confidence":"low","source":"book"},"geometry":{"type":"Polygon","coordinates":[[[32.3,35],[32.9,35.35],[33.5,35.5],[34,35.65],[34.55,35.6],[34.35,35.4],[33.9,35.2],[34,34.95],[33.6,34.55],[33.05,34.55],[32.5,34.65],[32.3,35],[32.3,35]]]}},{"type":"Feature","properties":{"id":"admin:dacia_area:다키아 트라야나","layer":"admin_regions","name_ko":"다키아 트라야나","name":"다키아 트라야나","actor":"기타중립","route":"dacia_area","valid_from":null,"valid_to":1000000,"confidence":"low","source":"book"},"geometry":{"type":"Polygon","coordinates":[[[20.8,46],[22,47.3],[24.5,47.6],[26,46.5],[25.3,45.6],[24,44.3],[22.7,43.9],[21.2,44.7],[20.8,46],[20.8,46]]]}},{"type":"Feature","properties":{"id":"admin:dacians_area:카르파티아·트란실바니아 핵심지","layer":"admin_regions","name_ko":"카르파티아·트란실바니아 핵심지","name":"카르파티아·트란실바니아 핵심지","actor":"기타중립","route":"dacians_area","valid_from":-1,"valid_to":1000000,"confidence":"high","source":"book"},"geometry":{"type":"Polygon","coordinates":[[[22,47],[26,47.5],[26.5,45.5],[23,44.8],[21.5,45.8],[22,47]]]}},{"type":"Feature","properties":{"id":"admin:dacians_area:다키아계 부족 확산지 (왈라키아·몰다비아)","layer":"admin_regions","name_ko":"다키아계 부족 확산지 (왈라키아·몰다비아)","name":"다키아계 부족 확산지 (왈라키아·몰다비아)","actor":"기타중립","route":"dacians_area","valid_from":null,"valid_to":1000000,"confidence":"low","source":"book"},"geometry":{"type":"Polygon","coordinates":[[[23,45],[28,46],[27,44],[24,43.7],[23,45]]]}},{"type":"Feature","properties":{"id":"admin:dalmatia_area:달마티아 해안대","layer":"admin_regions","name_ko":"달마티아 해안대","name":"달마티아 해안대","actor":"기타중립","route":"dalmatia_area","valid_from":null,"valid_to":1000000,"confidence":"low","source":"book"},"geometry":{"type":"Polygon","coordinates":[[[16.9,45],[18,44.3],[19,43.6],[19.6,42.7],[19.1,41.9],[18.6,42.3],[17.9,43],[17,44],[16.4,44.9],[15.9,45.6],[15.9,45.6],[16.9,45]]]}},{"type":"Feature","properties":{"id":"admin:epirus_area:에페이로스","layer":"admin_regions","name_ko":"에페이로스","name":"에페이로스","actor":"기타중립","route":"epirus_area","valid_from":null,"valid_to":1000000,"confidence":"low","source":"book"},"geometry":{"type":"Polygon","coordinates":[[[19.4,40.6],[20.5,40.6],[21,39.8],[20.9,39],[20.7,38.9],[20,39.3],[19.4,39.9],[19.4,40.6],[19.4,40.6]]]}},{"type":"Feature","properties":{"id":"admin:etruscans_area:에트루리아 본토 (기원전 8~4세기, 로마 병합 이전)","layer":"admin_regions","name_ko":"에트루리아 본토 (기원전 8~4세기, 로마 병합 이전)","name":"에트루리아 본토 (기원전 8~4세기, 로마 병합 이전)","actor":"기타중립","route":"etruscans_area","valid_from":-8,"valid_to":1000000,"confidence":"high","source":"book"},"geometry":{"type":"Polygon","coordinates":[[[10,44.2],[11.5,44.5],[12.3,43.5],[12,42.3],[11,41.9],[10,42.3],[9.8,43.2],[10,44.2]]]}},{"type":"Feature","properties":{"id":"admin:europe_area:유럽 대륙 (본토 윤곽, 섬 제외)","layer":"admin_regions","name_ko":"유럽 대륙 (본토 윤곽, 섬 제외)","name":"유럽 대륙 (본토 윤곽, 섬 제외)","actor":"기타중립","route":"europe_area","valid_from":null,"valid_to":1000000,"confidence":"low","source":"book"},"geometry":{"type":"Polygon","coordinates":[[[-9.5,38.7],[-9,43],[-1.8,43.4],[-4.8,48.4],[1.5,50.9],[4.4,51.3],[8.1,53.9],[10.5,55.5],[11,59],[10.7,63.4],[25.7,71],[30,69.5],[40,65.8],[60,68],[60,52],[47,42.5],[38,44.5],[28.8,43.6],[26,40],[23.7,37.9],[21.7,38.2],[18.5,40],[16.9,41.1],[14.3,40.8],[9.2,44.4],[3.1,43.3],[0.2,42.4],[-9.5,38.7]]]}},{"type":"Feature","properties":{"id":"admin:fucinus_lake_area:푸키누스 호수 전역(간척 이전 범위)","layer":"admin_regions","name_ko":"푸키누스 호수 전역(간척 이전 범위)","name":"푸키누스 호수 전역(간척 이전 범위)","actor":"기타중립","route":"fucinus_lake_area","valid_from":null,"valid_to":1000000,"confidence":"low","source":"book"},"geometry":{"type":"Polygon","coordinates":[[[13.48,41.97],[13.5,42.03],[13.55,42.06],[13.61,42.03],[13.63,41.99],[13.6,41.95],[13.54,41.93],[13.49,41.95],[13.48,41.97]]]}},{"type":"Feature","properties":{"id":"admin:galilee_area:갈릴리 전역 (상갈릴리·하갈릴리·갈릴리 호수 연안)","layer":"admin_regions","name_ko":"갈릴리 전역 (상갈릴리·하갈릴리·갈릴리 호수 연안)","name":"갈릴리 전역 (상갈릴리·하갈릴리·갈릴리 호수 연안)","actor":"기타중립","route":"galilee_area","valid_from":-4,"valid_to":1000000,"confidence":"medium","source":"book"},"geometry":{"type":"Polygon","coordinates":[[[35.15,33.25],[35.55,33.2],[35.7,32.9],[35.65,32.7],[35.45,32.65],[35.2,32.75],[35.05,32.95],[35.15,33.25]]]}},{"type":"Feature","properties":{"id":"admin:gallia_area:갈리아 나르보넨시스 (Gallia Narbonensis)","layer":"admin_regions","name_ko":"갈리아 나르보넨시스 (Gallia Narbonensis)","name":"갈리아 나르보넨시스 (Gallia Narbonensis)","actor":"기타중립","route":"gallia_area","valid_from":-121,"valid_to":1000000,"confidence":"high","source":"book"},"geometry":{"type":"Polygon","coordinates":[[[1.7,42.5],[3,42.4],[4.8,43.3],[6.2,43.1],[7.6,44],[6.9,45.2],[4.9,44.9],[2.2,43.9],[1.7,42.5]]]}},{"type":"Feature","properties":{"id":"admin:gallia_area:갈리아 아퀴타니아 (Gallia Aquitania)","layer":"admin_regions","name_ko":"갈리아 아퀴타니아 (Gallia Aquitania)","name":"갈리아 아퀴타니아 (Gallia Aquitania)","actor":"기타중립","route":"gallia_area","valid_from":null,"valid_to":1000000,"confidence":"low","source":"book"},"geometry":{"type":"Polygon","coordinates":[[[-1.8,43.3],[-1,42.9],[2.2,43.9],[2,44.9],[0.8,46],[-1,46.5],[-1.7,45],[-1.8,43.3]]]}},{"type":"Feature","properties":{"id":"admin:gallia_area:갈리아 루그두넨시스 (Gallia Lugdunensis)","layer":"admin_regions","name_ko":"갈리아 루그두넨시스 (Gallia Lugdunensis)","name":"갈리아 루그두넨시스 (Gallia Lugdunensis)","actor":"기타중립","route":"gallia_area","valid_from":null,"valid_to":1000000,"confidence":"low","source":"book"},"geometry":{"type":"Polygon","coordinates":[[[0.8,46],[2,44.9],[4.9,44.9],[6,47],[5,49],[2.3,49.9],[-1,49.6],[-4.8,48.4],[-2.5,47],[-1,46.5],[0.8,46]]]}},{"type":"Feature","properties":{"id":"admin:gallia_area:갈리아 벨기카 (Gallia Belgica)","layer":"admin_regions","name_ko":"갈리아 벨기카 (Gallia Belgica)","name":"갈리아 벨기카 (Gallia Belgica)","actor":"기타중립","route":"gallia_area","valid_from":null,"valid_to":1000000,"confidence":"low","source":"book"},"geometry":{"type":"Polygon","coordinates":[[[2.3,49.9],[5,49],[6.9,49.5],[8.2,50],[7,51.8],[4.4,51.3],[2.5,50.9],[2.3,49.9]]]}},{"type":"Feature","properties":{"id":"admin:gallia_cisalpina_area:키스파다나 (Gallia Cispadana, 포강 이남)","layer":"admin_regions","name_ko":"키스파다나 (Gallia Cispadana, 포강 이남)","name":"키스파다나 (Gallia Cispadana, 포강 이남)","actor":"기타중립","route":"gallia_cisalpina_area","valid_from":-190,"valid_to":1000000,"confidence":"high","source":"book"},"geometry":{"type":"Polygon","coordinates":[[[9.2,44.4],[9.7,45.1],[11.3,44.9],[12.3,44.5],[11.6,44.1],[10,44],[9.2,44.4]]]}},{"type":"Feature","properties":{"id":"admin:gallia_cisalpina_area:트란스파다나 (Gallia Transpadana, 포강 이북)","layer":"admin_regions","name_ko":"트란스파다나 (Gallia Transpadana, 포강 이북)","name":"트란스파다나 (Gallia Transpadana, 포강 이북)","actor":"기타중립","route":"gallia_cisalpina_area","valid_from":-49,"valid_to":1000000,"confidence":"high","source":"book"},"geometry":{"type":"Polygon","coordinates":[[[7.5,45],[7,45.9],[8.9,46.5],[10.5,46.5],[12.3,46.6],[13,46],[12.3,44.9],[9.7,45.1],[9.2,44.4],[8,44.4],[7.5,45]]]}},{"type":"Feature","properties":{"id":"admin:gallia_provincia_area:갈리아 트란살피나 (초기 속주 범위)","layer":"admin_regions","name_ko":"갈리아 트란살피나 (초기 속주 범위)","name":"갈리아 트란살피나 (초기 속주 범위)","actor":"기타중립","route":"gallia_provincia_area","valid_from":null,"valid_to":1000000,"confidence":"low","source":"book"},"geometry":{"type":"Polygon","coordinates":[[[3,42.4],[4.8,43.3],[6.2,43.1],[7.6,44],[6.9,45.2],[4.9,44.9],[3.2,44],[2.2,43],[3,42.4]]]}},{"type":"Feature","properties":{"id":"admin:gallic_kingdom:갈리아 본토","layer":"admin_regions","name_ko":"갈리아 본토","name":"갈리아 본토","actor":"기타중립","route":"gallic_kingdom","valid_from":null,"valid_to":1000000,"confidence":"low","source":"book"},"geometry":{"type":"Polygon","coordinates":[[[-4.5,48.5],[-3.5,47.5],[-1.5,45.5],[-0.5,43.5],[0.5,43],[2,43.5],[4,44],[5.5,45],[6.5,46],[7.5,47],[8,48],[8.5,49.5],[7.5,50.5],[5,50.5],[3,50],[-4.5,48.5]]]}},{"type":"Feature","properties":{"id":"admin:gallic_kingdom:브리타니아","layer":"admin_regions","name_ko":"브리타니아","name":"브리타니아","actor":"기타중립","route":"gallic_kingdom","valid_from":null,"valid_to":1000000,"confidence":"low","source":"book"},"geometry":{"type":"Polygon","coordinates":[[[-4,55],[-2,55.5],[0,56],[2,54],[1.5,51.5],[0.5,50.5],[-1,50.5],[-2,51],[-4,52],[-4,55]]]}},{"type":"Feature","properties":{"id":"admin:gallic_kingdom:히스파니아","layer":"admin_regions","name_ko":"히스파니아","name":"히스파니아","actor":"기타중립","route":"gallic_kingdom","valid_from":null,"valid_to":1000000,"confidence":"low","source":"book"},"geometry":{"type":"Polygon","coordinates":[[[-9,43],[-8.5,41],[-4,37],[0,36],[2,38],[1.5,41],[-0.5,42],[-1.5,43],[-9,43]]]}},{"type":"Feature","properties":{"id":"admin:gallic_kingdom:게르마니아(라인 우측)","layer":"admin_regions","name_ko":"게르마니아(라인 우측)","name":"게르마니아(라인 우측)","actor":"기타중립","route":"gallic_kingdom","valid_from":null,"valid_to":1000000,"confidence":"low","source":"book"},"geometry":{"type":"Polygon","coordinates":[[[8.5,49],[10,48.5],[11,49],[10.5,50.5],[9,51],[8,50],[8.5,49]]]}},{"type":"Feature","properties":{"id":"admin:gauls_area:갈리아 본토 (트란살피나)","layer":"admin_regions","name_ko":"갈리아 본토 (트란살피나)","name":"갈리아 본토 (트란살피나)","actor":"기타중립","route":"gauls_area","valid_from":-58,"valid_to":1000000,"confidence":"high","source":"book"},"geometry":{"type":"Polygon","coordinates":[[[2.5,51],[7.5,49.5],[8.5,47.5],[7,45.5],[7,43.5],[4.5,43.2],[-1.5,43.3],[-4.5,47.5],[-1.5,49.5],[2.5,51]]]}},{"type":"Feature","properties":{"id":"admin:gauls_area:갈리아키살피나 (포강 유역)","layer":"admin_regions","name_ko":"갈리아키살피나 (포강 유역)","name":"갈리아키살피나 (포강 유역)","actor":"기타중립","route":"gauls_area","valid_from":-4,"valid_to":1000000,"confidence":"high","source":"book"},"geometry":{"type":"Polygon","coordinates":[[[7.5,45.5],[9,46.3],[11.5,46],[13,45.6],[12.5,44.5],[9.5,44.5],[7.5,44.7],[7.5,45.5]]]}},{"type":"Feature","properties":{"id":"admin:gauls_area:갈라티아 (아나톨리아)","layer":"admin_regions","name_ko":"갈라티아 (아나톨리아)","name":"갈라티아 (아나톨리아)","actor":"기타중립","route":"gauls_area","valid_from":-3,"valid_to":1000000,"confidence":"medium","source":"book"},"geometry":{"type":"Polygon","coordinates":[[[31.5,40.5],[33.5,41],[34.5,40],[33.5,38.8],[31.5,39],[30.8,39.8],[31.5,40.5]]]}},{"type":"Feature","properties":{"id":"admin:germania_area:서부 게르마니아 (라인강~엘베강)","layer":"admin_regions","name_ko":"서부 게르마니아 (라인강~엘베강)","name":"서부 게르마니아 (라인강~엘베강)","actor":"기타중립","route":"germania_area","valid_from":null,"valid_to":1000000,"confidence":"low","source":"book"},"geometry":{"type":"Polygon","coordinates":[[[6,50.8],[6.1,53.3],[8.1,53.9],[10.5,54.5],[13,54],[13.5,52],[11.9,50],[9,49],[7.5,49],[6,49.5],[6,50.8]]]}},{"type":"Feature","properties":{"id":"admin:germania_area:동부 게르마니아 (엘베강~비스와강)","layer":"admin_regions","name_ko":"동부 게르마니아 (엘베강~비스와강)","name":"동부 게르마니아 (엘베강~비스와강)","actor":"기타중립","route":"germania_area","valid_from":null,"valid_to":1000000,"confidence":"low","source":"book"},"geometry":{"type":"Polygon","coordinates":[[[13,54],[16.5,54.5],[19,54.3],[18.6,52],[17,50],[14.7,50.9],[13.5,52],[13,54]]]}},{"type":"Feature","properties":{"id":"admin:germania_people_area:서부 게르마니아 (라인강~베저강)","layer":"admin_regions","name_ko":"서부 게르마니아 (라인강~베저강)","name":"서부 게르마니아 (라인강~베저강)","actor":"기타중립","route":"germania_people_area","valid_from":null,"valid_to":1000000,"confidence":"low","source":"book"},"geometry":{"type":"Polygon","coordinates":[[[6,52.5],[9.5,53.5],[11,52],[9.5,50],[7,49.5],[6,50.5],[6,52.5]]]}},{"type":"Feature","properties":{"id":"admin:germania_people_area:동부 게르마니아 (베저강~비스툴라강)","layer":"admin_regions","name_ko":"동부 게르마니아 (베저강~비스툴라강)","name":"동부 게르마니아 (베저강~비스툴라강)","actor":"기타중립","route":"germania_people_area","valid_from":null,"valid_to":1000000,"confidence":"low","source":"book"},"geometry":{"type":"Polygon","coordinates":[[[11,54],[15,54.5],[18.5,54],[18,51],[14,50.5],[11,51.5],[11,54]]]}},{"type":"Feature","properties":{"id":"admin:germanic_peoples_area:스칸디나비아 기원지 (전승)","layer":"admin_regions","name_ko":"스칸디나비아 기원지 (전승)","name":"스칸디나비아 기원지 (전승)","actor":"기타중립","route":"germanic_peoples_area","valid_from":null,"valid_to":1000000,"confidence":"low","source":"book"},"geometry":{"type":"Polygon","coordinates":[[[10,58],[15,59],[18,57.5],[16,55.5],[12,55.3],[9.5,56.5],[10,58]]]}},{"type":"Feature","properties":{"id":"admin:germanic_peoples_area:중부 유럽 핵심지 (라인강~비스툴라강, 1~2세기)","layer":"admin_regions","name_ko":"중부 유럽 핵심지 (라인강~비스툴라강, 1~2세기)","name":"중부 유럽 핵심지 (라인강~비스툴라강, 1~2세기)","actor":"기타중립","route":"germanic_peoples_area","valid_from":null,"valid_to":1000000,"confidence":"low","source":"book"},"geometry":{"type":"Polygon","coordinates":[[[6,54],[15,55],[19,54],[18,50],[10,49],[6,50.5],[6,54]]]}},{"type":"Feature","properties":{"id":"admin:germanic_peoples_area:4~5세기 확산권 (도나우·흑해 변경)","layer":"admin_regions","name_ko":"4~5세기 확산권 (도나우·흑해 변경)","name":"4~5세기 확산권 (도나우·흑해 변경)","actor":"기타중립","route":"germanic_peoples_area","valid_from":null,"valid_to":1000000,"confidence":"low","source":"book"},"geometry":{"type":"Polygon","coordinates":[[[10,49],[20,48],[30,47],[38,46],[35,42],[20,43],[12,45],[10,49]]]}},{"type":"Feature","properties":{"id":"admin:germany_area:독일 (현대 국경)","layer":"admin_regions","name_ko":"독일 (현대 국경)","name":"독일 (현대 국경)","actor":"기타중립","route":"germany_area","valid_from":null,"valid_to":1000000,"confidence":"low","source":"book"},"geometry":{"type":"Polygon","coordinates":[[[8.5,55],[11,54.5],[14.3,54],[14.7,51.3],[12.1,50.3],[12.5,48.8],[13,47.5],[10.2,47.3],[7.6,47.6],[7.5,49],[6,49.5],[6,50.8],[6.1,51.8],[7.2,53.3],[8.1,53.9],[8.5,55]]]}},{"type":"Feature","properties":{"id":"admin:goths_people_area:비스툴라강 하류 원거주지","layer":"admin_regions","name_ko":"비스툴라강 하류 원거주지","name":"비스툴라강 하류 원거주지","actor":"기타중립","route":"goths_people_area","valid_from":null,"valid_to":1000000,"confidence":"low","source":"book"},"geometry":{"type":"Polygon","coordinates":[[[17.5,53.8],[19.5,54.3],[19.8,53.3],[18,52.8],[17,53.2],[17.5,53.8]]]}},{"type":"Feature","properties":{"id":"admin:goths_people_area:흑해 북안 초원 (체르냐호프 문화)","layer":"admin_regions","name_ko":"흑해 북안 초원 (체르냐호프 문화)","name":"흑해 북안 초원 (체르냐호프 문화)","actor":"기타중립","route":"goths_people_area","valid_from":null,"valid_to":1000000,"confidence":"low","source":"book"},"geometry":{"type":"Polygon","coordinates":[[[24,49],[34,50],[38,47.5],[33,45],[27,45.5],[24,47],[24,49]]]}},{"type":"Feature","properties":{"id":"admin:goths_people_area:도나우강 북안 변경 (376년 도하 이전)","layer":"admin_regions","name_ko":"도나우강 북안 변경 (376년 도하 이전)","name":"도나우강 북안 변경 (376년 도하 이전)","actor":"기타중립","route":"goths_people_area","valid_from":null,"valid_to":1000000,"confidence":"low","source":"book"},"geometry":{"type":"Polygon","coordinates":[[[22,46.5],[27,47],[29,45.5],[25,44],[22.5,45],[22,46.5]]]}},{"type":"Feature","properties":{"id":"admin:greece_area:그리스 본토+펠로폰네소스 (섬 제외)","layer":"admin_regions","name_ko":"그리스 본토+펠로폰네소스 (섬 제외)","name":"그리스 본토+펠로폰네소스 (섬 제외)","actor":"기타중립","route":"greece_area","valid_from":null,"valid_to":1000000,"confidence":"low","source":"book"},"geometry":{"type":"Polygon","coordinates":[[[19.8,39.7],[20.7,40.6],[22.3,41.1],[24.6,41],[24,39.9],[24,38.3],[23.5,37.6],[22.9,37],[22.4,36.8],[21.6,37.4],[21.3,38.2],[20.9,39],[19.8,39.7],[19.8,39.7]]]}},{"type":"Feature","properties":{"id":"admin:haemimontus_area:하이모이시아 속주","layer":"admin_regions","name_ko":"하이모이시아 속주","name":"하이모이시아 속주","actor":"기타중립","route":"haemimontus_area","valid_from":null,"valid_to":1000000,"confidence":"low","source":"book"},"geometry":{"type":"Polygon","coordinates":[[[25,42.3],[26.6,42.6],[27.8,42.7],[27.9,41.9],[26.6,41.5],[25.3,41.7],[25,42.3],[25,42.3]]]}},{"type":"Feature","properties":{"id":"admin:hellespont_area:헬레스폰투스 전역","layer":"admin_regions","name_ko":"헬레스폰투스 전역","name":"헬레스폰투스 전역","actor":"기타중립","route":"hellespont_area","valid_from":null,"valid_to":1000000,"confidence":"low","source":"book"},"geometry":{"type":"Polygon","coordinates":[[[26,40.35],[26.2,40.3],[26.4,40.25],[26.55,40.15],[26.45,40.05],[26.25,40.1],[26.05,40.2],[25.95,40.3],[26,40.35],[26,40.35]]]}},{"type":"Feature","properties":{"id":"admin:helvetii_area:헬베티아 (스위스 고원, 기원전 1세기)","layer":"admin_regions","name_ko":"헬베티아 (스위스 고원, 기원전 1세기)","name":"헬베티아 (스위스 고원, 기원전 1세기)","actor":"기타중립","route":"helvetii_area","valid_from":-58,"valid_to":1000000,"confidence":"high","source":"book"},"geometry":{"type":"Polygon","coordinates":[[[6.1,46.2],[7.5,47],[9.3,47.5],[9.5,46.8],[8,46],[6.8,46.1],[6.1,46.2]]]}},{"type":"Feature","properties":{"id":"admin:hernici_area:헤르니키 영역 (사코 계곡, 기원전 5~4세기)","layer":"admin_regions","name_ko":"헤르니키 영역 (사코 계곡, 기원전 5~4세기)","name":"헤르니키 영역 (사코 계곡, 기원전 5~4세기)","actor":"기타중립","route":"hernici_area","valid_from":-5,"valid_to":1000000,"confidence":"medium","source":"book"},"geometry":{"type":"Polygon","coordinates":[[[13,41.85],[13.3,41.75],[13.35,41.6],[13.05,41.55],[12.9,41.7],[13,41.85]]]}},{"type":"Feature","properties":{"id":"admin:hispania_area:타라코넨시스 (Hispania Tarraconensis)","layer":"admin_regions","name_ko":"타라코넨시스 (Hispania Tarraconensis)","name":"타라코넨시스 (Hispania Tarraconensis)","actor":"기타중립","route":"hispania_area","valid_from":null,"valid_to":1000000,"confidence":"low","source":"book"},"geometry":{"type":"Polygon","coordinates":[[[-9,43],[-1.8,43.4],[3.2,42.4],[0.2,39.5],[-1,37.2],[-4,38],[-6.5,40],[-7.5,42],[-9,43]]]}},{"type":"Feature","properties":{"id":"admin:hispania_area:바이티카 (Hispania Baetica)","layer":"admin_regions","name_ko":"바이티카 (Hispania Baetica)","name":"바이티카 (Hispania Baetica)","actor":"기타중립","route":"hispania_area","valid_from":null,"valid_to":1000000,"confidence":"low","source":"book"},"geometry":{"type":"Polygon","coordinates":[[[-7.5,37.2],[-5.6,36],[-2.2,36.7],[-1,37.2],[-4,38],[-6.3,38.2],[-7.5,37.2]]]}},{"type":"Feature","properties":{"id":"admin:hispania_area:루시타니아 (Hispania Lusitania)","layer":"admin_regions","name_ko":"루시타니아 (Hispania Lusitania)","name":"루시타니아 (Hispania Lusitania)","actor":"기타중립","route":"hispania_area","valid_from":-25,"valid_to":1000000,"confidence":"medium","source":"book"},"geometry":{"type":"Polygon","coordinates":[[[-9.5,38.7],[-9.4,41.8],[-7.5,42],[-6.5,40],[-6.3,38.2],[-7.5,37.2],[-9.5,38.7]]]}},{"type":"Feature","properties":{"id":"admin:huns_area:폰투스-카스피해 초원 진입","layer":"admin_regions","name_ko":"폰투스-카스피해 초원 진입","name":"폰투스-카스피해 초원 진입","actor":"기타중립","route":"huns_area","valid_from":null,"valid_to":1000000,"confidence":"low","source":"book"},"geometry":{"type":"Polygon","coordinates":[[[35,50],[48,50],[52,46],[42,44],[34,46],[35,50]]]}},{"type":"Feature","properties":{"id":"admin:huns_area:카르파티아 분지 (판노니아, 아틸라 제국 중심지)","layer":"admin_regions","name_ko":"카르파티아 분지 (판노니아, 아틸라 제국 중심지)","name":"카르파티아 분지 (판노니아, 아틸라 제국 중심지)","actor":"기타중립","route":"huns_area","valid_from":null,"valid_to":1000000,"confidence":"low","source":"book"},"geometry":{"type":"Polygon","coordinates":[[[17,48],[22,48],[22.5,45.5],[18,45],[16.5,46.5],[17,48]]]}},{"type":"Feature","properties":{"id":"admin:huns_area:아틸라 제국 최대 조공권 (440~453년)","layer":"admin_regions","name_ko":"아틸라 제국 최대 조공권 (440~453년)","name":"아틸라 제국 최대 조공권 (440~453년)","actor":"기타중립","route":"huns_area","valid_from":null,"valid_to":1000000,"confidence":"low","source":"book"},"geometry":{"type":"Polygon","coordinates":[[[6,52],[45,52],[52,44],[30,40],[15,42],[6,47],[6,52]]]}},{"type":"Feature","properties":{"id":"admin:illyria_area:일리리아 (아드리아해 동안 전역)","layer":"admin_regions","name_ko":"일리리아 (아드리아해 동안 전역)","name":"일리리아 (아드리아해 동안 전역)","actor":"기타중립","route":"illyria_area","valid_from":null,"valid_to":1000000,"confidence":"low","source":"book"},"geometry":{"type":"Polygon","coordinates":[[[15.8,45.6],[17,45],[18.4,44.5],[19.6,43.5],[20.9,42],[20.5,40.9],[19.5,40.5],[19.1,42],[18.5,42.4],[17.7,42.9],[16.4,43.5],[15.3,44.8],[14.5,45.2],[13.9,45.5],[13.9,45.5],[15.8,45.6]]]}},{"type":"Feature","properties":{"id":"admin:illyricum_area:일리리쿰 (달마티아+판노니아)","layer":"admin_regions","name_ko":"일리리쿰 (달마티아+판노니아)","name":"일리리쿰 (달마티아+판노니아)","actor":"기타중립","route":"illyricum_area","valid_from":null,"valid_to":1000000,"confidence":"low","source":"book"},"geometry":{"type":"Polygon","coordinates":[[[13.9,45.6],[16,46.3],[19,46],[20.5,44.8],[21,43.5],[20,42.3],[19.3,41.3],[18.5,42.4],[16.4,43.5],[14.5,45],[13.9,45.6],[13.9,45.6]]]}},{"type":"Feature","properties":{"id":"admin:illyricum_orientale_area:동 일리리쿰 관구 (마케도니아+다키아 관구, 트라키아 제외)","layer":"admin_regions","name_ko":"동 일리리쿰 관구 (마케도니아+다키아 관구, 트라키아 제외)","name":"동 일리리쿰 관구 (마케도니아+다키아 관구, 트라키아 제외)","actor":"기타중립","route":"illyricum_orientale_area","valid_from":null,"valid_to":1000000,"confidence":"low","source":"book"},"geometry":{"type":"Polygon","coordinates":[[[19,45.5],[20.5,44.8],[22.9,44],[23.3,42.7],[23.7,41.5],[24.5,40],[23.7,38],[22,36.8],[21,38.5],[19.8,39.7],[19.3,41.3],[18.9,42.5],[19,43.5],[19.6,44.8],[19,45.5],[19,45.5]]]}},{"type":"Feature","properties":{"id":"admin:india_area:인도 아대륙 (현대 국경 기준)","layer":"admin_regions","name_ko":"인도 아대륙 (현대 국경 기준)","name":"인도 아대륙 (현대 국경 기준)","actor":"기타중립","route":"india_area","valid_from":null,"valid_to":1000000,"confidence":"low","source":"book"},"geometry":{"type":"Polygon","coordinates":[[[70,23.5],[68.5,24.5],[69.5,27],[74,32.5],[77,34.5],[79,32],[81,30],[88,27.5],[92,27],[95,26.5],[94,24],[92.5,22],[90.5,22],[86.5,21.5],[83,19],[80.3,15.8],[80.2,13],[79.8,10.3],[77.5,8.1],[76,10],[75,11.5],[74,13],[73,15.5],[72.8,19],[70,21],[70,23.5]]]}},{"type":"Feature","properties":{"id":"admin:indian_ocean_area:아라비아해~인도 서안","layer":"admin_regions","name_ko":"아라비아해~인도 서안","name":"아라비아해~인도 서안","actor":"기타중립","route":"indian_ocean_area","valid_from":null,"valid_to":1000000,"confidence":"low","source":"book"},"geometry":{"type":"Polygon","coordinates":[[[43,12],[48,14],[55,15],[60,18],[65,20],[70,20.5],[74,18],[76.5,14],[76,10],[72,7],[65,5],[58,4],[50,5],[45,8],[43,12],[43,12]]]}},{"type":"Feature","properties":{"id":"admin:ionian_area:이오니아해 전역","layer":"admin_regions","name_ko":"이오니아해 전역","name":"이오니아해 전역","actor":"기타중립","route":"ionian_area","valid_from":null,"valid_to":1000000,"confidence":"low","source":"book"},"geometry":{"type":"Polygon","coordinates":[[[16.5,40],[17.5,40],[19,39],[20.5,38.5],[21.5,37.5],[21,36.5],[19.5,36],[18,36.5],[16.5,37.5],[15.5,38.5],[16,39.2],[16.5,40],[16.5,40]]]}},{"type":"Feature","properties":{"id":"admin:italia_area:북부 이탈리아 (옛 갈리아키살피나)","layer":"admin_regions","name_ko":"북부 이탈리아 (옛 갈리아키살피나)","name":"북부 이탈리아 (옛 갈리아키살피나)","actor":"기타중립","route":"italia_area","valid_from":-42,"valid_to":1000000,"confidence":"high","source":"book"},"geometry":{"type":"Polygon","coordinates":[[[7,45.9],[9,46.6],[11,46.6],[13,46.5],[13.7,45.6],[12.3,44.5],[9.7,45.1],[8,44.3],[7,44.2],[6.9,45.2],[7,45.9]]]}},{"type":"Feature","properties":{"id":"admin:italia_area:중부 이탈리아 (라티움·에트루리아·움브리아)","layer":"admin_regions","name_ko":"중부 이탈리아 (라티움·에트루리아·움브리아)","name":"중부 이탈리아 (라티움·에트루리아·움브리아)","actor":"기타중립","route":"italia_area","valid_from":null,"valid_to":1000000,"confidence":"low","source":"book"},"geometry":{"type":"Polygon","coordinates":[[[10,44],[12.3,44.5],[13.7,42.7],[14,41.9],[13,41],[11,41.2],[9.9,42],[10,43],[10,44]]]}},{"type":"Feature","properties":{"id":"admin:italia_area:남부 이탈리아 (캄파니아~칼라브리아·마그나 그라이키아)","layer":"admin_regions","name_ko":"남부 이탈리아 (캄파니아~칼라브리아·마그나 그라이키아)","name":"남부 이탈리아 (캄파니아~칼라브리아·마그나 그라이키아)","actor":"기타중립","route":"italia_area","valid_from":null,"valid_to":1000000,"confidence":"low","source":"book"},"geometry":{"type":"Polygon","coordinates":[[[13,41],[14,41.9],[15.9,41.5],[17.2,40.5],[18.4,40.1],[16.6,38.2],[15.6,38.1],[13,39.5],[12.4,40.5],[13,41]]]}},{"type":"Feature","properties":{"id":"admin:italia_area:시칠리아 (Sicilia)","layer":"admin_regions","name_ko":"시칠리아 (Sicilia)","name":"시칠리아 (Sicilia)","actor":"기타중립","route":"italia_area","valid_from":-241,"valid_to":1000000,"confidence":"medium","source":"book"},"geometry":{"type":"Polygon","coordinates":[[[12.4,38.2],[15.5,38.2],[15.7,36.8],[12.6,36.7],[12.4,38.2]]]}},{"type":"Feature","properties":{"id":"admin:italia_peninsula_area:이탈리아 반도 (알프스~칼라브리아, 섬 제외)","layer":"admin_regions","name_ko":"이탈리아 반도 (알프스~칼라브리아, 섬 제외)","name":"이탈리아 반도 (알프스~칼라브리아, 섬 제외)","actor":"기타중립","route":"italia_peninsula_area","valid_from":null,"valid_to":1000000,"confidence":"low","source":"book"},"geometry":{"type":"Polygon","coordinates":[[[7.2,45.8],[9.5,46.5],[12.4,46.6],[13.8,45.6],[14.3,42.4],[16.9,41.1],[17.2,39.1],[15.9,38],[15.7,38.3],[16.6,39.8],[15.3,40],[14.4,40.6],[11.2,42.4],[9.9,43.9],[8.9,44.2],[7.5,44],[7.2,45.8]]]}},{"type":"Feature","properties":{"id":"admin:jews_area:유다·갈릴리 본향","layer":"admin_regions","name_ko":"유다·갈릴리 본향","name":"유다·갈릴리 본향","actor":"기타중립","route":"jews_area","valid_from":null,"valid_to":1000000,"confidence":"low","source":"book"},"geometry":{"type":"Polygon","coordinates":[[[34.9,33.3],[35.6,33.3],[35.6,31.2],[34.9,31.2],[34.9,33.3]]]}},{"type":"Feature","properties":{"id":"admin:jews_area:이집트(알렉산드리아) 디아스포라","layer":"admin_regions","name_ko":"이집트(알렉산드리아) 디아스포라","name":"이집트(알렉산드리아) 디아스포라","actor":"기타중립","route":"jews_area","valid_from":-3,"valid_to":1000000,"confidence":"low","source":"book"},"geometry":{"type":"Polygon","coordinates":[[[29.7,31.4],[30.2,31.4],[30.2,30.9],[29.7,30.9],[29.7,31.4]]]}},{"type":"Feature","properties":{"id":"admin:jews_area:바빌로니아 디아스포라","layer":"admin_regions","name_ko":"바빌로니아 디아스포라","name":"바빌로니아 디아스포라","actor":"기타중립","route":"jews_area","valid_from":-6,"valid_to":1000000,"confidence":"low","source":"book"},"geometry":{"type":"Polygon","coordinates":[[[43.5,33.5],[45,33.5],[45,32],[43.5,32],[43.5,33.5]]]}},{"type":"Feature","properties":{"id":"admin:jews_area:로마·이탈리아 디아스포라","layer":"admin_regions","name_ko":"로마·이탈리아 디아스포라","name":"로마·이탈리아 디아스포라","actor":"기타중립","route":"jews_area","valid_from":-2,"valid_to":1000000,"confidence":"low","source":"book"},"geometry":{"type":"Polygon","coordinates":[[[12,41.5],[13,41.5],[13,40.8],[12,40.8],[12,41.5]]]}},{"type":"Feature","properties":{"id":"admin:jews_area:소아시아 디아스포라","layer":"admin_regions","name_ko":"소아시아 디아스포라","name":"소아시아 디아스포라","actor":"기타중립","route":"jews_area","valid_from":null,"valid_to":1000000,"confidence":"low","source":"book"},"geometry":{"type":"Polygon","coordinates":[[[26.5,37.5],[29.5,37.5],[29.5,38.5],[26.5,38.5],[26.5,37.5]]]}},{"type":"Feature","properties":{"id":"admin:judah_area:유다 산지 핵심부 (예루살렘-헤브론)","layer":"admin_regions","name_ko":"유다 산지 핵심부 (예루살렘-헤브론)","name":"유다 산지 핵심부 (예루살렘-헤브론)","actor":"기타중립","route":"judah_area","valid_from":-587,"valid_to":1000000,"confidence":"medium","source":"book"},"geometry":{"type":"Polygon","coordinates":[[[35.3,31.85],[35.1,31.75],[34.95,31.55],[34.9,31.3],[35.1,31.2],[35.3,31.35],[35.4,31.65],[35.3,31.85]]]}},{"type":"Feature","properties":{"id":"admin:judea_area:유대·사마리아 핵심부","layer":"admin_regions","name_ko":"유대·사마리아 핵심부","name":"유대·사마리아 핵심부","actor":"기타중립","route":"judea_area","valid_from":null,"valid_to":1000000,"confidence":"low","source":"book"},"geometry":{"type":"Polygon","coordinates":[[[34.75,32.55],[35.25,32.55],[35.55,32.2],[35.55,31.85],[35.3,31.45],[34.9,31.35],[34.7,31.75],[34.65,32.2],[34.75,32.55]]]}},{"type":"Feature","properties":{"id":"admin:judea_area:이두매 남부","layer":"admin_regions","name_ko":"이두매 남부","name":"이두매 남부","actor":"기타중립","route":"judea_area","valid_from":null,"valid_to":1000000,"confidence":"low","source":"book"},"geometry":{"type":"Polygon","coordinates":[[[35.3,31.45],[35.55,31.3],[35.3,30.9],[34.9,31],[34.9,31.35],[35.3,31.45]]]}},{"type":"Feature","properties":{"id":"admin:kirghiz_plateau_area:톈산 산계 전역","layer":"admin_regions","name_ko":"톈산 산계 전역","name":"톈산 산계 전역","actor":"기타중립","route":"kirghiz_plateau_area","valid_from":null,"valid_to":1000000,"confidence":"low","source":"book"},"geometry":{"type":"Polygon","coordinates":[[[70,43.5],[75,43],[80,42.8],[85,42.5],[90,42],[94,41.5],[94,40.5],[90,41],[85,41.3],[80,41.5],[75,41.8],[70,42],[70,43.5]]]}},{"type":"Feature","properties":{"id":"admin:latins_area:라티움 (라틴 동맹, 기원전 6~4세기)","layer":"admin_regions","name_ko":"라티움 (라틴 동맹, 기원전 6~4세기)","name":"라티움 (라틴 동맹, 기원전 6~4세기)","actor":"기타중립","route":"latins_area","valid_from":-6,"valid_to":1000000,"confidence":"high","source":"book"},"geometry":{"type":"Polygon","coordinates":[[[12.2,42.1],[12.9,41.9],[13.3,41.4],[12.9,41.2],[12.3,41.5],[12,41.8],[12.2,42.1]]]}},{"type":"Feature","properties":{"id":"admin:libyans_area:키레나이카·마르마리카 분포 (고전고대)","layer":"admin_regions","name_ko":"키레나이카·마르마리카 분포 (고전고대)","name":"키레나이카·마르마리카 분포 (고전고대)","actor":"기타중립","route":"libyans_area","valid_from":null,"valid_to":1000000,"confidence":"low","source":"book"},"geometry":{"type":"Polygon","coordinates":[[[19.5,32.5],[24,32],[25.5,31],[23,30],[20,30.5],[18.5,31.5],[19.5,32.5]]]}},{"type":"Feature","properties":{"id":"admin:lombard_kingdom:북부 본토 (랑고바르디아 마요르)","layer":"admin_regions","name_ko":"북부 본토 (랑고바르디아 마요르)","name":"북부 본토 (랑고바르디아 마요르)","actor":"기타중립","route":"lombard_kingdom","valid_from":null,"valid_to":1000000,"confidence":"low","source":"book"},"geometry":{"type":"Polygon","coordinates":[[[7.6,45.5],[7.5,45.8],[8,46],[9,46.2],[10,46.3],[11,46.5],[12,46.2],[12.5,45.9],[12.8,45.6],[11.8733,45.4078],[10.9833,45.4333],[10.0261,45.1339],[9.67,45.695],[9.1895,45.4643],[9.15,45.1833],[9,44.8],[8.5,44.5],[8,44.3],[7.5,44],[7.2,44.2],[7,44.5],[7.6,45.5]]]}},{"type":"Feature","properties":{"id":"admin:lombard_kingdom:스폴레토 공국 (중부 산악지역)","layer":"admin_regions","name_ko":"스폴레토 공국 (중부 산악지역)","name":"스폴레토 공국 (중부 산악지역)","actor":"기타중립","route":"lombard_kingdom","valid_from":null,"valid_to":1000000,"confidence":"low","source":"book"},"geometry":{"type":"Polygon","coordinates":[[[12.5,43],[12.6406,42.5641],[12.7352,42.7352],[12.8626,42.4058],[13.5,42.8],[13.583,42.85],[13.7158,43.1608],[13.0689,43.1403],[13,43.8],[12.5,43.5],[11.8,43.5],[12,43.2],[12.5,43]]]}},{"type":"Feature","properties":{"id":"admin:lombard_kingdom:베네벤토 공국 (남부)","layer":"admin_regions","name_ko":"베네벤토 공국 (남부)","name":"베네벤토 공국 (남부)","actor":"기타중립","route":"lombard_kingdom","valid_from":null,"valid_to":1000000,"confidence":"low","source":"book"},"geometry":{"type":"Polygon","coordinates":[[[13,42.8],[13.5,42.5],[14,42.3],[14.2139,41.1056],[14.7781,41.1307],[14.6024,40.634],[14,40.8],[13.5,40.9],[13,41.2],[12.8,41.5],[12.6,41.8],[12.5,42.2],[13,42.8]]]}},{"type":"Feature","properties":{"id":"admin:marmara_area:마르마라해 전역","layer":"admin_regions","name_ko":"마르마라해 전역","name":"마르마라해 전역","actor":"기타중립","route":"marmara_area","valid_from":null,"valid_to":1000000,"confidence":"low","source":"book"},"geometry":{"type":"Polygon","coordinates":[[[27,40.7],[27.5,41],[28.5,41.1],[29.2,40.9],[29,40.5],[28,40.3],[27.3,40.4],[27,40.7],[27,40.7]]]}},{"type":"Feature","properties":{"id":"admin:mediterranean_area:서지중해 (알보란해~발레아레스)","layer":"admin_regions","name_ko":"서지중해 (알보란해~발레아레스)","name":"서지중해 (알보란해~발레아레스)","actor":"기타중립","route":"mediterranean_area","valid_from":null,"valid_to":1000000,"confidence":"low","source":"book"},"geometry":{"type":"Polygon","coordinates":[[[-6,36.3],[-5.5,37],[-4,38],[-2.5,39.5],[-1,40.5],[1,41.2],[3,41],[4,40],[3.5,39],[2.5,38],[1,37],[-1,36.3],[-3,36],[-5.8,35.8],[-5.8,35.8],[-6,36.3]]]}},{"type":"Feature","properties":{"id":"admin:mediterranean_area:티레니아해","layer":"admin_regions","name_ko":"티레니아해","name":"티레니아해","actor":"기타중립","route":"mediterranean_area","valid_from":null,"valid_to":1000000,"confidence":"low","source":"book"},"geometry":{"type":"Polygon","coordinates":[[[9,39],[9.5,40.5],[9.3,42],[10.5,43],[11.5,42.5],[12.5,41.5],[13.5,40.7],[14.5,40],[15.3,39],[15,38],[14,37.8],[12.5,38],[11,38.3],[9.8,38.5],[9,39],[9,39]]]}},{"type":"Feature","properties":{"id":"admin:mediterranean_area:중부 지중해 (시칠리아 해협)","layer":"admin_regions","name_ko":"중부 지중해 (시칠리아 해협)","name":"중부 지중해 (시칠리아 해협)","actor":"기타중립","route":"mediterranean_area","valid_from":null,"valid_to":1000000,"confidence":"low","source":"book"},"geometry":{"type":"Polygon","coordinates":[[[10,37.5],[11.5,37.3],[13,37],[14.5,36.5],[16,36],[18,35.5],[20,35],[21,34.5],[20.5,33.5],[18,33.5],[15,33.8],[12,34.5],[10,35.5],[9,36.5],[10,37.5],[10,37.5]]]}},{"type":"Feature","properties":{"id":"admin:mediterranean_area:동지중해 (레반트~이집트 연안)","layer":"admin_regions","name_ko":"동지중해 (레반트~이집트 연안)","name":"동지중해 (레반트~이집트 연안)","actor":"기타중립","route":"mediterranean_area","valid_from":null,"valid_to":1000000,"confidence":"low","source":"book"},"geometry":{"type":"Polygon","coordinates":[[[23,36.5],[25,36],[27,35.5],[29,34.5],[31,33],[33,32.5],[34.5,32],[34.8,31.2],[33,31],[31,31.3],[29,31.5],[27,32],[25,33],[23.5,34.5],[22.5,35.5],[23,36.5],[23,36.5]]]}},{"type":"Feature","properties":{"id":"admin:mesopotamia_area:북부 메소포타미아 핵심부 (니시비스-싱가라)","layer":"admin_regions","name_ko":"북부 메소포타미아 핵심부 (니시비스-싱가라)","name":"북부 메소포타미아 핵심부 (니시비스-싱가라)","actor":"기타중립","route":"mesopotamia_area","valid_from":null,"valid_to":1000000,"confidence":"low","source":"book"},"geometry":{"type":"Polygon","coordinates":[[[38.5,37.8],[40.2,38],[41.9,37.5],[42.5,36.3],[41,35.6],[39.3,36.2],[38.3,37],[38.5,37.8]]]}},{"type":"Feature","properties":{"id":"admin:mesopotamia_area:트라야누스 일시 정복선 (115~117, 티그리스 하류까지)","layer":"admin_regions","name_ko":"트라야누스 일시 정복선 (115~117, 티그리스 하류까지)","name":"트라야누스 일시 정복선 (115~117, 티그리스 하류까지)","actor":"기타중립","route":"mesopotamia_area","valid_from":null,"valid_to":1000000,"confidence":"low","source":"book"},"geometry":{"type":"Polygon","coordinates":[[[41,35.6],[42.5,36.3],[44.6,34.8],[44.6,32.8],[42.5,33.2],[41,34.5],[41,35.6]]]}},{"type":"Feature","properties":{"id":"admin:middle_east_area:아라비아 반도","layer":"admin_regions","name_ko":"아라비아 반도","name":"아라비아 반도","actor":"기타중립","route":"middle_east_area","valid_from":null,"valid_to":1000000,"confidence":"low","source":"book"},"geometry":{"type":"Polygon","coordinates":[[[34.5,32.5],[39,33.5],[44,33],[48.5,30],[50,26],[56,26.5],[59.8,22.5],[53,16.5],[43.5,12.5],[43,17],[37,19],[35,27],[34.5,30],[34.5,32.5]]]}},{"type":"Feature","properties":{"id":"admin:middle_east_area:레반트 (시리아·팔레스타인)","layer":"admin_regions","name_ko":"레반트 (시리아·팔레스타인)","name":"레반트 (시리아·팔레스타인)","actor":"기타중립","route":"middle_east_area","valid_from":null,"valid_to":1000000,"confidence":"low","source":"book"},"geometry":{"type":"Polygon","coordinates":[[[35,37],[36.5,36.7],[38,36.2],[38.5,34],[36.5,32],[34.9,31.5],[34.2,32],[34.6,33],[35,34.5],[35.5,36],[35,37]]]}},{"type":"Feature","properties":{"id":"admin:moesia_area:상 모이시아 (Moesia Superior)","layer":"admin_regions","name_ko":"상 모이시아 (Moesia Superior)","name":"상 모이시아 (Moesia Superior)","actor":"기타중립","route":"moesia_area","valid_from":null,"valid_to":1000000,"confidence":"low","source":"book"},"geometry":{"type":"Polygon","coordinates":[[[19.6,44.9],[21.5,44.9],[22.6,44.3],[22.3,43],[21.3,42.3],[20,42.6],[19.6,43.6],[19.6,44.9],[19.6,44.9]]]}},{"type":"Feature","properties":{"id":"admin:moesia_area:하 모이시아 (Moesia Inferior)","layer":"admin_regions","name_ko":"하 모이시아 (Moesia Inferior)","name":"하 모이시아 (Moesia Inferior)","actor":"기타중립","route":"moesia_area","valid_from":null,"valid_to":1000000,"confidence":"low","source":"book"},"geometry":{"type":"Polygon","coordinates":[[[22.6,44.3],[25.9,44.2],[28.6,45.2],[27.9,43.2],[26,42.7],[23.6,42.9],[22.6,44.3],[22.6,44.3]]]}},{"type":"Feature","properties":{"id":"admin:north_africa_area:지중해 남안 (알제리~튀니지~리비아)","layer":"admin_regions","name_ko":"지중해 남안 (알제리~튀니지~리비아)","name":"지중해 남안 (알제리~튀니지~리비아)","actor":"기타중립","route":"north_africa_area","valid_from":null,"valid_to":1000000,"confidence":"low","source":"book"},"geometry":{"type":"Polygon","coordinates":[[[-2,35.7],[3,37],[8,37.3],[10.5,37],[11.5,33],[15,32.8],[20,32.5],[25,31.6],[25,28],[18,29],[10,30.5],[3,31.5],[-2,32],[-2,35.7]]]}},{"type":"Feature","properties":{"id":"admin:numidia_area:누미디아 핵심지역 (키르타 일대)","layer":"admin_regions","name_ko":"누미디아 핵심지역 (키르타 일대)","name":"누미디아 핵심지역 (키르타 일대)","actor":"기타중립","route":"numidia_area","valid_from":null,"valid_to":1000000,"confidence":"low","source":"book"},"geometry":{"type":"Polygon","coordinates":[[[5,36.9],[6.5,37.1],[8,36.8],[8.3,36],[7.5,35],[6,34.5],[4.5,35],[4,36],[4.3,36.6],[5,36.9]]]}},{"type":"Feature","properties":{"id":"admin:numidia_area:서부 변경 (현 알제리 중부)","layer":"admin_regions","name_ko":"서부 변경 (현 알제리 중부)","name":"서부 변경 (현 알제리 중부)","actor":"기타중립","route":"numidia_area","valid_from":null,"valid_to":1000000,"confidence":"low","source":"book"},"geometry":{"type":"Polygon","coordinates":[[[2,36],[4,36],[4,34.5],[2.5,34],[1,34.5],[1,35.5],[2,36]]]}},{"type":"Feature","properties":{"id":"admin:numidians_area:누미디아 왕국 (마시니사~유구르타기, 기원전 2세기)","layer":"admin_regions","name_ko":"누미디아 왕국 (마시니사~유구르타기, 기원전 2세기)","name":"누미디아 왕국 (마시니사~유구르타기, 기원전 2세기)","actor":"기타중립","route":"numidians_area","valid_from":-2,"valid_to":1000000,"confidence":"high","source":"book"},"geometry":{"type":"Polygon","coordinates":[[[8.5,37],[8.2,36.2],[6,35.3],[3,35],[0.5,34.7],[-0.5,35.5],[2,36.5],[5,36.8],[7,37],[8.5,37]]]}},{"type":"Feature","properties":{"id":"admin:orient_area:킬리키아·이사우리아","layer":"admin_regions","name_ko":"킬리키아·이사우리아","name":"킬리키아·이사우리아","actor":"기타중립","route":"orient_area","valid_from":null,"valid_to":1000000,"confidence":"low","source":"book"},"geometry":{"type":"Polygon","coordinates":[[[30.5,37.5],[33,37.7],[35.5,37.3],[36.3,36.8],[36.3,36.2],[34.5,36.1],[32,36],[30.5,36.6],[30.5,37.5]]]}},{"type":"Feature","properties":{"id":"admin:orient_area:시리아·페니키아·에우프라테시스·오스로에네","layer":"admin_regions","name_ko":"시리아·페니키아·에우프라테시스·오스로에네","name":"시리아·페니키아·에우프라테시스·오스로에네","actor":"기타중립","route":"orient_area","valid_from":null,"valid_to":1000000,"confidence":"low","source":"book"},"geometry":{"type":"Polygon","coordinates":[[[36,38.3],[38.5,38],[40.5,37.3],[40,35.5],[38,34],[36,33],[35.2,33.3],[35.7,34.3],[35.9,36],[36,38.3]]]}},{"type":"Feature","properties":{"id":"admin:orient_area:팔레스티나 3원 (유대·사마리아·네게브)","layer":"admin_regions","name_ko":"팔레스티나 3원 (유대·사마리아·네게브)","name":"팔레스티나 3원 (유대·사마리아·네게브)","actor":"기타중립","route":"orient_area","valid_from":null,"valid_to":1000000,"confidence":"low","source":"book"},"geometry":{"type":"Polygon","coordinates":[[[34.3,33],[35.5,32.9],[35.6,31.8],[35.5,30.2],[34.6,29.6],[33.9,30.6],[34.2,32.2],[34.3,33]]]}},{"type":"Feature","properties":{"id":"admin:orient_area:아라비아","layer":"admin_regions","name_ko":"아라비아","name":"아라비아","actor":"기타중립","route":"orient_area","valid_from":null,"valid_to":1000000,"confidence":"low","source":"book"},"geometry":{"type":"Polygon","coordinates":[[[35.6,33],[36.8,32.8],[37.3,31.5],[36.5,30],[35.4,30.3],[35.2,31.5],[35.4,32.4],[35.6,33]]]}},{"type":"Feature","properties":{"id":"admin:orient_area:키프로스 (섬)","layer":"admin_regions","name_ko":"키프로스 (섬)","name":"키프로스 (섬)","actor":"기타중립","route":"orient_area","valid_from":null,"valid_to":1000000,"confidence":"low","source":"book"},"geometry":{"type":"Polygon","coordinates":[[[32.3,35.2],[33,35.6],[34,35.7],[34.6,35.3],[34,34.6],[33,34.6],[32.3,35.2]]]}},{"type":"Feature","properties":{"id":"admin:ostrogoth_kingdom:이탈리아 반도","layer":"admin_regions","name_ko":"이탈리아 반도","name":"이탈리아 반도","actor":"기타중립","route":"ostrogoth_kingdom","valid_from":null,"valid_to":1000000,"confidence":"low","source":"book"},"geometry":{"type":"Polygon","coordinates":[[[13,46.5],[14.5,45.5],[16,44.5],[18,42],[18.5,40.5],[14.5,40.5],[14,40],[13.5,39],[12.5,41],[9.5,43],[9,44.5],[10.5,45.5],[12,46],[13,46.5],[13,46.5]]]}},{"type":"Feature","properties":{"id":"admin:ostrogoth_kingdom:시칠리아","layer":"admin_regions","name_ko":"시칠리아","name":"시칠리아","actor":"기타중립","route":"ostrogoth_kingdom","valid_from":null,"valid_to":1000000,"confidence":"low","source":"book"},"geometry":{"type":"Polygon","coordinates":[[[15.5,38.5],[16,38],[15,37.5],[14.5,37],[13,37.5],[12.5,38],[13,38.5],[15.5,38.5],[15.5,38.5]]]}},{"type":"Feature","properties":{"id":"admin:ostrogoth_kingdom:달마티아","layer":"admin_regions","name_ko":"달마티아","name":"달마티아","actor":"기타중립","route":"ostrogoth_kingdom","valid_from":null,"valid_to":1000000,"confidence":"low","source":"book"},"geometry":{"type":"Polygon","coordinates":[[[16,45],[16,45],[17,44],[18.5,43],[17.5,42],[17,42.5],[16.5,43.5],[16,45]]]}},{"type":"Feature","properties":{"id":"admin:ostrogoths_people_area:드니에스터강 동쪽 초원 (그레우퉁기)","layer":"admin_regions","name_ko":"드니에스터강 동쪽 초원 (그레우퉁기)","name":"드니에스터강 동쪽 초원 (그레우퉁기)","actor":"기타중립","route":"ostrogoths_people_area","valid_from":null,"valid_to":1000000,"confidence":"low","source":"book"},"geometry":{"type":"Polygon","coordinates":[[[28,48.5],[35,49],[37,46.5],[31,45.5],[27.5,47],[28,48.5]]]}},{"type":"Feature","properties":{"id":"admin:ostrogoths_people_area:판노니아 (훈 제국 붕괴 후)","layer":"admin_regions","name_ko":"판노니아 (훈 제국 붕괴 후)","name":"판노니아 (훈 제국 붕괴 후)","actor":"기타중립","route":"ostrogoths_people_area","valid_from":null,"valid_to":1000000,"confidence":"low","source":"book"},"geometry":{"type":"Polygon","coordinates":[[[16,47.5],[19,47.8],[19.5,46],[17,45.5],[16,46.5],[16,47.5]]]}},{"type":"Feature","properties":{"id":"admin:palestina_area:팔레스티나 프리마 핵심부 (해안평야·유대·사마리아)","layer":"admin_regions","name_ko":"팔레스티나 프리마 핵심부 (해안평야·유대·사마리아)","name":"팔레스티나 프리마 핵심부 (해안평야·유대·사마리아)","actor":"기타중립","route":"palestina_area","valid_from":null,"valid_to":1000000,"confidence":"low","source":"book"},"geometry":{"type":"Polygon","coordinates":[[[34.3,33.05],[35,33],[35.55,32.5],[35.55,31.3],[35,31],[34.3,31.4],[34.2,32.3],[34.3,33.05]]]}},{"type":"Feature","properties":{"id":"admin:palestina_area:팔레스티나 테르티아 (네게브·시나이 방면, 4세기 이후)","layer":"admin_regions","name_ko":"팔레스티나 테르티아 (네게브·시나이 방면, 4세기 이후)","name":"팔레스티나 테르티아 (네게브·시나이 방면, 4세기 이후)","actor":"기타중립","route":"palestina_area","valid_from":null,"valid_to":1000000,"confidence":"low","source":"book"},"geometry":{"type":"Polygon","coordinates":[[[34.8,31.2],[35.55,31.1],[35.2,30.2],[34.7,29.6],[33.9,29.6],[33.9,30.6],[34.8,31.2]]]}},{"type":"Feature","properties":{"id":"admin:parthians_area:파르티아 본토 (호라산)","layer":"admin_regions","name_ko":"파르티아 본토 (호라산)","name":"파르티아 본토 (호라산)","actor":"기타중립","route":"parthians_area","valid_from":-3,"valid_to":1000000,"confidence":"high","source":"book"},"geometry":{"type":"Polygon","coordinates":[[[54,38],[58,38],[58.5,35.5],[55,34.5],[53.5,36],[54,38]]]}},{"type":"Feature","properties":{"id":"admin:parthians_area:파르티아 제국 최대 판도","layer":"admin_regions","name_ko":"파르티아 제국 최대 판도","name":"파르티아 제국 최대 판도","actor":"기타중립","route":"parthians_area","valid_from":-1,"valid_to":1000000,"confidence":"medium","source":"book"},"geometry":{"type":"Polygon","coordinates":[[[40,37],[55,40],[65,35],[68,28],[55,25],[42,30],[40,37]]]}},{"type":"Feature","properties":{"id":"admin:persia_area:이란 고원 (핵심지역)","layer":"admin_regions","name_ko":"이란 고원 (핵심지역)","name":"이란 고원 (핵심지역)","actor":"기타중립","route":"persia_area","valid_from":null,"valid_to":1000000,"confidence":"low","source":"book"},"geometry":{"type":"Polygon","coordinates":[[[44,39.5],[48,38.5],[53,37.5],[60,36.5],[63,30],[61,25.5],[56,26.5],[50,27],[48,30],[45,33],[44,36],[44,39.5]]]}},{"type":"Feature","properties":{"id":"admin:persia_area:메소포타미아 (티그리스-유프라테스)","layer":"admin_regions","name_ko":"메소포타미아 (티그리스-유프라테스)","name":"메소포타미아 (티그리스-유프라테스)","actor":"기타중립","route":"persia_area","valid_from":null,"valid_to":1000000,"confidence":"low","source":"book"},"geometry":{"type":"Polygon","coordinates":[[[38,37.5],[42,37.3],[45.5,36],[47.5,33],[48.5,30],[47,29.5],[44.5,31],[41.5,33.5],[39,35.5],[38,37.5]]]}},{"type":"Feature","properties":{"id":"admin:persia_area:카프카스 방면 완충지대","layer":"admin_regions","name_ko":"카프카스 방면 완충지대","name":"카프카스 방면 완충지대","actor":"기타중립","route":"persia_area","valid_from":null,"valid_to":1000000,"confidence":"low","source":"book"},"geometry":{"type":"Polygon","coordinates":[[[42,41.5],[45.5,41.5],[46.5,39.5],[44,38.5],[42.5,39.5],[42,41.5]]]}},{"type":"Feature","properties":{"id":"admin:pharos_area:파로스 본섬","layer":"admin_regions","name_ko":"파로스 본섬","name":"파로스 본섬","actor":"기타중립","route":"pharos_area","valid_from":null,"valid_to":1000000,"confidence":"low","source":"book"},"geometry":{"type":"Polygon","coordinates":[[[29.87,31.22],[29.89,31.215],[29.895,31.208],[29.88,31.205],[29.865,31.21],[29.87,31.22],[29.87,31.22]]]}},{"type":"Feature","properties":{"id":"admin:phoenicia_area:레바논 해안 전역 (티레-트리폴리)","layer":"admin_regions","name_ko":"레바논 해안 전역 (티레-트리폴리)","name":"레바논 해안 전역 (티레-트리폴리)","actor":"기타중립","route":"phoenicia_area","valid_from":null,"valid_to":1000000,"confidence":"low","source":"book"},"geometry":{"type":"Polygon","coordinates":[[[35.2,33.27],[35.37,33.56],[35.5,33.89],[35.65,34.12],[35.85,34.44],[36.05,34.35],[36,33.9],[35.9,33.5],[35.75,33.15],[35.2,33.27]]]}},{"type":"Feature","properties":{"id":"admin:poland_area:폴란드 (현대 국경)","layer":"admin_regions","name_ko":"폴란드 (현대 국경)","name":"폴란드 (현대 국경)","actor":"기타중립","route":"poland_area","valid_from":null,"valid_to":1000000,"confidence":"low","source":"book"},"geometry":{"type":"Polygon","coordinates":[[[14.2,53.9],[18.5,54.8],[19.6,54.4],[22.8,54.3],[23.9,52.2],[24.1,50.4],[22.5,49.1],[20,49.2],[17.7,49.5],[16.9,50.4],[14.9,50.9],[14.6,52.6],[14.2,53.9]]]}},{"type":"Feature","properties":{"id":"admin:pontus_area:서부: 비티니아-폰투스 속주 핵심부","layer":"admin_regions","name_ko":"서부: 비티니아-폰투스 속주 핵심부","name":"서부: 비티니아-폰투스 속주 핵심부","actor":"기타중립","route":"pontus_area","valid_from":-63,"valid_to":1000000,"confidence":"high","source":"book"},"geometry":{"type":"Polygon","coordinates":[[[33.5,42.1],[35.8,42],[37,41],[36,40.3],[34,40.5],[33,41.3],[33.5,42.1]]]}},{"type":"Feature","properties":{"id":"admin:pontus_area:동부: 폴레모니아쿠스 폰투스 (트라페주스 방면)","layer":"admin_regions","name_ko":"동부: 폴레모니아쿠스 폰투스 (트라페주스 방면)","name":"동부: 폴레모니아쿠스 폰투스 (트라페주스 방면)","actor":"기타중립","route":"pontus_area","valid_from":null,"valid_to":1000000,"confidence":"low","source":"book"},"geometry":{"type":"Polygon","coordinates":[[[37,41],[38.5,41.2],[39.9,41],[39.5,39.8],[37.5,40],[37,41]]]}},{"type":"Feature","properties":{"id":"admin:proconnesus_area:프로코네소스 본섬","layer":"admin_regions","name_ko":"프로코네소스 본섬","name":"프로코네소스 본섬","actor":"기타중립","route":"proconnesus_area","valid_from":null,"valid_to":1000000,"confidence":"low","source":"book"},"geometry":{"type":"Polygon","coordinates":[[[27.55,40.68],[27.65,40.66],[27.72,40.6],[27.68,40.55],[27.58,40.55],[27.5,40.6],[27.55,40.68],[27.55,40.68]]]}},{"type":"Feature","properties":{"id":"admin:rhodes_area:로도스 본섬","layer":"admin_regions","name_ko":"로도스 본섬","name":"로도스 본섬","actor":"기타중립","route":"rhodes_area","valid_from":null,"valid_to":1000000,"confidence":"low","source":"book"},"geometry":{"type":"Polygon","coordinates":[[[27.7,36.45],[28,36.35],[28.25,36.2],[28.2,36],[27.95,35.9],[27.7,36],[27.65,36.2],[27.7,36.45],[27.7,36.45]]]}},{"type":"Feature","properties":{"id":"admin:roman_empire_area:기원전 264년경 이탈리아 반도 (제1차 포에니 전쟁 직전)","layer":"admin_regions","name_ko":"기원전 264년경 이탈리아 반도 (제1차 포에니 전쟁 직전)","name":"기원전 264년경 이탈리아 반도 (제1차 포에니 전쟁 직전)","actor":"기타중립","route":"roman_empire_area","valid_from":-264,"valid_to":1000000,"confidence":"high","source":"book"},"geometry":{"type":"Polygon","coordinates":[[[12.6,44.3],[13.9,43.6],[15.9,41.6],[18.5,40.1],[17.2,39.1],[16.6,38.2],[15.7,38],[16.3,39.4],[15.9,40.6],[14.25,40.85],[13.5,41.3],[12.5,41.9],[11.8,42.8],[10.3,43.5],[10,44.1],[11,44.5],[12.6,44.3]]]}},{"type":"Feature","properties":{"id":"admin:roman_empire_area:기원전 44년경 (카이사르 사후)","layer":"admin_regions","name_ko":"기원전 44년경 (카이사르 사후)","name":"기원전 44년경 (카이사르 사후)","actor":"기타중립","route":"roman_empire_area","valid_from":-44,"valid_to":1000000,"confidence":"high","source":"book"},"geometry":{"type":"Polygon","coordinates":[[[-5.4,36],[-9.2,38.7],[-9,43],[-2,43.4],[-1,44.5],[-4.5,48.4],[1,50.5],[6,51],[8.5,47],[10.5,45],[12.5,41.9],[15.9,38.2],[18,40.5],[18.5,42.7],[20,39.6],[22,37],[24,40],[26.5,41.3],[29,41.1],[33.5,41.2],[36.2,36.2],[34.5,31.5],[23,32.5],[13.2,32.9],[10.3,36.8],[3.1,36.8],[-0.6,35.7],[-5.4,36]]]}},{"type":"Feature","properties":{"id":"admin:roman_empire_area:서기 117년 (트라야누스 치세, 최대 판도)","layer":"admin_regions","name_ko":"서기 117년 (트라야누스 치세, 최대 판도)","name":"서기 117년 (트라야누스 치세, 최대 판도)","actor":"기타중립","route":"roman_empire_area","valid_from":null,"valid_to":1000000,"confidence":"low","source":"book"},"geometry":{"type":"Polygon","coordinates":[[[-6.8,34],[-5.9,35.7],[-9.2,38.7],[-9,43],[-2,43.4],[-1,44.5],[-4.5,48.4],[-3,51.5],[-1.6,55],[0.5,52.5],[3,51.3],[6,51.9],[8.5,47],[10.5,45],[12.5,41.9],[15.9,38.2],[18,40.5],[18.5,42.7],[16.5,46],[21,45.7],[24,47.5],[27,45.5],[29.6,45.2],[31.5,43.5],[29,41.1],[33.5,41.2],[39,41],[44.5,40.2],[44.6,33.1],[40,36.5],[36.2,36.2],[34.9,29.5],[35.9,27],[32.9,24.1],[29.9,31.2],[23,32.5],[13.2,32.9],[10.3,36.8],[3.1,36.8],[-0.6,35.7],[-6.8,34]]]}},{"type":"Feature","properties":{"id":"admin:roman_empire_area:서기 395년 서방 (테오도시우스 사후 분할)","layer":"admin_regions","name_ko":"서기 395년 서방 (테오도시우스 사후 분할)","name":"서기 395년 서방 (테오도시우스 사후 분할)","actor":"기타중립","route":"roman_empire_area","valid_from":null,"valid_to":1000000,"confidence":"low","source":"book"},"geometry":{"type":"Polygon","coordinates":[[[-6.8,34],[-5.9,35.7],[-9.2,38.7],[-9,43],[-2,43.4],[-1,44.5],[-4.5,48.4],[-3,51.5],[-1.6,55],[0.5,52.5],[3,51.3],[6,51],[8.5,47],[10.5,45],[12.5,41.9],[15.9,38.2],[18,40.5],[18.5,42.7],[16.5,46],[19.5,45.2],[19,41.3],[13.2,32.9],[10.3,36.8],[3.1,36.8],[-0.6,35.7],[-6.8,34]]]}},{"type":"Feature","properties":{"id":"admin:roman_empire_area:서기 395년 동방 (테오도시우스 사후 분할)","layer":"admin_regions","name_ko":"서기 395년 동방 (테오도시우스 사후 분할)","name":"서기 395년 동방 (테오도시우스 사후 분할)","actor":"기타중립","route":"roman_empire_area","valid_from":null,"valid_to":1000000,"confidence":"low","source":"book"},"geometry":{"type":"Polygon","coordinates":[[[19,41.3],[20,39.6],[22,37],[24,40],[22.5,42],[23,44],[26.5,44],[29.6,45.2],[31.5,43.5],[29,41.1],[33.5,41.2],[39,41],[42,38.5],[40,37],[36.2,36.2],[34.9,29.5],[32.9,24.1],[29.9,31.2],[23,32.5],[15,31.5],[19,41.3]]]}},{"type":"Feature","properties":{"id":"admin:roman_empire_area:서기 565년경 (유스티니아누스 수복 직후, 지중해 본토)","layer":"admin_regions","name_ko":"서기 565년경 (유스티니아누스 수복 직후, 지중해 본토)","name":"서기 565년경 (유스티니아누스 수복 직후, 지중해 본토)","actor":"기타중립","route":"roman_empire_area","valid_from":null,"valid_to":1000000,"confidence":"low","source":"book"},"geometry":{"type":"Polygon","coordinates":[[[-0.6,35.7],[10.3,36.8],[15.9,38.2],[12.5,41.9],[10.5,45],[13.5,45.6],[18.5,42.7],[20,39.6],[22,37],[24,40],[22.5,42],[26.5,44],[29,41.1],[33.5,41.2],[39,41],[40,37],[36.2,36.2],[34.8,33.9],[34.9,29.5],[32.9,24.1],[29.9,31.2],[23,32.5],[15,31.5],[13.2,32.9],[-0.6,35.7]]]}},{"type":"Feature","properties":{"id":"admin:roman_empire_area:서기 565년경 (유스티니아누스 수복, 이스파니아 남부 엔클레이브)","layer":"admin_regions","name_ko":"서기 565년경 (유스티니아누스 수복, 이스파니아 남부 엔클레이브)","name":"서기 565년경 (유스티니아누스 수복, 이스파니아 남부 엔클레이브)","actor":"기타중립","route":"roman_empire_area","valid_from":null,"valid_to":1000000,"confidence":"low","source":"book"},"geometry":{"type":"Polygon","coordinates":[[[-5.9,36.2],[-3.6,36.7],[-0.9,37.6],[-1,38.3],[-3,37.8],[-5.4,36.9],[-5.9,36.2]]]}},{"type":"Feature","properties":{"id":"admin:roman_empire_area:서기 1400년경 (콘스탄티노플 함락 직전 잔존, 수도 주변)","layer":"admin_regions","name_ko":"서기 1400년경 (콘스탄티노플 함락 직전 잔존, 수도 주변)","name":"서기 1400년경 (콘스탄티노플 함락 직전 잔존, 수도 주변)","actor":"기타중립","route":"roman_empire_area","valid_from":null,"valid_to":1000000,"confidence":"low","source":"book"},"geometry":{"type":"Polygon","coordinates":[[[27.8,41.2],[29.3,41.3],[29.3,40.8],[27.9,40.7],[27.8,41.2]]]}},{"type":"Feature","properties":{"id":"admin:roman_empire_area:서기 1400년경 (콘스탄티노플 함락 직전 잔존, 모레아 전제후국)","layer":"admin_regions","name_ko":"서기 1400년경 (콘스탄티노플 함락 직전 잔존, 모레아 전제후국)","name":"서기 1400년경 (콘스탄티노플 함락 직전 잔존, 모레아 전제후국)","actor":"기타중립","route":"roman_empire_area","valid_from":null,"valid_to":1000000,"confidence":"low","source":"book"},"geometry":{"type":"Polygon","coordinates":[[[21,38.3],[23,38],[23.2,36.8],[22.5,36.4],[21.3,36.5],[20.9,37.5],[21,38.3]]]}},{"type":"Feature","properties":{"id":"admin:romania_area:루마니아 (현대 국경)","layer":"admin_regions","name_ko":"루마니아 (현대 국경)","name":"루마니아 (현대 국경)","actor":"기타중립","route":"romania_area","valid_from":null,"valid_to":1000000,"confidence":"low","source":"book"},"geometry":{"type":"Polygon","coordinates":[[[20.3,46.1],[22.9,47.9],[26.6,48.2],[27.6,47.5],[28.2,45.5],[28.8,45.2],[27.9,44],[23.7,43.7],[22.7,44],[21.5,45.2],[20.3,46.1],[20.3,46.1]]]}},{"type":"Feature","properties":{"id":"admin:russia_area:유럽 러시아 서부 (볼가~돈~흑해 북안, 우랄 산맥 서쪽 일부)","layer":"admin_regions","name_ko":"유럽 러시아 서부 (볼가~돈~흑해 북안, 우랄 산맥 서쪽 일부)","name":"유럽 러시아 서부 (볼가~돈~흑해 북안, 우랄 산맥 서쪽 일부)","actor":"기타중립","route":"russia_area","valid_from":null,"valid_to":1000000,"confidence":"low","source":"book"},"geometry":{"type":"Polygon","coordinates":[[[30.5,50],[37,51.5],[45,52],[50,51],[55,50],[60,50],[60,55],[55,58],[48,58.5],[40,58],[35,55.5],[31,52.5],[30.5,50]]]}},{"type":"Feature","properties":{"id":"admin:samnites_area:삼니움 (기원전 4세기, 삼니움 전쟁 이전)","layer":"admin_regions","name_ko":"삼니움 (기원전 4세기, 삼니움 전쟁 이전)","name":"삼니움 (기원전 4세기, 삼니움 전쟁 이전)","actor":"기타중립","route":"samnites_area","valid_from":-4,"valid_to":1000000,"confidence":"high","source":"book"},"geometry":{"type":"Polygon","coordinates":[[[13.5,42.3],[14.7,42],[14.9,41.3],[14.5,40.9],[13.7,41.2],[13.4,41.8],[13.5,42.3]]]}},{"type":"Feature","properties":{"id":"admin:sardinia_area:사르데냐 본섬","layer":"admin_regions","name_ko":"사르데냐 본섬","name":"사르데냐 본섬","actor":"기타중립","route":"sardinia_area","valid_from":null,"valid_to":1000000,"confidence":"low","source":"book"},"geometry":{"type":"Polygon","coordinates":[[[8.5,41.2],[9.3,41],[9.7,40.5],[9.6,39.8],[9.7,39.2],[9.4,38.9],[8.9,39],[8.5,39.5],[8.2,40],[8.1,40.7],[8.3,41.1],[8.5,41.2],[8.5,41.2]]]}},{"type":"Feature","properties":{"id":"admin:sasanian_kingdom:이란 고원·메소포타미아 핵심부","layer":"admin_regions","name_ko":"이란 고원·메소포타미아 핵심부","name":"이란 고원·메소포타미아 핵심부","actor":"기타중립","route":"sasanian_kingdom","valid_from":null,"valid_to":1000000,"confidence":"low","source":"book"},"geometry":{"type":"Polygon","coordinates":[[[44,37],[46,38.5],[48,37.5],[50,36.5],[52,35],[54,34],[56,33.5],[58,34],[60,35.5],[61,37],[60,38.5],[58,39],[56,39.5],[54,40],[52,40.5],[50,40.2],[48,39.8],[46,39.5],[44.5,38.5],[44,37.5],[44,37]]]}},{"type":"Feature","properties":{"id":"admin:sasanian_kingdom:동부 확장: 소그드·박트리아·호라산","layer":"admin_regions","name_ko":"동부 확장: 소그드·박트리아·호라산","name":"동부 확장: 소그드·박트리아·호라산","actor":"기타중립","route":"sasanian_kingdom","valid_from":null,"valid_to":1000000,"confidence":"low","source":"book"},"geometry":{"type":"Polygon","coordinates":[[[61,40.8],[63,40.5],[65,40],[67,39.5],[69,38.5],[71,37],[71,35],[70,34.5],[68,35],[66,36],[63,37.5],[60,38.5],[58,40],[56,39.5],[56,39.5],[61,40.8]]]}},{"type":"Feature","properties":{"id":"admin:sasanian_kingdom:서부 일시 점령 (614~628, 호스로 2세)","layer":"admin_regions","name_ko":"서부 일시 점령 (614~628, 호스로 2세)","name":"서부 일시 점령 (614~628, 호스로 2세)","actor":"기타중립","route":"sasanian_kingdom","valid_from":null,"valid_to":1000000,"confidence":"low","source":"book"},"geometry":{"type":"Polygon","coordinates":[[[44,37],[42,37.5],[40,37],[37,36.5],[36,35],[34,32],[33,30],[32,31],[32.5,33],[34,35],[36,36.5],[38,37.5],[40,38],[42,37.5],[44,37],[44,37]]]}},{"type":"Feature","properties":{"id":"admin:scandinavia_area:스칸디나비아 반도 (노르웨이·스웨덴 중심)","layer":"admin_regions","name_ko":"스칸디나비아 반도 (노르웨이·스웨덴 중심)","name":"스칸디나비아 반도 (노르웨이·스웨덴 중심)","actor":"기타중립","route":"scandinavia_area","valid_from":null,"valid_to":1000000,"confidence":"low","source":"book"},"geometry":{"type":"Polygon","coordinates":[[[5,58],[7,62],[10,65],[14,67.5],[16,69],[20,69.5],[24,68.5],[23,65.5],[21,63],[18.5,60],[17.5,58.5],[13,55.5],[10.5,57],[7.5,58],[5,58]]]}},{"type":"Feature","properties":{"id":"admin:scythia_area:폰투스 스텝 (북흑해 연안)","layer":"admin_regions","name_ko":"폰투스 스텝 (북흑해 연안)","name":"폰투스 스텝 (북흑해 연안)","actor":"기타중립","route":"scythia_area","valid_from":null,"valid_to":1000000,"confidence":"low","source":"book"},"geometry":{"type":"Polygon","coordinates":[[[28,49.5],[32,50.5],[37,50],[40,48],[39.5,45],[35,44.5],[30,45.5],[27.5,47],[28,49.5]]]}},{"type":"Feature","properties":{"id":"admin:sicilia_area:시칠리아 본섬","layer":"admin_regions","name_ko":"시칠리아 본섬","name":"시칠리아 본섬","actor":"기타중립","route":"sicilia_area","valid_from":null,"valid_to":1000000,"confidence":"low","source":"book"},"geometry":{"type":"Polygon","coordinates":[[[12.4,38.2],[13.2,38.25],[14.3,38.15],[15.2,38.25],[15.65,38.05],[15.55,37.5],[15.1,36.9],[14.3,36.7],[13.4,37.1],[12.5,37.8],[12.2,38],[12.4,38.2],[12.4,38.2]]]}},{"type":"Feature","properties":{"id":"admin:spaniards_area:이베리아 반도 원주민 분포 (로마 정복기)","layer":"admin_regions","name_ko":"이베리아 반도 원주민 분포 (로마 정복기)","name":"이베리아 반도 원주민 분포 (로마 정복기)","actor":"기타중립","route":"spaniards_area","valid_from":-3,"valid_to":1000000,"confidence":"medium","source":"book"},"geometry":{"type":"Polygon","coordinates":[[[-9.5,43.5],[-1.8,43.5],[3.2,42.4],[0.2,38.8],[-5.4,36.1],[-9.5,38.7],[-9.3,41.5],[-9.5,43.5]]]}},{"type":"Feature","properties":{"id":"admin:syria_area:북부 해안·내륙 핵심부 (안티오키아-알레포-에메사)","layer":"admin_regions","name_ko":"북부 해안·내륙 핵심부 (안티오키아-알레포-에메사)","name":"북부 해안·내륙 핵심부 (안티오키아-알레포-에메사)","actor":"기타중립","route":"syria_area","valid_from":-64,"valid_to":1000000,"confidence":"high","source":"book"},"geometry":{"type":"Polygon","coordinates":[[[36.15,36.75],[37,37.15],[38,36.6],[37.3,35.7],[36.7,34.9],[35.95,34.55],[35.85,35.3],[36,36.1],[36.15,36.75]]]}},{"type":"Feature","properties":{"id":"admin:syria_area:동부 사막 접경: 팔미라·다마스쿠스 방면","layer":"admin_regions","name_ko":"동부 사막 접경: 팔미라·다마스쿠스 방면","name":"동부 사막 접경: 팔미라·다마스쿠스 방면","actor":"기타중립","route":"syria_area","valid_from":null,"valid_to":1000000,"confidence":"low","source":"book"},"geometry":{"type":"Polygon","coordinates":[[[37.3,35.7],[38.5,35],[39,34],[38,33.2],[36.7,33],[36,33.5],[36.7,34.9],[37.3,35.7]]]}},{"type":"Feature","properties":{"id":"admin:teutones_area:유틀란트 원거주지 (추정)","layer":"admin_regions","name_ko":"유틀란트 원거주지 (추정)","name":"유틀란트 원거주지 (추정)","actor":"기타중립","route":"teutones_area","valid_from":-120,"valid_to":1000000,"confidence":"low","source":"book"},"geometry":{"type":"Polygon","coordinates":[[[8.5,57.5],[10.5,57.3],[10.8,55],[9,54.8],[8.3,56],[8.5,57.5]]]}},{"type":"Feature","properties":{"id":"admin:teutones_area:갈리아 이동·약탈로","layer":"admin_regions","name_ko":"갈리아 이동·약탈로","name":"갈리아 이동·약탈로","actor":"기타중립","route":"teutones_area","valid_from":-113,"valid_to":1000000,"confidence":"medium","source":"book"},"geometry":{"type":"Polygon","coordinates":[[[3,47.5],[6,47],[6,44],[4.5,43.3],[2.5,44.5],[3,47.5]]]}},{"type":"Feature","properties":{"id":"admin:thessalia_area:테살리아 분지","layer":"admin_regions","name_ko":"테살리아 분지","name":"테살리아 분지","actor":"기타중립","route":"thessalia_area","valid_from":null,"valid_to":1000000,"confidence":"low","source":"book"},"geometry":{"type":"Polygon","coordinates":[[[21.7,39.9],[22.4,40.1],[23,39.6],[23.1,39.2],[22.6,38.9],[21.9,39.2],[21.6,39.6],[21.7,39.9],[21.7,39.9]]]}},{"type":"Feature","properties":{"id":"admin:thracia_area:트라키아 관구","layer":"admin_regions","name_ko":"트라키아 관구","name":"트라키아 관구","actor":"기타중립","route":"thracia_area","valid_from":null,"valid_to":1000000,"confidence":"low","source":"book"},"geometry":{"type":"Polygon","coordinates":[[[23,42.8],[24.7,43.2],[27.5,43.7],[28.6,42.5],[28,41],[26.6,40.9],[24.9,41],[23,42],[23,42.8],[23,42.8]]]}},{"type":"Feature","properties":{"id":"admin:transylvania_area:트란실바니아 분지","layer":"admin_regions","name_ko":"트란실바니아 분지","name":"트란실바니아 분지","actor":"기타중립","route":"transylvania_area","valid_from":null,"valid_to":1000000,"confidence":"low","source":"book"},"geometry":{"type":"Polygon","coordinates":[[[22.5,47],[24.5,47.5],[25.5,46.5],[25,45.9],[23.8,45.6],[22.9,45.7],[22.2,46],[22.5,47],[22.5,47]]]}},{"type":"Feature","properties":{"id":"admin:turkestan_area:중앙아시아 (현 카자흐스탄 남부~우즈베키스탄·투르크메니스탄)","layer":"admin_regions","name_ko":"중앙아시아 (현 카자흐스탄 남부~우즈베키스탄·투르크메니스탄)","name":"중앙아시아 (현 카자흐스탄 남부~우즈베키스탄·투르크메니스탄)","actor":"기타중립","route":"turkestan_area","valid_from":null,"valid_to":1000000,"confidence":"low","source":"book"},"geometry":{"type":"Polygon","coordinates":[[[52,45],[58,47],[65,49],[70,50.5],[75,50],[80,48],[78,43],[74,40],[69,38],[63,37],[58,38.5],[54,41],[51,43.5],[52,45]]]}},{"type":"Feature","properties":{"id":"admin:turkey_area:아나톨리아 (아시아 쪽 본토)","layer":"admin_regions","name_ko":"아나톨리아 (아시아 쪽 본토)","name":"아나톨리아 (아시아 쪽 본토)","actor":"기타중립","route":"turkey_area","valid_from":null,"valid_to":1000000,"confidence":"low","source":"book"},"geometry":{"type":"Polygon","coordinates":[[[26.7,38.4],[28,37],[31.5,36.5],[35,36.2],[38,36.7],[42,37.3],[44,39.5],[42,41.3],[38.5,41.5],[35,42],[31.5,41.7],[28.9,40.7],[28.9,40.7],[27,40.1],[26.7,38.4]]]}},{"type":"Feature","properties":{"id":"admin:turkey_area:유럽령 트라키아 (터키 영토)","layer":"admin_regions","name_ko":"유럽령 트라키아 (터키 영토)","name":"유럽령 트라키아 (터키 영토)","actor":"기타중립","route":"turkey_area","valid_from":null,"valid_to":1000000,"confidence":"low","source":"book"},"geometry":{"type":"Polygon","coordinates":[[[26,40],[26.4,41.7],[27.5,41.9],[28.6,41.4],[29.1,41.1],[28.9,40.9],[27,40.05],[26,40],[26,40]]]}},{"type":"Feature","properties":{"id":"admin:ukraine_area:우크라이나 (현대 국경 기준)","layer":"admin_regions","name_ko":"우크라이나 (현대 국경 기준)","name":"우크라이나 (현대 국경 기준)","actor":"기타중립","route":"ukraine_area","valid_from":null,"valid_to":1000000,"confidence":"low","source":"book"},"geometry":{"type":"Polygon","coordinates":[[[22.5,49],[24,50],[28,51.5],[31.5,52.3],[35,51.9],[38.2,49.6],[39.7,48.2],[38,47],[35.5,45.4],[33.5,45.3],[31,46.3],[30,45.5],[29.6,45.5],[28.2,45.5],[26.6,48.2],[24,47.8],[22.9,48],[22.5,49]]]}},{"type":"Feature","properties":{"id":"admin:vandal_kingdom:아프리카 속주 (Africa Proconsularis)","layer":"admin_regions","name_ko":"아프리카 속주 (Africa Proconsularis)","name":"아프리카 속주 (Africa Proconsularis)","actor":"기타중립","route":"vandal_kingdom","valid_from":null,"valid_to":1000000,"confidence":"low","source":"book"},"geometry":{"type":"Polygon","coordinates":[[[9,37.2],[10,37.5],[11,37.3],[11.5,36.9],[11.2,36.2],[10.5,36],[9.5,36.1],[9,36.3],[8.5,36.5],[8.5,37],[9,37.2]]]}},{"type":"Feature","properties":{"id":"admin:vandal_kingdom:비자케나 (Byzacena)","layer":"admin_regions","name_ko":"비자케나 (Byzacena)","name":"비자케나 (Byzacena)","actor":"기타중립","route":"vandal_kingdom","valid_from":null,"valid_to":1000000,"confidence":"low","source":"book"},"geometry":{"type":"Polygon","coordinates":[[[9.5,36.1],[11.2,36.2],[11.5,35.5],[11,34.3],[9.8,34.2],[9,34.5],[8.8,35.2],[9.2,35.8],[9.5,36.1]]]}},{"type":"Feature","properties":{"id":"admin:vandal_kingdom:누미디아 (Numidia, 동부 및 해안)","layer":"admin_regions","name_ko":"누미디아 (Numidia, 동부 및 해안)","name":"누미디아 (Numidia, 동부 및 해안)","actor":"기타중립","route":"vandal_kingdom","valid_from":null,"valid_to":1000000,"confidence":"low","source":"book"},"geometry":{"type":"Polygon","coordinates":[[[5.5,36.5],[7.5,37],[8.5,36.8],[8.5,36.2],[7,35.5],[6,35.3],[5,35.6],[4.8,36],[5.2,36.3],[5.5,36.5]]]}},{"type":"Feature","properties":{"id":"admin:vandal_kingdom:트리폴리타니아 (Tripolitania)","layer":"admin_regions","name_ko":"트리폴리타니아 (Tripolitania)","name":"트리폴리타니아 (Tripolitania)","actor":"기타중립","route":"vandal_kingdom","valid_from":null,"valid_to":1000000,"confidence":"low","source":"book"},"geometry":{"type":"Polygon","coordinates":[[[11.5,33],[14.5,33.2],[15,32.5],[14.8,31.8],[13.5,31.5],[12,31.8],[11,32.3],[10.8,32.8],[11.5,33]]]}},{"type":"Feature","properties":{"id":"admin:vandal_kingdom:사르데냐","layer":"admin_regions","name_ko":"사르데냐","name":"사르데냐","actor":"기타중립","route":"vandal_kingdom","valid_from":null,"valid_to":1000000,"confidence":"low","source":"book"},"geometry":{"type":"Polygon","coordinates":[[[8,41.2],[9.8,41.3],[9.9,38.9],[8.2,38.8],[8,41.2]]]}},{"type":"Feature","properties":{"id":"admin:vandal_kingdom:코르시카","layer":"admin_regions","name_ko":"코르시카","name":"코르시카","actor":"기타중립","route":"vandal_kingdom","valid_from":null,"valid_to":1000000,"confidence":"low","source":"book"},"geometry":{"type":"Polygon","coordinates":[[[8.2,42.8],[9.2,42.9],[9.3,41.4],[8.4,41.3],[8.2,42.8]]]}},{"type":"Feature","properties":{"id":"admin:vandal_kingdom:발레아레스 제도 (Balearic Islands)","layer":"admin_regions","name_ko":"발레아레스 제도 (Balearic Islands)","name":"발레아레스 제도 (Balearic Islands)","actor":"기타중립","route":"vandal_kingdom","valid_from":null,"valid_to":1000000,"confidence":"low","source":"book"},"geometry":{"type":"Polygon","coordinates":[[[1.2,39.8],[4,39.9],[4.1,38.6],[1,38.5],[1.2,39.8]]]}},{"type":"Feature","properties":{"id":"admin:vandal_kingdom:시칠리아 (부분적 통제, 한때)","layer":"admin_regions","name_ko":"시칠리아 (부분적 통제, 한때)","name":"시칠리아 (부분적 통제, 한때)","actor":"기타중립","route":"vandal_kingdom","valid_from":null,"valid_to":1000000,"confidence":"low","source":"book"},"geometry":{"type":"Polygon","coordinates":[[[12.5,38.2],[15.7,38.3],[15.8,36.7],[12.6,36.7],[12.5,38.2]]]}},{"type":"Feature","properties":{"id":"admin:vandals_people_area:오데르~비스툴라강 원거주지 (실레시아)","layer":"admin_regions","name_ko":"오데르~비스툴라강 원거주지 (실레시아)","name":"오데르~비스툴라강 원거주지 (실레시아)","actor":"기타중립","route":"vandals_people_area","valid_from":null,"valid_to":1000000,"confidence":"low","source":"book"},"geometry":{"type":"Polygon","coordinates":[[[15,51.5],[18.5,52],[19,50],[16,49.5],[14.5,50.5],[15,51.5]]]}},{"type":"Feature","properties":{"id":"admin:vandals_people_area:판노니아 정착지","layer":"admin_regions","name_ko":"판노니아 정착지","name":"판노니아 정착지","actor":"기타중립","route":"vandals_people_area","valid_from":null,"valid_to":1000000,"confidence":"low","source":"book"},"geometry":{"type":"Polygon","coordinates":[[[16.5,47.3],[19.5,47.5],[19.8,46],[17,45.8],[16.5,47.3]]]}},{"type":"Feature","properties":{"id":"admin:vandals_people_area:히스파니아 (하스딩기·실링기)","layer":"admin_regions","name_ko":"히스파니아 (하스딩기·실링기)","name":"히스파니아 (하스딩기·실링기)","actor":"기타중립","route":"vandals_people_area","valid_from":null,"valid_to":1000000,"confidence":"low","source":"book"},"geometry":{"type":"Polygon","coordinates":[[[-9,43.5],[-6,43.5],[-2,41],[-4.5,36.5],[-7.5,36.8],[-9.3,40],[-9,43.5]]]}},{"type":"Feature","properties":{"id":"admin:visigoth_kingdom:이베리아 반도 본토","layer":"admin_regions","name_ko":"이베리아 반도 본토","name":"이베리아 반도 본토","actor":"기타중립","route":"visigoth_kingdom","valid_from":null,"valid_to":1000000,"confidence":"low","source":"book"},"geometry":{"type":"Polygon","coordinates":[[[-6,43],[-3,43],[0.5,43],[3,42.8],[3.5,42],[3.5,40],[3.5,38],[3.2,36.5],[-6.3,36.5],[-9,37],[-9,40],[-8.5,42],[-7,42.5],[-6,43]]]}},{"type":"Feature","properties":{"id":"admin:visigoth_kingdom:셉티마니아 (남부 갈리아)","layer":"admin_regions","name_ko":"셉티마니아 (남부 갈리아)","name":"셉티마니아 (남부 갈리아)","actor":"기타중립","route":"visigoth_kingdom","valid_from":null,"valid_to":1000000,"confidence":"low","source":"book"},"geometry":{"type":"Polygon","coordinates":[[[0.5,44],[0.2,45],[3,45.2],[4.6,45],[4.6,43.5],[4,42.5],[2,42.7],[1,42.8],[0.5,43],[0.5,44]]]}},{"type":"Feature","properties":{"id":"admin:visigoths_people_area:다키아·왈라키아 (테르빙기)","layer":"admin_regions","name_ko":"다키아·왈라키아 (테르빙기)","name":"다키아·왈라키아 (테르빙기)","actor":"기타중립","route":"visigoths_people_area","valid_from":null,"valid_to":1000000,"confidence":"low","source":"book"},"geometry":{"type":"Polygon","coordinates":[[[22,47],[27.5,47],[28,45],[23,44],[21.5,45.5],[22,47]]]}},{"type":"Feature","properties":{"id":"admin:visigoths_people_area:발칸 반도 유랑로 (378~410년)","layer":"admin_regions","name_ko":"발칸 반도 유랑로 (378~410년)","name":"발칸 반도 유랑로 (378~410년)","actor":"기타중립","route":"visigoths_people_area","valid_from":null,"valid_to":1000000,"confidence":"low","source":"book"},"geometry":{"type":"Polygon","coordinates":[[[20,42.5],[27,43.5],[26,40],[22,38.5],[18,40],[13,41],[15,43],[20,42.5]]]}},{"type":"Feature","properties":{"id":"admin:xiongnu_area:몽골 고원 핵심지","layer":"admin_regions","name_ko":"몽골 고원 핵심지","name":"몽골 고원 핵심지","actor":"기타중립","route":"xiongnu_area","valid_from":-3,"valid_to":1000000,"confidence":"high","source":"book"},"geometry":{"type":"Polygon","coordinates":[[[95,50.5],[110,51.5],[118,48],[110,43],[98,43.5],[93,46.5],[95,50.5]]]}},{"type":"Feature","properties":{"id":"admin:xiongnu_area:서방 이주·분산 (북흉노)","layer":"admin_regions","name_ko":"서방 이주·분산 (북흉노)","name":"서방 이주·분산 (북흉노)","actor":"기타중립","route":"xiongnu_area","valid_from":null,"valid_to":1000000,"confidence":"low","source":"book"},"geometry":{"type":"Polygon","coordinates":[[[65,48],[80,49],[90,46],[80,42],[68,43],[65,48]]]}}]}