{"type":"FeatureCollection","features":[{"type":"Feature","properties":{"id":"event:제1차포에니전쟁","entity":"event:제1차포에니전쟁","layer":"battles","name_ko":"제1차 포에니 전쟁","year":-264,"valid_from":-264,"valid_to":-234,"place":"place:로마","source":"book","confidence":"medium","src":"point"},"geometry":{"type":"Point","coordinates":[12.4862,41.8917]}},{"type":"Feature","properties":{"id":"event:제1차포에니전쟁#2","entity":"event:제1차포에니전쟁","layer":"battles","name_ko":"제1차 포에니 전쟁","year":-264,"valid_from":-264,"valid_to":-234,"place":"place:카르타고","source":"book","confidence":"medium","src":"point"},"geometry":{"type":"Point","coordinates":[10.3233,36.8528]}},{"type":"Feature","properties":{"id":"event:메시나전투","entity":"event:메시나전투","layer":"battles","name_ko":"메시나 전투","year":-264,"valid_from":-264,"valid_to":-234,"place":"place:메시나","source":"book","confidence":"medium","src":"point"},"geometry":{"type":"Point","coordinates":[15.5566,38.1923]}},{"type":"Feature","properties":{"id":"event:제2차포에니전쟁","entity":"event:제2차포에니전쟁","layer":"battles","name_ko":"제2차 포에니 전쟁","year":-218,"valid_from":-218,"valid_to":-188,"place":"place:로마","source":"book","confidence":"medium","src":"point"},"geometry":{"type":"Point","coordinates":[12.4862,41.8917]}},{"type":"Feature","properties":{"id":"event:제2차포에니전쟁#2","entity":"event:제2차포에니전쟁","layer":"battles","name_ko":"제2차 포에니 전쟁","year":-218,"valid_from":-218,"valid_to":-188,"place":"place:카르타고","source":"book","confidence":"medium","src":"point"},"geometry":{"type":"Point","coordinates":[10.3233,36.8528]}},{"type":"Feature","properties":{"id":"event:칸나이전투","entity":"event:칸나이전투","layer":"battles","name_ko":"칸나이 전투","year":-216,"valid_from":-216,"valid_to":-186,"place":"place:칸나이평원","source":"book","confidence":"medium","src":"point"},"geometry":{"type":"Point","coordinates":[16.1325,41.3064]}},{"type":"Feature","properties":{"id":"event:제3차포에니전쟁","entity":"event:제3차포에니전쟁","layer":"battles","name_ko":"제3차 포에니 전쟁","year":-149,"valid_from":-149,"valid_to":-119,"place":"place:자마","source":"book","confidence":"medium","src":"point"},"geometry":{"type":"Point","coordinates":[9.4492,36.2989]}},{"type":"Feature","properties":{"id":"event:검투시합","entity":"event:검투시합","layer":"battles","name_ko":"검투 시합","year":80,"valid_from":80,"valid_to":110,"place":"place:콜로세움","source":"book","confidence":"medium","src":"point"},"geometry":{"type":"Point","coordinates":[12.4922,41.8903]}},{"type":"Feature","properties":{"id":"event:모의해전","entity":"event:모의해전","layer":"battles","name_ko":"모의 해전","year":52,"valid_from":52,"valid_to":82,"place":"place:푸키누스호수","source":"book","confidence":"medium","src":"point"},"geometry":{"type":"Point","coordinates":[13.5472,41.995]}},{"type":"Feature","properties":{"id":"event:페스트균","entity":"event:페스트균","layer":"battles","name_ko":"페스트균","year":165,"valid_from":165,"valid_to":195,"place":"place:로마","source":"book","confidence":"medium","src":"point"},"geometry":{"type":"Point","coordinates":[12.4862,41.8917]}},{"type":"Feature","properties":{"id":"event:에데사의전투","entity":"event:에데사의전투","layer":"battles","name_ko":"에데사의 전투","year":260,"valid_from":260,"valid_to":290,"place":"place:에데사","source":"book","confidence":"medium","src":"point"},"geometry":{"type":"Point","coordinates":[38.7855,37.163]}},{"type":"Feature","properties":{"id":"event:게르만민족의대이동","entity":"event:게르만민족의대이동","layer":"battles","name_ko":"게르만 민족의 대이동","year":375,"valid_from":375,"valid_to":405,"place":"place:도나우강","source":"book","confidence":"medium","src":"point"},"geometry":{"type":"Point","coordinates":[17,48]}},{"type":"Feature","properties":{"id":"event:하드리아노폴리스전투","entity":"event:하드리아노폴리스전투","layer":"battles","name_ko":"하드리아노폴리스 전투","year":378,"valid_from":378,"valid_to":408,"place":"place:하드리아노폴리스","source":"book","confidence":"medium","src":"point"},"geometry":{"type":"Point","coordinates":[26.5556,41.6769]}},{"type":"Feature","properties":{"id":"event:로마시함락","entity":"event:로마시함락","layer":"battles","name_ko":"로마 시 함락","year":410,"valid_from":410,"valid_to":440,"place":"place:로마","source":"book","confidence":"medium","src":"point"},"geometry":{"type":"Point","coordinates":[12.4862,41.8917]}},{"type":"Feature","properties":{"id":"event:니카의반란","entity":"event:니카의반란","layer":"battles","name_ko":"니카의 반란","year":532,"valid_from":532,"valid_to":562,"place":"place:콘스탄티노플","source":"book","confidence":"medium","src":"point"},"geometry":{"type":"Point","coordinates":[28.9498,41.0198]}},{"type":"Feature","properties":{"id":"event:히즈라","entity":"event:히즈라","layer":"battles","name_ko":"히즈라","year":622,"valid_from":622,"valid_to":652,"place":"place:메카","source":"book","confidence":"medium","src":"point"},"geometry":{"type":"Point","coordinates":[39.8262,21.4225]}},{"type":"Feature","properties":{"id":"event:아그리젠토포위","entity":"event:아그리젠토포위","layer":"battles","name_ko":"아그리젠토 포위 전투","year":-262,"valid_from":-262,"valid_to":-232,"place":"place:아그리젠토시","source":"book","confidence":"medium","src":"point"},"geometry":{"type":"Point","coordinates":[13.575,37.3125]}},{"type":"Feature","properties":{"id":"event:에크노무스해전","entity":"event:에크노무스해전","layer":"battles","name_ko":"에크노무스 해전","year":-256,"valid_from":-256,"valid_to":-226,"place":"place:에크노무스곶","source":"book","confidence":"medium","src":"point"},"geometry":{"type":"Point","coordinates":[13.907469,37.105865]}},{"type":"Feature","properties":{"id":"event:본곶전투","entity":"event:본곶전투","layer":"battles","name_ko":"본 곶 전투","year":-255,"valid_from":-255,"valid_to":-225,"place":"place:본곶","source":"book","confidence":"medium","src":"point"},"geometry":{"type":"Point","coordinates":[11.0219,37.0783]}},{"type":"Feature","properties":{"id":"event:탈라모네전투","entity":"event:탈라모네전투","layer":"battles","name_ko":"탈라모네 전투","year":-225,"valid_from":-225,"valid_to":-195,"place":"place:탈라모네","source":"book","confidence":"medium","src":"point"},"geometry":{"type":"Point","coordinates":[11.1328,42.5551]}},{"type":"Feature","properties":{"id":"event:팔레르모탈환시도","entity":"event:팔레르모탈환시도","layer":"battles","name_ko":"팔레르모 탈환 시도 전투","year":-250,"valid_from":-250,"valid_to":-220,"place":"place:팔레르모","source":"book","confidence":"medium","src":"point"},"geometry":{"type":"Point","coordinates":[13.363,38.118]}},{"type":"Feature","properties":{"id":"event:베네벤토전투","entity":"event:베네벤토전투","layer":"battles","name_ko":"베네벤토 전투","year":-275,"valid_from":-275,"valid_to":-245,"place":"place:베네벤토","source":"book","confidence":"medium","src":"point"},"geometry":{"type":"Point","coordinates":[14.7781,41.1307]}},{"type":"Feature","properties":{"id":"event:카이사르암살","entity":"event:카이사르암살","layer":"battles","name_ko":"카이사르 암살","year":-44,"valid_from":-44,"valid_to":-14,"place":"place:마르스광장","source":"book","confidence":"medium","src":"point"},"geometry":{"type":"Point","coordinates":[12.4772,41.8978]}},{"type":"Feature","properties":{"id":"event:악티움해전","entity":"event:악티움해전","layer":"battles","name_ko":"악티움 해전","year":-31,"valid_from":-31,"valid_to":-1,"place":"place:악티움","source":"book","confidence":"high","src":"manual"},"geometry":{"type":"Point","coordinates":[20.7498,38.9236]}},{"type":"Feature","properties":{"id":"event:알레시아포위전","entity":"event:알레시아포위전","layer":"battles","name_ko":"알레시아 포위전","year":-52,"valid_from":-52,"valid_to":-22,"place":"place:알레시아","source":"book","confidence":"high","src":"manual"},"geometry":{"type":"Point","coordinates":[4.5006,47.5392]}},{"type":"Feature","properties":{"id":"event:카우디움협곡전투","entity":"event:카우디움협곡전투","layer":"battles","name_ko":"카우디움 협곡의 멍에","year":-321,"valid_from":-321,"valid_to":-291,"place":"place:카우디움","source":"book","confidence":"high","src":"manual"},"geometry":{"type":"Point","coordinates":[14.636761,41.06255]}},{"type":"Feature","properties":{"id":"event:밀라이해전","entity":"event:밀라이해전","layer":"battles","name_ko":"밀라이 해전","year":-260,"valid_from":-260,"valid_to":-230,"place":"place:밀라이","source":"book","confidence":"high","src":"manual"},"geometry":{"type":"Point","coordinates":[15.2404,38.2194]}},{"type":"Feature","properties":{"id":"event:아이가테스해전","entity":"event:아이가테스해전","layer":"battles","name_ko":"아이가테스 해전","year":-241,"valid_from":-241,"valid_to":-211,"place":"place:아이가테스제도","source":"book","confidence":"high","src":"manual"},"geometry":{"type":"Point","coordinates":[12.1939,37.9509]}},{"type":"Feature","properties":{"id":"event:자마전투","entity":"event:자마전투","layer":"battles","name_ko":"자마 전투","year":-202,"valid_from":-202,"valid_to":-172,"place":"place:자마","source":"book","confidence":"high","src":"manual"},"geometry":{"type":"Point","coordinates":[9.4492,36.2989]}},{"type":"Feature","properties":{"id":"event:트라시메노전투","entity":"event:트라시메노전투","layer":"battles","name_ko":"트라시메노 호수 전투","year":-217,"valid_from":-217,"valid_to":-187,"place":"place:트라시메노호수","source":"book","confidence":"high","src":"manual"},"geometry":{"type":"Point","coordinates":[12.1,43.14]}},{"type":"Feature","properties":{"id":"event:스파르타쿠스의반란","entity":"event:스파르타쿠스의반란","layer":"battles","name_ko":"스파르타쿠스의 반란","year":-73,"valid_from":-73,"valid_to":-43,"place":"place:카푸아","source":"book","confidence":"high","src":"manual"},"geometry":{"type":"Point","coordinates":[14.25,41.086]}},{"type":"Feature","properties":{"id":"event:스파르타쿠스의반란#2","entity":"event:스파르타쿠스의반란","layer":"battles","name_ko":"스파르타쿠스의 반란","year":-71,"valid_from":-71,"valid_to":-41,"place":"place:실라루스강","source":"book","confidence":"high","src":"manual"},"geometry":{"type":"Point","coordinates":[15.1355,40.6195]}},{"type":"Feature","properties":{"id":"event:아피아가도십자가형","entity":"event:아피아가도십자가형","layer":"battles","name_ko":"아피아 가도 십자가형","year":-71,"valid_from":-71,"valid_to":-41,"place":"place:로마","source":"book","confidence":"medium","src":"manual"},"geometry":{"type":"Point","coordinates":[12.4862,41.8917]}},{"type":"Feature","properties":{"id":"event:카틸리나사건","entity":"event:카틸리나사건","layer":"battles","name_ko":"카틸리나 사건","year":-63,"valid_from":-63,"valid_to":-33,"place":"place:로마","source":"book","confidence":"high","src":"manual"},"geometry":{"type":"Point","coordinates":[12.4862,41.8917]}},{"type":"Feature","properties":{"id":"event:카틸리나사건#2","entity":"event:카틸리나사건","layer":"battles","name_ko":"카틸리나 사건","year":-62,"valid_from":-62,"valid_to":-32,"place":"place:피스토리아","source":"book","confidence":"high","src":"manual"},"geometry":{"type":"Point","coordinates":[10.9182435,43.932766]}},{"type":"Feature","properties":{"id":"event:아라우시오전투","entity":"event:아라우시오전투","layer":"battles","name_ko":"아라우시오 전투","year":-105,"valid_from":-105,"valid_to":-75,"place":"place:아라우시오","source":"book","confidence":"high","src":"manual"},"geometry":{"type":"Point","coordinates":[4.8079175,44.1367875]}},{"type":"Feature","properties":{"id":"event:아쿠아이섹스티아이전투","entity":"event:아쿠아이섹스티아이전투","layer":"battles","name_ko":"아쿠아이 섹스티아이 전투","year":-102,"valid_from":-102,"valid_to":-72,"place":"place:아쿠아이섹스티아이","source":"book","confidence":"high","src":"manual"},"geometry":{"type":"Point","coordinates":[5.44541,43.526232]}},{"type":"Feature","properties":{"id":"event:베르첼라이전투","entity":"event:베르첼라이전투","layer":"battles","name_ko":"베르첼라이 전투","year":-101,"valid_from":-101,"valid_to":-71,"place":"place:베르첼라이","source":"book","confidence":"high","src":"manual"},"geometry":{"type":"Point","coordinates":[8.426374,45.321094]}},{"type":"Feature","properties":{"id":"event:필리피전투","entity":"event:필리피전투","layer":"battles","name_ko":"필리피 전투","year":-42,"valid_from":-42,"valid_to":-12,"place":"place:필리피","source":"book","confidence":"high","src":"manual"},"geometry":{"type":"Point","coordinates":[24.3387,41.0251]}},{"type":"Feature","properties":{"id":"event:브리타니아정복","entity":"event:브리타니아정복","layer":"battles","name_ko":"브리타니아 정복(카물로두눔 항복)","year":43,"valid_from":43,"valid_to":73,"place":"place:카물로두눔","source":"book","confidence":"medium","src":"manual"},"geometry":{"type":"Point","coordinates":[0.9027,51.8959]}}]}