{"type":"FeatureCollection","features":[{"type":"Feature","properties":{"id":"alaric@0","layer":"movements","route":"alaric","name_ko":"알라리크의 로마 약탈","actor":"기타중립","label":"아테네","from_year":395,"to_year":396,"valid_from":396,"valid_to":420,"source":"book","confidence":"high","owner":"person:알라리크"},"geometry":{"type":"LineString","coordinates":[[25,43.7],[23.7275,37.9838]]}},{"type":"Feature","properties":{"id":"alaric@1","layer":"movements","route":"alaric","name_ko":"알라리크의 로마 약탈","actor":"기타중립","label":"델피","from_year":396,"to_year":396,"valid_from":396,"valid_to":420,"source":"book","confidence":"medium","owner":"person:알라리크"},"geometry":{"type":"LineString","coordinates":[[23.7275,37.9838],[22.5014,38.4822]]}},{"type":"Feature","properties":{"id":"alaric@2","layer":"movements","route":"alaric","name_ko":"알라리크의 로마 약탈","actor":"기타중립","label":"에페이로스","from_year":396,"to_year":397,"valid_from":397,"valid_to":420,"source":"book","confidence":"medium","owner":"person:알라리크"},"geometry":{"type":"LineString","coordinates":[[22.5014,38.4822],[20.4,39.4]]}},{"type":"Feature","properties":{"id":"alaric@3","layer":"movements","route":"alaric","name_ko":"알라리크의 로마 약탈","actor":"기타중립","label":"일리리쿰","from_year":397,"to_year":397,"valid_from":397,"valid_to":420,"source":"book","confidence":"medium","owner":"person:알라리크"},"geometry":{"type":"LineString","coordinates":[[20.4,39.4],[16.4831,43.5394]]}},{"type":"Feature","properties":{"id":"alaric@4","layer":"movements","route":"alaric","name_ko":"알라리크의 로마 약탈","actor":"기타중립","label":"밀라노","from_year":397,"to_year":401,"valid_from":401,"valid_to":420,"source":"book","confidence":"high","owner":"person:알라리크"},"geometry":{"type":"LineString","coordinates":[[16.4831,43.5394],[9.1895,45.4643]]}},{"type":"Feature","properties":{"id":"alaric@5","layer":"movements","route":"alaric","name_ko":"알라리크의 로마 약탈","actor":"기타중립","label":"폴렌티아","from_year":401,"to_year":402,"valid_from":402,"valid_to":420,"source":"book","confidence":"medium","owner":"person:알라리크"},"geometry":{"type":"LineString","coordinates":[[9.1895,45.4643],[8.2,44.7]]}},{"type":"Feature","properties":{"id":"alaric@6","layer":"movements","route":"alaric","name_ko":"알라리크의 로마 약탈","actor":"기타중립","label":"리미니","from_year":402,"to_year":408,"valid_from":408,"valid_to":420,"source":"book","confidence":"high","owner":"person:알라리크"},"geometry":{"type":"LineString","coordinates":[[8.2,44.7],[12.5754,44.0603]]}},{"type":"Feature","properties":{"id":"alaric@7","layer":"movements","route":"alaric","name_ko":"알라리크의 로마 약탈","actor":"기타중립","label":"로마","from_year":408,"to_year":410,"valid_from":410,"valid_to":420,"source":"book","confidence":"high","owner":"person:알라리크"},"geometry":{"type":"LineString","coordinates":[[12.5754,44.0603],[12.4862,41.8917]]}},{"type":"Feature","properties":{"id":"alaric@8","layer":"movements","route":"alaric","name_ko":"알라리크의 로마 약탈","actor":"기타중립","label":"캄파니아","from_year":410,"to_year":410,"valid_from":410,"valid_to":420,"source":"book","confidence":"high","owner":"person:알라리크"},"geometry":{"type":"LineString","coordinates":[[12.4862,41.8917],[14.95,40.75]]}},{"type":"Feature","properties":{"id":"alaric@9","layer":"movements","route":"alaric","name_ko":"알라리크의 로마 약탈","actor":"기타중립","label":"콘센티아","from_year":410,"to_year":410,"valid_from":410,"valid_to":420,"source":"book","confidence":"low","owner":"person:알라리크"},"geometry":{"type":"LineString","coordinates":[[14.95,40.75],[16.2,39.3]]}},{"type":"Feature","properties":{"id":"caesar@0","layer":"movements","route":"caesar","name_ko":"카이사르의 정복과 내전","actor":"로마","label":"루비콘 강","from_year":-52,"to_year":-49,"valid_from":-49,"valid_to":-35,"source":"book","confidence":"high","owner":"person:카이사르"},"geometry":{"type":"LineString","coordinates":[[4.5006,47.5392],[12.4431,44.1681]]}},{"type":"Feature","properties":{"id":"caesar@1","layer":"movements","route":"caesar","name_ko":"카이사르의 정복과 내전","actor":"로마","label":"브린디시","from_year":-49,"to_year":-49,"valid_from":-49,"valid_to":-35,"source":"book","confidence":"high","owner":"person:카이사르"},"geometry":{"type":"LineString","coordinates":[[12.4431,44.1681],[17.933,40.633]]}},{"type":"Feature","properties":{"id":"caesar@2","layer":"movements","route":"caesar","name_ko":"카이사르의 정복과 내전","actor":"로마","label":"일레르다","from_year":-49,"to_year":-49,"valid_from":-49,"valid_to":-35,"source":"book","confidence":"high","owner":"person:카이사르"},"geometry":{"type":"LineString","coordinates":[[17.933,40.633],[-1,41.3667]]}},{"type":"Feature","properties":{"id":"caesar@3","layer":"movements","route":"caesar","name_ko":"카이사르의 정복과 내전","actor":"로마","label":"디르하키움","from_year":-49,"to_year":-48,"valid_from":-48,"valid_to":-35,"source":"book","confidence":"high","owner":"person:카이사르"},"geometry":{"type":"LineString","coordinates":[[-1,41.3667],[19.45,41.32]]}},{"type":"Feature","properties":{"id":"caesar@4","layer":"movements","route":"caesar","name_ko":"카이사르의 정복과 내전","actor":"로마","label":"파르살루스","from_year":-48,"to_year":-48,"valid_from":-48,"valid_to":-35,"source":"book","confidence":"high","owner":"person:카이사르"},"geometry":{"type":"LineString","coordinates":[[19.45,41.32],[22.3833,39.3]]}},{"type":"Feature","properties":{"id":"caesar@5","layer":"movements","route":"caesar","name_ko":"카이사르의 정복과 내전","actor":"로마","label":"알렉산드리아","from_year":-48,"to_year":-47,"valid_from":-47,"valid_to":-35,"source":"book","confidence":"high","owner":"person:카이사르"},"geometry":{"type":"LineString","coordinates":[[22.3833,39.3],[29.9079,31.1982]]}},{"type":"Feature","properties":{"id":"caesar@6","layer":"movements","route":"caesar","name_ko":"카이사르의 정복과 내전","actor":"로마","label":"젤라","from_year":-47,"to_year":-47,"valid_from":-47,"valid_to":-35,"source":"book","confidence":"high","owner":"person:카이사르"},"geometry":{"type":"LineString","coordinates":[[29.9079,31.1982],[35.883,40.3]]}},{"type":"Feature","properties":{"id":"caesar@7","layer":"movements","route":"caesar","name_ko":"카이사르의 정복과 내전","actor":"로마","label":"타프수스","from_year":-47,"to_year":-46,"valid_from":-46,"valid_to":-35,"source":"book","confidence":"high","owner":"person:카이사르"},"geometry":{"type":"LineString","coordinates":[[35.883,40.3],[11.0417,35.6208]]}},{"type":"Feature","properties":{"id":"caesar@8","layer":"movements","route":"caesar","name_ko":"카이사르의 정복과 내전","actor":"로마","label":"문다 평원","from_year":-46,"to_year":-45,"valid_from":-45,"valid_to":-35,"source":"book","confidence":"high","owner":"person:카이사르"},"geometry":{"type":"LineString","coordinates":[[11.0417,35.6208],[-5.2167,37.35]]}},{"type":"Feature","properties":{"id":"cleopatra_antony@0","layer":"movements","route":"cleopatra_antony","name_ko":"클레오파트라의 유랑과 두 로마 영웅","actor":"로마","label":"시리아","from_year":-48,"to_year":-48,"valid_from":-48,"valid_to":-20,"source":"book","confidence":"medium","owner":"place:로마"},"geometry":{"type":"LineString","coordinates":[[29.9079,31.1982],[36.15,36.2]]}},{"type":"Feature","properties":{"id":"cleopatra_antony@1","layer":"movements","route":"cleopatra_antony","name_ko":"클레오파트라의 유랑과 두 로마 영웅","actor":"로마","label":"알렉산드리아","from_year":-48,"to_year":-48,"valid_from":-48,"valid_to":-20,"source":"book","confidence":"high","owner":"place:로마"},"geometry":{"type":"LineString","coordinates":[[36.15,36.2],[29.9079,31.1982]]}},{"type":"Feature","properties":{"id":"cleopatra_antony@2","layer":"movements","route":"cleopatra_antony","name_ko":"클레오파트라의 유랑과 두 로마 영웅","actor":"로마","label":"테베","from_year":-48,"to_year":-47,"valid_from":-47,"valid_to":-20,"source":"book","confidence":"high","owner":"place:로마"},"geometry":{"type":"LineString","coordinates":[[29.9079,31.1982],[32.641,25.684]]}},{"type":"Feature","properties":{"id":"cleopatra_antony@3","layer":"movements","route":"cleopatra_antony","name_ko":"클레오파트라의 유랑과 두 로마 영웅","actor":"로마","label":"아스완 제1폭포","from_year":-47,"to_year":-47,"valid_from":-47,"valid_to":-20,"source":"book","confidence":"high","owner":"place:로마"},"geometry":{"type":"LineString","coordinates":[[32.641,25.684],[32.878,24.078]]}},{"type":"Feature","properties":{"id":"cleopatra_antony@4","layer":"movements","route":"cleopatra_antony","name_ko":"클레오파트라의 유랑과 두 로마 영웅","actor":"로마","label":"로마","from_year":-47,"to_year":-46,"valid_from":-46,"valid_to":-20,"source":"book","confidence":"high","owner":"place:로마"},"geometry":{"type":"LineString","coordinates":[[32.878,24.078],[12.4862,41.8917]]}},{"type":"Feature","properties":{"id":"cleopatra_antony@5","layer":"movements","route":"cleopatra_antony","name_ko":"클레오파트라의 유랑과 두 로마 영웅","actor":"로마","label":"알렉산드리아","from_year":-46,"to_year":-44,"valid_from":-44,"valid_to":-20,"source":"book","confidence":"high","owner":"place:로마"},"geometry":{"type":"LineString","coordinates":[[12.4862,41.8917],[29.9079,31.1982]]}},{"type":"Feature","properties":{"id":"cleopatra_antony@6","layer":"movements","route":"cleopatra_antony","name_ko":"클레오파트라의 유랑과 두 로마 영웅","actor":"로마","label":"타르수스","from_year":-44,"to_year":-41,"valid_from":-41,"valid_to":-20,"source":"book","confidence":"high","owner":"place:로마"},"geometry":{"type":"LineString","coordinates":[[29.9079,31.1982],[34.8958,36.9122]]}},{"type":"Feature","properties":{"id":"cleopatra_antony@7","layer":"movements","route":"cleopatra_antony","name_ko":"클레오파트라의 유랑과 두 로마 영웅","actor":"로마","label":"알렉산드리아","from_year":-41,"to_year":-41,"valid_from":-41,"valid_to":-20,"source":"book","confidence":"high","owner":"place:로마"},"geometry":{"type":"LineString","coordinates":[[34.8958,36.9122],[29.9079,31.1982]]}},{"type":"Feature","properties":{"id":"cleopatra_antony@8","layer":"movements","route":"cleopatra_antony","name_ko":"클레오파트라의 유랑과 두 로마 영웅","actor":"로마","label":"안티오키아","from_year":-41,"to_year":-36,"valid_from":-36,"valid_to":-20,"source":"book","confidence":"high","owner":"place:로마"},"geometry":{"type":"LineString","coordinates":[[29.9079,31.1982],[36.1572,36.2066]]}},{"type":"Feature","properties":{"id":"cleopatra_antony@9","layer":"movements","route":"cleopatra_antony","name_ko":"클레오파트라의 유랑과 두 로마 영웅","actor":"로마","label":"알렉산드리아","from_year":-36,"to_year":-34,"valid_from":-34,"valid_to":-20,"source":"book","confidence":"high","owner":"place:로마"},"geometry":{"type":"LineString","coordinates":[[36.1572,36.2066],[29.9079,31.1982]]}},{"type":"Feature","properties":{"id":"cleopatra_antony@10","layer":"movements","route":"cleopatra_antony","name_ko":"클레오파트라의 유랑과 두 로마 영웅","actor":"로마","label":"이오니아해","from_year":-34,"to_year":-31,"valid_from":-31,"valid_to":-20,"source":"book","confidence":"high","owner":"place:로마"},"geometry":{"type":"LineString","coordinates":[[29.9079,31.1982],[19,38]]}},{"type":"Feature","properties":{"id":"cleopatra_antony@11","layer":"movements","route":"cleopatra_antony","name_ko":"클레오파트라의 유랑과 두 로마 영웅","actor":"로마","label":"알렉산드리아","from_year":-31,"to_year":-30,"valid_from":-30,"valid_to":-20,"source":"book","confidence":"high","owner":"place:로마"},"geometry":{"type":"LineString","coordinates":[[19,38],[29.9079,31.1982]]}},{"type":"Feature","properties":{"id":"constantine_capital@0","layer":"movements","route":"constantine_capital","name_ko":"콘스탄티누스의 내전 진군과 콘스탄티노플 천도","actor":"기타중립","label":"로마","from_year":306,"to_year":312,"valid_from":312,"valid_to":340,"source":"book","confidence":"high","owner":"person:콘스탄티누스"},"geometry":{"type":"LineString","coordinates":[[-0.0889,51.5133],[12.4862,41.8917]]}},{"type":"Feature","properties":{"id":"constantine_capital@1","layer":"movements","route":"constantine_capital","name_ko":"콘스탄티누스의 내전 진군과 콘스탄티노플 천도","actor":"기타중립","label":"비잔티움","from_year":312,"to_year":324,"valid_from":324,"valid_to":340,"source":"book","confidence":"high","owner":"person:콘스탄티누스"},"geometry":{"type":"LineString","coordinates":[[12.4862,41.8917],[28.9498,41.0198]]}},{"type":"Feature","properties":{"id":"constantine_capital@2","layer":"movements","route":"constantine_capital","name_ko":"콘스탄티누스의 내전 진군과 콘스탄티노플 천도","actor":"기타중립","label":"칼케돈","from_year":324,"to_year":324,"valid_from":324,"valid_to":340,"source":"book","confidence":"high","owner":"person:콘스탄티누스"},"geometry":{"type":"LineString","coordinates":[[28.9498,41.0198],[29,41.03]]}},{"type":"Feature","properties":{"id":"constantine_capital@3","layer":"movements","route":"constantine_capital","name_ko":"콘스탄티누스의 내전 진군과 콘스탄티노플 천도","actor":"기타중립","label":"니코메디아","from_year":324,"to_year":324,"valid_from":324,"valid_to":340,"source":"book","confidence":"high","owner":"person:콘스탄티누스"},"geometry":{"type":"LineString","coordinates":[[29,41.03],[29.9167,40.7667]]}},{"type":"Feature","properties":{"id":"constantine_capital@4","layer":"movements","route":"constantine_capital","name_ko":"콘스탄티누스의 내전 진군과 콘스탄티노플 천도","actor":"기타중립","label":"콘스탄티노플","from_year":324,"to_year":330,"valid_from":330,"valid_to":340,"source":"book","confidence":"high","owner":"person:콘스탄티누스"},"geometry":{"type":"LineString","coordinates":[[29.9167,40.7667],[28.9498,41.0198]]}},{"type":"Feature","properties":{"id":"goths@0","layer":"movements","route":"goths","name_ko":"고트족의 남하","actor":"기타중립","label":"비수아 강","from_year":100,"to_year":150,"valid_from":150,"valid_to":388,"source":"book","confidence":"medium","owner":"group:고트족"},"geometry":{"type":"LineString","coordinates":[[14,63],[18.9519,54.3617]]}},{"type":"Feature","properties":{"id":"goths@1","layer":"movements","route":"goths","name_ko":"고트족의 남하","actor":"기타중립","label":"게르마니아","from_year":150,"to_year":150,"valid_from":150,"valid_to":388,"source":"book","confidence":"medium","owner":"group:고트족"},"geometry":{"type":"LineString","coordinates":[[18.9519,54.3617],[10,51]]}},{"type":"Feature","properties":{"id":"goths@2","layer":"movements","route":"goths","name_ko":"고트족의 남하","actor":"기타중립","label":"흑해","from_year":150,"to_year":200,"valid_from":200,"valid_to":388,"source":"book","confidence":"medium","owner":"group:고트족"},"geometry":{"type":"LineString","coordinates":[[10,51],[36,43]]}},{"type":"Feature","properties":{"id":"goths@3","layer":"movements","route":"goths","name_ko":"고트족의 남하","actor":"기타중립","label":"탄아이스","from_year":200,"to_year":250,"valid_from":250,"valid_to":388,"source":"book","confidence":"medium","owner":"group:고트족"},"geometry":{"type":"LineString","coordinates":[[36,43],[39.2,47.1]]}},{"type":"Feature","properties":{"id":"goths@4","layer":"movements","route":"goths","name_ko":"고트족의 남하","actor":"기타중립","label":"도나우 강","from_year":250,"to_year":300,"valid_from":300,"valid_to":388,"source":"book","confidence":"medium","owner":"group:고트족"},"geometry":{"type":"LineString","coordinates":[[39.2,47.1],[17,48]]}},{"type":"Feature","properties":{"id":"goths@5","layer":"movements","route":"goths","name_ko":"고트족의 남하","actor":"기타중립","label":"마르키아노폴리스","from_year":300,"to_year":376,"valid_from":376,"valid_to":388,"source":"book","confidence":"high","owner":"group:고트족"},"geometry":{"type":"LineString","coordinates":[[17,48],[27.585,43.2252]]}},{"type":"Feature","properties":{"id":"goths@6","layer":"movements","route":"goths","name_ko":"고트족의 남하","actor":"기타중립","label":"모이시아","from_year":376,"to_year":376,"valid_from":376,"valid_to":388,"source":"book","confidence":"high","owner":"group:고트족"},"geometry":{"type":"LineString","coordinates":[[27.585,43.2252],[23.5,43.5]]}},{"type":"Feature","properties":{"id":"goths@7","layer":"movements","route":"goths","name_ko":"고트족의 남하","actor":"기타중립","label":"하드리아노폴리스","from_year":376,"to_year":378,"valid_from":378,"valid_to":388,"source":"book","confidence":"high","owner":"group:고트족"},"geometry":{"type":"LineString","coordinates":[[23.5,43.5],[26.5556,41.6769]]}},{"type":"Feature","properties":{"id":"hannibal@0","layer":"movements","route":"hannibal","name_ko":"한니발의 이탈리아 원정","actor":"카르타고","label":"에브로 강","from_year":-218,"to_year":-218,"valid_from":-218,"valid_to":-192,"source":"book","confidence":"high","owner":"person:한니발"},"geometry":{"type":"LineString","coordinates":[[-0.9842,37.6019],[-1,40.72]]}},{"type":"Feature","properties":{"id":"hannibal@1","layer":"movements","route":"hannibal","name_ko":"한니발의 이탈리아 원정","actor":"카르타고","label":"론 강","from_year":-218,"to_year":-218,"valid_from":-218,"valid_to":-192,"source":"book","confidence":"high","owner":"person:한니발"},"geometry":{"type":"LineString","coordinates":[[-1,40.72],[5,44.5]]}},{"type":"Feature","properties":{"id":"hannibal@2","layer":"movements","route":"hannibal","name_ko":"한니발의 이탈리아 원정","actor":"카르타고","label":"알프스","from_year":-218,"to_year":-218,"valid_from":-218,"valid_to":-192,"source":"book","confidence":"high","owner":"person:한니발"},"geometry":{"type":"LineString","coordinates":[[5,44.5],[7.0664,44.7105]]}},{"type":"Feature","properties":{"id":"hannibal@3","layer":"movements","route":"hannibal","name_ko":"한니발의 이탈리아 원정","actor":"카르타고","label":"포 강","from_year":-218,"to_year":-218,"valid_from":-218,"valid_to":-192,"source":"book","confidence":"high","owner":"person:한니발"},"geometry":{"type":"LineString","coordinates":[[7.0664,44.7105],[12.5415,44.9687]]}},{"type":"Feature","properties":{"id":"hannibal@4","layer":"movements","route":"hannibal","name_ko":"한니발의 이탈리아 원정","actor":"카르타고","label":"티키누스 강","from_year":-218,"to_year":-218,"valid_from":-218,"valid_to":-192,"source":"book","confidence":"high","owner":"person:한니발"},"geometry":{"type":"LineString","coordinates":[[12.5415,44.9687],[8.9,45.2]]}},{"type":"Feature","properties":{"id":"hannibal@5","layer":"movements","route":"hannibal","name_ko":"한니발의 이탈리아 원정","actor":"카르타고","label":"트레비아 강","from_year":-218,"to_year":-218,"valid_from":-218,"valid_to":-192,"source":"book","confidence":"high","owner":"person:한니발"},"geometry":{"type":"LineString","coordinates":[[8.9,45.2],[9.5674,44.9885]]}},{"type":"Feature","properties":{"id":"hannibal@6","layer":"movements","route":"hannibal","name_ko":"한니발의 이탈리아 원정","actor":"카르타고","label":"트라시메노 호수","from_year":-218,"to_year":-217,"valid_from":-217,"valid_to":-192,"source":"book","confidence":"high","owner":"person:한니발"},"geometry":{"type":"LineString","coordinates":[[9.5674,44.9885],[12.1,43.14]]}},{"type":"Feature","properties":{"id":"hannibal@7","layer":"movements","route":"hannibal","name_ko":"한니발의 이탈리아 원정","actor":"카르타고","label":"칸나이 평원","from_year":-217,"to_year":-216,"valid_from":-216,"valid_to":-192,"source":"book","confidence":"high","owner":"person:한니발"},"geometry":{"type":"LineString","coordinates":[[12.1,43.14],[16.1325,41.3064]]}},{"type":"Feature","properties":{"id":"hannibal@8","layer":"movements","route":"hannibal","name_ko":"한니발의 이탈리아 원정","actor":"카르타고","label":"아풀리아","from_year":-216,"to_year":-216,"valid_from":-216,"valid_to":-192,"source":"book","confidence":"high","owner":"person:한니발"},"geometry":{"type":"LineString","coordinates":[[16.1325,41.3064],[16.5077,41.0052]]}},{"type":"Feature","properties":{"id":"hannibal@9","layer":"movements","route":"hannibal","name_ko":"한니발의 이탈리아 원정","actor":"카르타고","label":"타란토","from_year":-216,"to_year":-212,"valid_from":-212,"valid_to":-192,"source":"book","confidence":"medium","owner":"person:한니발"},"geometry":{"type":"LineString","coordinates":[[16.5077,41.0052],[17.2431,40.4711]]}},{"type":"Feature","properties":{"id":"hannibal@10","layer":"movements","route":"hannibal","name_ko":"한니발의 이탈리아 원정","actor":"카르타고","label":"크로톤","from_year":-212,"to_year":-204,"valid_from":-204,"valid_to":-192,"source":"book","confidence":"high","owner":"person:한니발"},"geometry":{"type":"LineString","coordinates":[[17.2431,40.4711],[17.12,39.08]]}},{"type":"Feature","properties":{"id":"hannibal@11","layer":"movements","route":"hannibal","name_ko":"한니발의 이탈리아 원정","actor":"카르타고","label":"자마","from_year":-204,"to_year":-202,"valid_from":-202,"valid_to":-192,"source":"book","confidence":"high","owner":"person:한니발"},"geometry":{"type":"LineString","coordinates":[[17.12,39.08],[9.4492,36.2989]]}},{"type":"Feature","properties":{"id":"islam@0","layer":"movements","route":"islam","name_ko":"이슬람 세력의 확산","actor":"기타중립","label":"메디나","from_year":610,"to_year":622,"valid_from":622,"valid_to":723,"source":"book","confidence":"high","owner":"group:이슬람세력"},"geometry":{"type":"LineString","coordinates":[[39.8262,21.4225],[39.6067,24.4744]]}},{"type":"Feature","properties":{"id":"islam@1","layer":"movements","route":"islam","name_ko":"이슬람 세력의 확산","actor":"기타중립","label":"메카","from_year":622,"to_year":630,"valid_from":630,"valid_to":723,"source":"book","confidence":"high","owner":"group:이슬람세력"},"geometry":{"type":"LineString","coordinates":[[39.6067,24.4744],[39.8262,21.4225]]}},{"type":"Feature","properties":{"id":"islam@2","layer":"movements","route":"islam","name_ko":"이슬람 세력의 확산","actor":"기타중립","label":"시리아","from_year":630,"to_year":636,"valid_from":636,"valid_to":723,"source":"book","confidence":"high","owner":"group:이슬람세력"},"geometry":{"type":"LineString","coordinates":[[39.8262,21.4225],[36.15,36.2]]}},{"type":"Feature","properties":{"id":"islam@3","layer":"movements","route":"islam","name_ko":"이슬람 세력의 확산","actor":"기타중립","label":"안티오키아","from_year":636,"to_year":637,"valid_from":637,"valid_to":723,"source":"book","confidence":"medium","owner":"group:이슬람세력"},"geometry":{"type":"LineString","coordinates":[[36.15,36.2],[36.1572,36.2066]]}},{"type":"Feature","properties":{"id":"islam@4","layer":"movements","route":"islam","name_ko":"이슬람 세력의 확산","actor":"기타중립","label":"예루살렘","from_year":637,"to_year":638,"valid_from":638,"valid_to":723,"source":"book","confidence":"high","owner":"group:이슬람세력"},"geometry":{"type":"LineString","coordinates":[[36.1572,36.2066],[35.2256,31.7789]]}},{"type":"Feature","properties":{"id":"islam@5","layer":"movements","route":"islam","name_ko":"이슬람 세력의 확산","actor":"기타중립","label":"알렉산드리아","from_year":638,"to_year":642,"valid_from":642,"valid_to":723,"source":"book","confidence":"high","owner":"group:이슬람세력"},"geometry":{"type":"LineString","coordinates":[[35.2256,31.7789],[29.9079,31.1982]]}},{"type":"Feature","properties":{"id":"islam@6","layer":"movements","route":"islam","name_ko":"이슬람 세력의 확산","actor":"기타중립","label":"카르타고","from_year":642,"to_year":698,"valid_from":698,"valid_to":723,"source":"book","confidence":"high","owner":"group:이슬람세력"},"geometry":{"type":"LineString","coordinates":[[29.9079,31.1982],[10.3233,36.8528]]}},{"type":"Feature","properties":{"id":"islam@7","layer":"movements","route":"islam","name_ko":"이슬람 세력의 확산","actor":"기타중립","label":"코르도바","from_year":698,"to_year":713,"valid_from":713,"valid_to":723,"source":"book","confidence":"high","owner":"group:이슬람세력"},"geometry":{"type":"LineString","coordinates":[[10.3233,36.8528],[-4.7764,37.8847]]}},{"type":"Feature","properties":{"id":"justinian@0","layer":"movements","route":"justinian","name_ko":"유스티니아누스의 서방 수복","actor":"기타중립","label":"Caputvada","from_year":533,"to_year":533,"valid_from":533,"valid_to":550,"source":"book","confidence":"high","owner":"person:유스티니아누스"},"geometry":{"type":"LineString","coordinates":[[28.95,41.02],[11.12,35.24]]}},{"type":"Feature","properties":{"id":"justinian@1","layer":"movements","route":"justinian","name_ko":"유스티니아누스의 서방 수복","actor":"기타중립","label":"카르타고","from_year":533,"to_year":533,"valid_from":533,"valid_to":550,"source":"book","confidence":"high","owner":"person:유스티니아누스"},"geometry":{"type":"LineString","coordinates":[[11.12,35.24],[10.32,36.85]]}},{"type":"Feature","properties":{"id":"justinian@2","layer":"movements","route":"justinian","name_ko":"유스티니아누스의 서방 수복","actor":"기타중립","label":"Tricamarum","from_year":533,"to_year":533,"valid_from":533,"valid_to":550,"source":"book","confidence":"medium","owner":"person:유스티니아누스"},"geometry":{"type":"LineString","coordinates":[[10.32,36.85],[10.32,36.85]]}},{"type":"Feature","properties":{"id":"justinian@3","layer":"movements","route":"justinian","name_ko":"유스티니아누스의 서방 수복","actor":"기타중립","label":"팔레르모","from_year":533,"to_year":535,"valid_from":535,"valid_to":550,"source":"book","confidence":"high","owner":"person:유스티니아누스"},"geometry":{"type":"LineString","coordinates":[[10.32,36.85],[13.36,38.12]]}},{"type":"Feature","properties":{"id":"justinian@4","layer":"movements","route":"justinian","name_ko":"유스티니아누스의 서방 수복","actor":"기타중립","label":"시라쿠사","from_year":535,"to_year":535,"valid_from":535,"valid_to":550,"source":"book","confidence":"high","owner":"person:유스티니아누스"},"geometry":{"type":"LineString","coordinates":[[13.36,38.12],[15.29,37.06]]}},{"type":"Feature","properties":{"id":"justinian@5","layer":"movements","route":"justinian","name_ko":"유스티니아누스의 서방 수복","actor":"기타중립","label":"메시나","from_year":535,"to_year":536,"valid_from":536,"valid_to":550,"source":"book","confidence":"high","owner":"person:유스티니아누스"},"geometry":{"type":"LineString","coordinates":[[15.29,37.06],[15.56,38.19]]}},{"type":"Feature","properties":{"id":"justinian@6","layer":"movements","route":"justinian","name_ko":"유스티니아누스의 서방 수복","actor":"기타중립","label":"로마","from_year":536,"to_year":536,"valid_from":536,"valid_to":550,"source":"book","confidence":"high","owner":"person:유스티니아누스"},"geometry":{"type":"LineString","coordinates":[[15.56,38.19],[12.49,41.89]]}},{"type":"Feature","properties":{"id":"justinian@7","layer":"movements","route":"justinian","name_ko":"유스티니아누스의 서방 수복","actor":"기타중립","label":"라벤나","from_year":536,"to_year":540,"valid_from":540,"valid_to":550,"source":"book","confidence":"high","owner":"person:유스티니아누스"},"geometry":{"type":"LineString","coordinates":[[12.49,41.89],[12.2,44.42]]}},{"type":"Feature","properties":{"id":"manuel2_europe@0","layer":"movements","route":"manuel2_europe","name_ko":"마누엘 2세의 서유럽 순방","actor":"기타중립","label":"베네치아","from_year":1399,"to_year":1399,"valid_from":1399,"valid_to":1412,"source":"book","confidence":"low","owner":"person:마누엘2세"},"geometry":{"type":"LineString","coordinates":[[28.9498,41.0198],[12.3155,45.4408]]}},{"type":"Feature","properties":{"id":"manuel2_europe@1","layer":"movements","route":"manuel2_europe","name_ko":"마누엘 2세의 서유럽 순방","actor":"기타중립","label":"파리","from_year":1399,"to_year":1400,"valid_from":1400,"valid_to":1412,"source":"book","confidence":"low","owner":"person:마누엘2세"},"geometry":{"type":"LineString","coordinates":[[12.3155,45.4408],[2.3522,48.8566]]}},{"type":"Feature","properties":{"id":"manuel2_europe@2","layer":"movements","route":"manuel2_europe","name_ko":"마누엘 2세의 서유럽 순방","actor":"기타중립","label":"브리타니아","from_year":1400,"to_year":1401,"valid_from":1401,"valid_to":1412,"source":"book","confidence":"high","owner":"person:마누엘2세"},"geometry":{"type":"LineString","coordinates":[[2.3522,48.8566],[-0.0889,51.5133]]}},{"type":"Feature","properties":{"id":"manuel2_europe@3","layer":"movements","route":"manuel2_europe","name_ko":"마누엘 2세의 서유럽 순방","actor":"기타중립","label":"콘스탄티노플","from_year":1401,"to_year":1402,"valid_from":1402,"valid_to":1412,"source":"book","confidence":"high","owner":"person:마누엘2세"},"geometry":{"type":"LineString","coordinates":[[-0.0889,51.5133],[28.9498,41.0198]]}},{"type":"Feature","properties":{"id":"migration2@0","layer":"movements","route":"migration2","name_ko":"고트족의 제2차 이동기","actor":"기타중립","label":"독일","from_year":50,"to_year":150,"valid_from":150,"valid_to":261,"source":"book","confidence":"medium","owner":"event:제2차이동기"},"geometry":{"type":"LineString","coordinates":[[18.9519,54.3617],[7.5,52.5]]}},{"type":"Feature","properties":{"id":"migration2@1","layer":"movements","route":"migration2","name_ko":"고트족의 제2차 이동기","actor":"기타중립","label":"우크라이나","from_year":150,"to_year":230,"valid_from":230,"valid_to":261,"source":"book","confidence":"medium","owner":"event:제2차이동기"},"geometry":{"type":"LineString","coordinates":[[7.5,52.5],[32,49]]}},{"type":"Feature","properties":{"id":"migration2@2","layer":"movements","route":"migration2","name_ko":"고트족의 제2차 이동기","actor":"기타중립","label":"마르키아노폴리스","from_year":230,"to_year":240,"valid_from":240,"valid_to":261,"source":"book","confidence":"medium","owner":"event:제2차이동기"},"geometry":{"type":"LineString","coordinates":[[32,49],[27.585,43.2252]]}},{"type":"Feature","properties":{"id":"migration2@3","layer":"movements","route":"migration2","name_ko":"고트족의 제2차 이동기","actor":"기타중립","label":"포룸 테레브로니","from_year":240,"to_year":251,"valid_from":251,"valid_to":261,"source":"book","confidence":"high","owner":"event:제2차이동기"},"geometry":{"type":"LineString","coordinates":[[27.585,43.2252],[26.37,43.5881]]}},{"type":"Feature","properties":{"id":"mohammed_hijra@0","layer":"movements","route":"mohammed_hijra","name_ko":"마호메트의 히즈라와 메카 정복","actor":"기타중립","label":"메카","from_year":570,"to_year":610,"valid_from":610,"valid_to":640,"source":"book","confidence":"high","owner":"person:마호메트"},"geometry":{"type":"LineString","coordinates":[[39.8262,21.4225],[39.8262,21.4225]]}},{"type":"Feature","properties":{"id":"mohammed_hijra@1","layer":"movements","route":"mohammed_hijra","name_ko":"마호메트의 히즈라와 메카 정복","actor":"기타중립","label":"메디나","from_year":610,"to_year":622,"valid_from":622,"valid_to":640,"source":"book","confidence":"high","owner":"person:마호메트"},"geometry":{"type":"LineString","coordinates":[[39.8262,21.4225],[39.6067,24.4744]]}},{"type":"Feature","properties":{"id":"mohammed_hijra@2","layer":"movements","route":"mohammed_hijra","name_ko":"마호메트의 히즈라와 메카 정복","actor":"기타중립","label":"메카","from_year":622,"to_year":630,"valid_from":630,"valid_to":640,"source":"book","confidence":"high","owner":"person:마호메트"},"geometry":{"type":"LineString","coordinates":[[39.6067,24.4744],[39.8262,21.4225]]}},{"type":"Feature","properties":{"id":"pompey@0","layer":"movements","route":"pompey","name_ko":"폼페이우스의 정복과 몰락","actor":"로마","label":"예루살렘","from_year":-67,"to_year":-63,"valid_from":-63,"valid_to":-38,"source":"book","confidence":"high","owner":"person:폼페이우스"},"geometry":{"type":"LineString","coordinates":[[34.01,37.01],[35.2256,31.7789]]}},{"type":"Feature","properties":{"id":"pompey@1","layer":"movements","route":"pompey","name_ko":"폼페이우스의 정복과 몰락","actor":"로마","label":"브린디시","from_year":-63,"to_year":-49,"valid_from":-49,"valid_to":-38,"source":"book","confidence":"high","owner":"person:폼페이우스"},"geometry":{"type":"LineString","coordinates":[[35.2256,31.7789],[17.933,40.633]]}},{"type":"Feature","properties":{"id":"pompey@2","layer":"movements","route":"pompey","name_ko":"폼페이우스의 정복과 몰락","actor":"로마","label":"에페이로스","from_year":-49,"to_year":-49,"valid_from":-49,"valid_to":-38,"source":"book","confidence":"high","owner":"person:폼페이우스"},"geometry":{"type":"LineString","coordinates":[[17.933,40.633],[20.4,39.4]]}},{"type":"Feature","properties":{"id":"pompey@3","layer":"movements","route":"pompey","name_ko":"폼페이우스의 정복과 몰락","actor":"로마","label":"파르살루스","from_year":-49,"to_year":-48,"valid_from":-48,"valid_to":-38,"source":"book","confidence":"high","owner":"person:폼페이우스"},"geometry":{"type":"LineString","coordinates":[[20.4,39.4],[22.3833,39.3]]}},{"type":"Feature","properties":{"id":"pompey@4","layer":"movements","route":"pompey","name_ko":"폼페이우스의 정복과 몰락","actor":"로마","label":"라리사","from_year":-48,"to_year":-48,"valid_from":-48,"valid_to":-38,"source":"book","confidence":"high","owner":"person:폼페이우스"},"geometry":{"type":"LineString","coordinates":[[22.3833,39.3],[22.4167,39.6417]]}},{"type":"Feature","properties":{"id":"pompey@5","layer":"movements","route":"pompey","name_ko":"폼페이우스의 정복과 몰락","actor":"로마","label":"알렉산드리아","from_year":-48,"to_year":-48,"valid_from":-48,"valid_to":-38,"source":"book","confidence":"high","owner":"person:폼페이우스"},"geometry":{"type":"LineString","coordinates":[[22.4167,39.6417],[29.9079,31.1982]]}},{"type":"Feature","properties":{"id":"scipio_africanus@0","layer":"movements","route":"scipio_africanus","name_ko":"스키피오 아프리카누스의 히스파니아-아프리카 원정","actor":"로마","label":"로마","from_year":-209,"to_year":-205,"valid_from":-205,"valid_to":-192,"source":"book","confidence":"medium","owner":"person:스키피오아프리카누스"},"geometry":{"type":"LineString","coordinates":[[-0.9842,37.6019],[12.4862,41.8917]]}},{"type":"Feature","properties":{"id":"scipio_africanus@1","layer":"movements","route":"scipio_africanus","name_ko":"스키피오 아프리카누스의 히스파니아-아프리카 원정","actor":"로마","label":"우티카","from_year":-205,"to_year":-204,"valid_from":-204,"valid_to":-192,"source":"book","confidence":"medium","owner":"person:스키피오아프리카누스"},"geometry":{"type":"LineString","coordinates":[[12.4862,41.8917],[10.0619,37.0569]]}},{"type":"Feature","properties":{"id":"scipio_africanus@2","layer":"movements","route":"scipio_africanus","name_ko":"스키피오 아프리카누스의 히스파니아-아프리카 원정","actor":"로마","label":"자마","from_year":-204,"to_year":-202,"valid_from":-202,"valid_to":-192,"source":"book","confidence":"high","owner":"person:스키피오아프리카누스"},"geometry":{"type":"LineString","coordinates":[[10.0619,37.0569],[9.4492,36.2989]]}},{"type":"Feature","properties":{"id":"trajan_dacia@0","layer":"movements","route":"trajan_dacia","name_ko":"트라야누스의 다키아 원정","actor":"기타중립","label":"로마","from_year":98,"to_year":100,"valid_from":100,"valid_to":116,"source":"book","confidence":"high","owner":"person:트라야누스"},"geometry":{"type":"LineString","coordinates":[[10,51],[12.4862,41.8917]]}},{"type":"Feature","properties":{"id":"trajan_dacia@1","layer":"movements","route":"trajan_dacia","name_ko":"트라야누스의 다키아 원정","actor":"기타중립","label":"도나우 강","from_year":100,"to_year":101,"valid_from":101,"valid_to":116,"source":"book","confidence":"high","owner":"person:트라야누스"},"geometry":{"type":"LineString","coordinates":[[12.4862,41.8917],[17,48]]}},{"type":"Feature","properties":{"id":"trajan_dacia@2","layer":"movements","route":"trajan_dacia","name_ko":"트라야누스의 다키아 원정","actor":"기타중립","label":"다키아","from_year":101,"to_year":106,"valid_from":106,"valid_to":116,"source":"book","confidence":"high","owner":"person:트라야누스"},"geometry":{"type":"LineString","coordinates":[[17,48],[22.5,47.5]]}},{"type":"Feature","properties":{"id":"trajan_parthia@0","layer":"movements","route":"trajan_parthia","name_ko":"트라야누스의 파르티아 원정","actor":"기타중립","label":"아르메니아","from_year":113,"to_year":114,"valid_from":114,"valid_to":127,"source":"book","confidence":"high","owner":"person:트라야누스"},"geometry":{"type":"LineString","coordinates":[[12.4862,41.8917],[45.0382,40.0691]]}},{"type":"Feature","properties":{"id":"trajan_parthia@1","layer":"movements","route":"trajan_parthia","name_ko":"트라야누스의 파르티아 원정","actor":"기타중립","label":"메소포타미아","from_year":114,"to_year":115,"valid_from":115,"valid_to":127,"source":"book","confidence":"high","owner":"person:트라야누스"},"geometry":{"type":"LineString","coordinates":[[45.0382,40.0691],[43.5,33.7]]}},{"type":"Feature","properties":{"id":"trajan_parthia@2","layer":"movements","route":"trajan_parthia","name_ko":"트라야누스의 파르티아 원정","actor":"기타중립","label":"인도양","from_year":115,"to_year":116,"valid_from":116,"valid_to":127,"source":"book","confidence":"high","owner":"person:트라야누스"},"geometry":{"type":"LineString","coordinates":[[43.5,33.7],[70,20]]}},{"type":"Feature","properties":{"id":"trajan_parthia@3","layer":"movements","route":"trajan_parthia","name_ko":"트라야누스의 파르티아 원정","actor":"기타중립","label":"셀리누스","from_year":116,"to_year":117,"valid_from":117,"valid_to":127,"source":"book","confidence":"high","owner":"person:트라야누스"},"geometry":{"type":"LineString","coordinates":[[70,20],[32.2,36.28]]}},{"type":"Feature","properties":{"id":"valerian_persia@0","layer":"movements","route":"valerian_persia","name_ko":"발레리아누스의 페르시아 원정과 포로 생활","actor":"기타중립","label":"소아시아","from_year":253,"to_year":259,"valid_from":259,"valid_to":270,"source":"book","confidence":"high","owner":"person:발레리아누스"},"geometry":{"type":"LineString","coordinates":[[2.5,47],[35,39]]}},{"type":"Feature","properties":{"id":"valerian_persia@1","layer":"movements","route":"valerian_persia","name_ko":"발레리아누스의 페르시아 원정과 포로 생활","actor":"기타중립","label":"에데사","from_year":259,"to_year":260,"valid_from":260,"valid_to":270,"source":"book","confidence":"high","owner":"person:발레리아누스"},"geometry":{"type":"LineString","coordinates":[[35,39],[38.7855,37.163]]}},{"type":"Feature","properties":{"id":"valerian_persia@2","layer":"movements","route":"valerian_persia","name_ko":"발레리아누스의 페르시아 원정과 포로 생활","actor":"기타중립","label":"비샤푸르","from_year":260,"to_year":260,"valid_from":260,"valid_to":270,"source":"book","confidence":"low","owner":"person:발레리아누스"},"geometry":{"type":"LineString","coordinates":[[38.7855,37.163],[52.8,28.9]]}}]}