{"type":"FeatureCollection", "features": [
{"type":"Feature","geometry":null,"properties":{"name":"Lanzarote","scalerank":7,"featurecla":"Island","region":"Africa"}},
{"type":"Feature","geometry":null,"properties":{"name":"Fuerteventura","scalerank":7,"featurecla":"Island","region":"Africa"}},
{"type":"Feature","geometry":null,"properties":{"name":"Jabal bin Ghunaymah","scalerank":6,"featurecla":"Range/mtn","region":"Africa"}},
{"type":"Feature","geometry":null,"properties":{"name":"Moyen Atlas","scalerank":6,"featurecla":"Range/mtn","region":"Africa"}},
{"type":"Feature","geometry":null,"properties":{"name":"Jabal as Sawdä’","scalerank":6,"featurecla":"Desert","region":"Africa"}},
{"type":"Feature","geometry":null,"properties":{"name":"Al Harüj al Aswad","scalerank":6,"featurecla":"Plateau","region":"Africa"}},
{"type":"Feature","geometry":null,"properties":{"name":"Saaremaa","scalerank":5,"featurecla":"Island","region":"Europe"}},
{"type":"Feature","geometry":null,"properties":{"name":"Gotland","scalerank":5,"featurecla":"Island","region":"Europe"}},
{"type":"Feature","geometry":null,"properties":{"name":"Zealand","scalerank":5,"featurecla":"Island","region":"Europe"}},
{"type":"Feature","geometry":null,"properties":{"name":"Pelopónnisos","scalerank":5,"featurecla":"Island","region":"Europe"}},
{"type":"Feature","geometry":null,"properties":{"name":"Rhodes","scalerank":5,"featurecla":"Island","region":"Europe"}},
{"type":"Feature","geometry":null,"properties":{"name":"Crete","scalerank":5,"featurecla":"Island","region":"Europe"}},
{"type":"Feature","geometry":null,"properties":{"name":"Malta","scalerank":5,"featurecla":"Island","region":"Europe"}},
{"type":"Feature","geometry":null,"properties":{"name":"Menorca","scalerank":5,"featurecla":"Island","region":"Europe"}},
{"type":"Feature","geometry":null,"properties":{"name":"Mallorca","scalerank":5,"featurecla":"Island","region":"Europe"}},
{"type":"Feature","geometry":null,"properties":{"name":"Ibiza","scalerank":5,"featurecla":"Island","region":"Europe"}},
{"type":"Feature","geometry":null,"properties":{"name":"Lesbos","scalerank":5,"featurecla":"Island","region":"Europe"}},
{"type":"Feature","geometry":null,"properties":{"name":"Hardanger-vidda","scalerank":5,"featurecla":"Range/mtn","region":"Europe"}},
{"type":"Feature","geometry":{"type":"MultiPolygon","coordinates":[[[[21.8395,32.9085],[21.9765,32.9125],[22.011,32.909],[22.4025,32.851],[22.1875,32.9185],[21.8395,32.9085]]],[[[21.704,32.9415],[21.7095,32.941],[21.73,32.94],[21.704,32.9415]]],[[[19.9725,31.907],[20.4695,32.465],[20.482,32.4715],[21.103,32.776],[20.4485,32.4775],[19.9725,31.907]]]]},"properties":{"name":"Al Jabal al Akhdar","scalerank":5,"featurecla":"Range/mtn","region":"Africa"}},
{"type":"Feature","geometry":{"type":"Polygon","coordinates":[[[-5.5225,35.862],[-5.469,35.891],[-5.3785,35.9155],[-5.4435,35.905],[-5.5225,35.862]]]},"properties":{"name":"Er Rif","scalerank":5,"featurecla":"Range/mtn","region":"Africa"}},
{"type":"Feature","geometry":{"type":"MultiPolygon","coordinates":[[[[4.8745,36.8615],[4.876,36.8605],[4.9955,36.808],[4.8745,36.8615]]],[[[2.9835,36.7845],[3.153,36.77],[3.392,36.7925],[2.9835,36.7845]]],[[[2.747,36.6845],[2.755,36.6865],[2.861,36.7355],[2.747,36.6845]]]]},"properties":{"name":"Atlas Tellien","scalerank":5,"featurecla":"Range/mtn","region":"Africa"}},
{"type":"Feature","geometry":null,"properties":{"name":"Central Makran","scalerank":5,"featurecla":"Range/mtn","region":"Asia"}},
{"type":"Feature","geometry":null,"properties":{"name":"Lebanon Mts.","scalerank":5,"featurecla":"Range/mtn","region":"Asia"}},
{"type":"Feature","geometry":null,"properties":{"name":"Kopet Dag Mts .","scalerank":5,"featurecla":"Range/mtn","region":"Asia"}},
{"type":"Feature","geometry":null,"properties":{"name":"Paropamisus Ra.","scalerank":5,"featurecla":"Range/mtn","region":"Asia"}},
{"type":"Feature","geometry":null,"properties":{"name":"Al Hajar Mts.","scalerank":5,"featurecla":"Range/mtn","region":"Asia"}},
{"type":"Feature","geometry":null,"properties":{"name":"Tuwayq Mts.","scalerank":5,"featurecla":"Range/mtn","region":"Asia"}},
{"type":"Feature","geometry":null,"properties":{"name":"Taurus Mts.","scalerank":5,"featurecla":"Range/mtn","region":"Asia"}},
{"type":"Feature","geometry":null,"properties":{"name":"Böhmerwald","scalerank":5,"featurecla":"Range/mtn","region":"Europe"}},
{"type":"Feature","geometry":null,"properties":{"name":"Transylvanian Alps","scalerank":5,"featurecla":"Range/mtn","region":"Europe"}},
{"type":"Feature","geometry":null,"properties":{"name":"Tatra Mts.","scalerank":5,"featurecla":"Range/mtn","region":"Europe"}},
{"type":"Feature","geometry":null,"properties":{"name":"Pindus Mts.","scalerank":5,"featurecla":"Range/mtn","region":"Europe"}},
{"type":"Feature","geometry":null,"properties":{"name":"Calabria","scalerank":5,"featurecla":"Range/mtn","region":"Europe"}},
{"type":"Feature","geometry":null,"properties":{"name":"Harz","scalerank":5,"featurecla":"Range/mtn","region":"Europe"}},
{"type":"Feature","geometry":null,"properties":{"name":"Vosges","scalerank":5,"featurecla":"Range/mtn","region":"Europe"}},
{"type":"Feature","geometry":null,"properties":{"name":"Sudetes Mts.","scalerank":5,"featurecla":"Range/mtn","region":"Europe"}},
{"type":"Feature","geometry":null,"properties":{"name":"Erzgebirge","scalerank":5,"featurecla":"Range/mtn","region":"Europe"}},
{"type":"Feature","geometry":null,"properties":{"name":"Ardennes","scalerank":5,"featurecla":"Range/mtn","region":"Europe"}},
{"type":"Feature","geometry":null,"properties":{"name":"Jura","scalerank":5,"featurecla":"Range/mtn","region":"Europe"}},
{"type":"Feature","geometry":null,"properties":{"name":"Grampian Mts.","scalerank":5,"featurecla":"Range/mtn","region":"Europe"}},
{"type":"Feature","geometry":null,"properties":{"name":"Cambrian Mts.","scalerank":5,"featurecla":"Range/mtn","region":"Europe"}},
{"type":"Feature","geometry":{"type":"MultiPolygon","coordinates":[[[[50.2955,40.422],[49.726,40.4625],[50.328,40.3645],[50.2955,40.422]]],[[[49.4875,40.54],[49.701,40.468],[49.4925,40.5465],[49.4875,40.54]]]]},"properties":{"name":"Absheron Pen.","scalerank":5,"featurecla":"Pen/cape","region":"Europe"}},
{"type":"Feature","geometry":null,"properties":{"name":"Musandam Peninsula","scalerank":5,"featurecla":"Pen/cape","region":"Asia"}},
{"type":"Feature","geometry":null,"properties":{"name":"Plat. du Tademaït","scalerank":5,"featurecla":"Plateau","region":"Africa"}},
{"type":"Feature","geometry":null,"properties":{"name":"Jilf al Kabir Plateau","scalerank":5,"featurecla":"Plateau","region":"Africa"}},
{"type":"Feature","geometry":null,"properties":{"name":"Jabal al Abyad Plateau","scalerank":5,"featurecla":"Plateau","region":"Africa"}},
{"type":"Feature","geometry":null,"properties":{"name":"Libyan Plateau","scalerank":5,"featurecla":"Plateau","region":"Africa"}},
{"type":"Feature","geometry":null,"properties":{"name":"Stavropol’ Plateau","scalerank":5,"featurecla":"Plateau","region":"Europe"}},
{"type":"Feature","geometry":null,"properties":{"name":"Volga Upland","scalerank":5,"featurecla":"Plateau","region":"Europe"}},
{"type":"Feature","geometry":null,"properties":{"name":"Dnieper Upland","scalerank":5,"featurecla":"Plateau","region":"Europe"}},
{"type":"Feature","geometry":null,"properties":{"name":"Azov Upland","scalerank":5,"featurecla":"Plateau","region":"Europe"}},
{"type":"Feature","geometry":null,"properties":{"name":"Massif Central","scalerank":5,"featurecla":"Plateau","region":"Europe"}},
{"type":"Feature","geometry":null,"properties":{"name":"Wahiba Sands","scalerank":5,"featurecla":"Desert","region":"Asia"}},
{"type":"Feature","geometry":{"type":"Polygon","coordinates":[[[34.249,31.3425],[34.349,31.317],[34.2695,31.362],[34.249,31.3425]]]},"properties":{"name":"Negev Desert","scalerank":5,"featurecla":"Desert","region":"Africa"}},
{"type":"Feature","geometry":{"type":"Polygon","coordinates":[[[35.498,23.794],[35.485,23.6155],[35.517,23.5515],[35.498,23.794]]]},"properties":{"name":"Eastern Desert","scalerank":5,"featurecla":"Desert","region":"Africa"}},
{"type":"Feature","geometry":null,"properties":{"name":"Akchâr","scalerank":5,"featurecla":"Desert","region":"Africa"}},
{"type":"Feature","geometry":null,"properties":{"name":"Hamada de Tinrhert","scalerank":5,"featurecla":"Desert","region":"Africa"}},
{"type":"Feature","geometry":null,"properties":{"name":"‘Erg Iguidi","scalerank":5,"featurecla":"Desert","region":"Africa"}},
{"type":"Feature","geometry":null,"properties":{"name":"Rigestan","scalerank":5,"featurecla":"Desert","region":"Asia"}},
{"type":"Feature","geometry":null,"properties":{"name":"Margo Desert","scalerank":5,"featurecla":"Desert","region":"Asia"}},
{"type":"Feature","geometry":null,"properties":{"name":"Kavir Desert","scalerank":5,"featurecla":"Desert","region":"Asia"}},
{"type":"Feature","geometry":null,"properties":{"name":"An Nafud Desert","scalerank":5,"featurecla":"Desert","region":"Asia"}},
{"type":"Feature","geometry":null,"properties":{"name":"Jabal Nafüsah","scalerank":5,"featurecla":"Plain","region":"Africa"}},
{"type":"Feature","geometry":null,"properties":{"name":"Tihāmah","scalerank":5,"featurecla":"Plain","region":"Asia"}},
{"type":"Feature","geometry":null,"properties":{"name":"Hasa Plain","scalerank":5,"featurecla":"Plain","region":"Asia"}},
{"type":"Feature","geometry":null,"properties":{"name":"Alföld","scalerank":5,"featurecla":"Plain","region":"Europe"}},
{"type":"Feature","geometry":null,"properties":{"name":"Baltic Plains","scalerank":5,"featurecla":"Plain","region":"Europe"}},
{"type":"Feature","geometry":null,"properties":{"name":"Levant Coast","scalerank":5,"featurecla":"Coast","region":"Asia"}},
{"type":"Feature","geometry":null,"properties":{"name":"Riviera","scalerank":5,"featurecla":"Coast","region":"Europe"}},
{"type":"Feature","geometry":null,"properties":{"name":"Normandie","scalerank":5,"featurecla":"Geoarea","region":"Europe"}},
{"type":"Feature","geometry":null,"properties":{"name":"Bretagne","scalerank":5,"featurecla":"Geoarea","region":"Europe"}},
{"type":"Feature","geometry":null,"properties":{"name":"Karelia","scalerank":5,"featurecla":"Geoarea","region":"Europe"}},
{"type":"Feature","geometry":null,"properties":{"name":"Cyprus","scalerank":4,"featurecla":"Island","region":"Asia"}},
{"type":"Feature","geometry":null,"properties":{"name":"Nile Delta","scalerank":4,"featurecla":"Delta","region":"Africa"}},
{"type":"Feature","geometry":null,"properties":{"name":"Anti Atlas","scalerank":4,"featurecla":"Range/mtn","region":"Africa"}},
{"type":"Feature","geometry":null,"properties":{"name":"Lesser Caucasus","scalerank":4,"featurecla":"Range/mtn","region":"Asia"}},
{"type":"Feature","geometry":{"type":"MultiPolygon","coordinates":[]},"properties":{"name":"PONTIC MOUNTAINS","scalerank":4,"featurecla":"Range/mtn","region":"Asia"}},
{"type":"Feature","geometry":null,"properties":{"name":"KUH RUD MOUNTAINS","scalerank":4,"featurecla":"Range/mtn","region":"Asia"}},
{"type":"Feature","geometry":null,"properties":{"name":"Balkan Mts.","scalerank":4,"featurecla":"Range/mtn","region":"Europe"}},
{"type":"Feature","geometry":null,"properties":{"name":"Dinaric Alps","scalerank":4,"featurecla":"Range/mtn","region":"Europe"}},
{"type":"Feature","geometry":null,"properties":{"name":"Cord. Cantábrica","scalerank":4,"featurecla":"Range/mtn","region":"Europe"}},
{"type":"Feature","geometry":null,"properties":{"name":"S. Nevada","scalerank":4,"featurecla":"Range/mtn","region":"Europe"}},
{"type":"Feature","geometry":null,"properties":{"name":"Sierra Morena","scalerank":4,"featurecla":"Range/mtn","region":"Europe"}},
{"type":"Feature","geometry":null,"properties":{"name":"Idhän Murzuq","scalerank":4,"featurecla":"Desert","region":"Africa"}},
{"type":"Feature","geometry":null,"properties":{"name":"Hamada du Drâa","scalerank":4,"featurecla":"Desert","region":"Africa"}},
{"type":"Feature","geometry":null,"properties":{"name":"Ténéré","scalerank":4,"featurecla":"Desert","region":"Africa"}},
{"type":"Feature","geometry":null,"properties":{"name":"Tassili oua-n-Ahaggar","scalerank":4,"featurecla":"Desert","region":"Africa"}},
{"type":"Feature","geometry":null,"properties":{"name":"Tassili-n-Ajjer","scalerank":4,"featurecla":"Desert","region":"Africa"}},
{"type":"Feature","geometry":null,"properties":{"name":"Sarïr Kalanshiyu ar Ramli al Kabi","scalerank":4,"featurecla":"Desert","region":"Africa"}},
{"type":"Feature","geometry":null,"properties":{"name":"Grand Erg Oriental","scalerank":4,"featurecla":"Desert","region":"Africa"}},
{"type":"Feature","geometry":null,"properties":{"name":"Grand Erg Occidental","scalerank":4,"featurecla":"Desert","region":"Africa"}},
{"type":"Feature","geometry":null,"properties":{"name":"‘Erg Chech","scalerank":4,"featurecla":"Desert","region":"Africa"}},
{"type":"Feature","geometry":null,"properties":{"name":"El Djouf","scalerank":4,"featurecla":"Desert","region":"Africa"}},
{"type":"Feature","geometry":null,"properties":{"name":"LUT DESERT","scalerank":4,"featurecla":"Desert","region":"Asia"}},
{"type":"Feature","geometry":{"type":"Polygon","coordinates":[[[15.263,44.3885],[15.1425,44.4805],[15.058,44.5445],[15.009,44.582],[15.263,44.3885]]]},"properties":{"name":"Dalmatia","scalerank":4,"featurecla":"Coast","region":"Europe"}},
{"type":"Feature","geometry":null,"properties":{"name":"Ustyurt Plateau","scalerank":4,"featurecla":"Plateau","region":"Asia"}},
{"type":"Feature","geometry":null,"properties":{"name":"VYCHEGDA LOWLAND","scalerank":4,"featurecla":"Lowland","region":"Europe"}},
{"type":"Feature","geometry":null,"properties":{"name":"BALUCHISTAN","scalerank":4,"featurecla":"Geoarea","region":"Asia"}},
{"type":"Feature","geometry":{"type":"Polygon","coordinates":[[[8.418,39.2055],[8.6485,38.9265],[8.8815,38.913],[9.0565,39.239],[9.5625,39.166],[9.701,40.092],[9.643,40.2685],[9.8055,40.4995],[9.6155,41.0175],[9.283,41.2015],[8.19,40.6515],[8.4715,40.2925],[8.418,39.2055]]]},"properties":{"name":"Sardegna","scalerank":3,"featurecla":"Island","region":"Europe"}},
{"type":"Feature","geometry":{"type":"Polygon","coordinates":[[[9.5565,42.161],[9.526,42.5525],[9.3385,42.767],[8.713,42.55],[8.566,42.219],[8.701,42.0955],[8.8075,41.5885],[9.186,41.385],[9.395,41.731],[9.5565,42.161]]]},"properties":{"name":"Corse","scalerank":3,"featurecla":"Island","region":"Europe"}},
{"type":"Feature","geometry":null,"properties":{"name":"Sicilia","scalerank":3,"featurecla":"Island","region":"Europe"}},
{"type":"Feature","geometry":null,"properties":{"name":"ATLAS SAHARIEN","scalerank":3,"featurecla":"Range/mtn","region":"Africa"}},
{"type":"Feature","geometry":null,"properties":{"name":"HAUT ATLAS","scalerank":3,"featurecla":"Range/mtn","region":"Africa"}},
{"type":"Feature","geometry":null,"properties":{"name":"TIBESTI MTS.","scalerank":3,"featurecla":"Range/mtn","region":"Africa"}},
{"type":"Feature","geometry":null,"properties":{"name":"AHAGGAR MTS.","scalerank":3,"featurecla":"Range/mtn","region":"Africa"}},
{"type":"Feature","geometry":null,"properties":{"name":"AÏR MTS.","scalerank":3,"featurecla":"Range/mtn","region":"Africa"}},
{"type":"Feature","geometry":null,"properties":{"name":"HEJAZ MTS.","scalerank":3,"featurecla":"Range/mtn","region":"Asia"}},
{"type":"Feature","geometry":null,"properties":{"name":"ASIR MTS.","scalerank":3,"featurecla":"Range/mtn","region":"Asia"}},
{"type":"Feature","geometry":null,"properties":{"name":"ELBURZ MTS.","scalerank":3,"featurecla":"Range/mtn","region":"Asia"}},
{"type":"Feature","geometry":null,"properties":{"name":"KJØLEN MOUNTAINS","scalerank":3,"featurecla":"Range/mtn","region":"Europe"}},
{"type":"Feature","geometry":null,"properties":{"name":"CARPATHIAN MOUNTAINS","scalerank":3,"featurecla":"Range/mtn","region":"Europe"}},
{"type":"Feature","geometry":null,"properties":{"name":"APPENNINI","scalerank":3,"featurecla":"Range/mtn","region":"Europe"}},
{"type":"Feature","geometry":null,"properties":{"name":"PYRENEES","scalerank":3,"featurecla":"Range/mtn","region":"Europe"}},
{"type":"Feature","geometry":null,"properties":{"name":"Volga Delta","scalerank":3,"featurecla":"Delta","region":"Europe"}},
{"type":"Feature","geometry":null,"properties":{"name":"Danube Delta","scalerank":3,"featurecla":"Delta","region":"Europe"}},
{"type":"Feature","geometry":null,"properties":{"name":"CRIMEA","scalerank":3,"featurecla":"Pen/cape","region":"Europe"}},
{"type":"Feature","geometry":null,"properties":{"name":"CENTRAL RUSSIAN UPLAND","scalerank":3,"featurecla":"Plateau","region":"Europe"}},
{"type":"Feature","geometry":null,"properties":{"name":"WESTERN DESERT","scalerank":3,"featurecla":"Desert","region":"Africa"}},
{"type":"Feature","geometry":null,"properties":{"name":"NUBIAN DESERT","scalerank":3,"featurecla":"Desert","region":"Africa"}},
{"type":"Feature","geometry":{"type":"MultiPolygon","coordinates":[[[[21.73,32.94],[21.7095,32.941],[21.7375,32.938],[21.73,32.94]]],[[[23.2865,32.214],[23.775,32.161],[24.039,32.037],[23.8985,32.127],[23.866,32.1375],[23.7835,32.16],[23.2865,32.214]]]]},"properties":{"name":"LIBYAN DESERT","scalerank":3,"featurecla":"Desert","region":"Africa"}},
{"type":"Feature","geometry":null,"properties":{"name":"SYRIAN DESERT","scalerank":3,"featurecla":"Desert","region":"Asia"}},
{"type":"Feature","geometry":null,"properties":{"name":"GARAGUM DESERT","scalerank":3,"featurecla":"Desert","region":"Asia"}},
{"type":"Feature","geometry":null,"properties":{"name":"QIZILQUM DESERT","scalerank":3,"featurecla":"Desert","region":"Asia"}},
{"type":"Feature","geometry":{"type":"Polygon","coordinates":[[[51.7755,46.962],[51.776,46.982],[51.7715,46.9635],[51.7755,46.962]]]},"properties":{"name":"CASPIAN DEPRESSION","scalerank":3,"featurecla":"Lowland","region":"Europe"}},
{"type":"Feature","geometry":null,"properties":{"name":"Mesopotamia","scalerank":3,"featurecla":"Geoarea","region":"Asia"}},
{"type":"Feature","geometry":null,"properties":{"name":"IRELAND","scalerank":2,"featurecla":"Island","region":"Europe"}},
{"type":"Feature","geometry":null,"properties":{"name":"GREAT BRITAIN","scalerank":2,"featurecla":"Island","region":"Europe"}},
{"type":"Feature","geometry":null,"properties":{"name":"ZAGROS MOUNTAINS","scalerank":2,"featurecla":"Range/mtn","region":"Asia"}},
{"type":"Feature","geometry":{"type":"MultiPolygon","coordinates":[[[[4.8745,36.8615],[4.398,36.8965],[3.779,36.896],[4.398,36.8965],[4.87,36.8615],[4.876,36.8605],[4.8745,36.8615]]],[[[2.5935,36.6005],[2.755,36.6865],[2.747,36.6845],[2.5935,36.6005]]],[[[0.9715,36.444],[0.791,36.3565],[0.815,36.368],[0.9875,36.448],[0.9715,36.444]]],[[[0.048,35.9005],[0.1895,36.077],[0.791,36.3565],[0.307,36.159],[0.1515,36.063],[0.048,35.9005]]],[[[-0.712,35.749],[-0.722,35.7455],[-0.702,35.7505],[-0.671,35.7655],[-0.712,35.749]]],[[[-1.3255,35.3745],[-1.279,35.3965],[-1.265,35.4035],[-1.113,35.561],[-1.266,35.4155],[-1.3,35.4005],[-1.336,35.3645],[-1.3255,35.3745]]],[[[-2.0125,35.0855],[-2.005,35.0855],[-1.9135,35.094],[-2.018,35.085],[-2.0125,35.0855]]],[[[-2.2195,35.104],[-2.4825,35.1205],[-2.4355,35.1125],[-2.018,35.085],[-2.2195,35.104]]],[[[-10.543,29.0115],[-10.4865,29.065],[-10.893,28.8145],[-10.589,28.974],[-10.543,29.0115]]]]},"properties":{"name":"ATLAS MOUNTAINS","scalerank":2,"featurecla":"Range/mtn","region":"Africa"}},
{"type":"Feature","geometry":null,"properties":{"name":"TURAN LOWLAND","scalerank":2,"featurecla":"Plain","region":"Asia"}},
{"type":"Feature","geometry":null,"properties":{"name":"SAHEL","scalerank":2,"featurecla":"Plain","region":"Africa"}},
{"type":"Feature","geometry":null,"properties":{"name":"PONTIC STEPPE","scalerank":2,"featurecla":"Plain","region":"Europe"}},
{"type":"Feature","geometry":{"type":"MultiPolygon","coordinates":[[[[26.519,40.301],[26.4155,40.209],[26.3805,40.174],[26.367,40.1605],[26.519,40.301]]],[[[15.2685,44.3845],[15.1425,44.4805],[15.263,44.3885],[15.2685,44.3845]]],[[[20.978,38.915],[20.928,38.9305],[20.978,38.915],[21.0255,38.9],[21.004,38.907],[20.978,38.915]]]]},"properties":{"name":"BALKAN PEN.","scalerank":2,"featurecla":"Pen/cape","region":"Europe"}},
{"type":"Feature","geometry":null,"properties":{"name":"RUB’ AL KHALI","scalerank":2,"featurecla":"Desert","region":"Asia"}},
{"type":"Feature","geometry":{"type":"MultiPolygon","coordinates":[]},"properties":{"name":"ANATOLIA","scalerank":2,"featurecla":"Geoarea","region":"Europe"}},
{"type":"Feature","geometry":null,"properties":{"name":"ALPS","scalerank":1,"featurecla":"Range/mtn","region":"Europe"}},
{"type":"Feature","geometry":{"type":"Polygon","coordinates":[[[59.391,54.567],[59.354,54.621],[59.331,54.515],[59.391,54.567]]]},"properties":{"name":"URAL MOUNTAINS","scalerank":1,"featurecla":"Range/mtn","region":"Europe"}},
{"type":"Feature","geometry":{"type":"MultiPolygon","coordinates":[[[[49.4625,40.558],[49.4445,40.565],[49.4635,40.554],[49.4625,40.558]]],[[[44.1225,42.683],[42.8485,43.126],[43.29,42.948],[44.1225,42.683]]]]},"properties":{"name":"CAUCASUS MTS.","scalerank":1,"featurecla":"Range/mtn","region":"Europe"}},
{"type":"Feature","geometry":{"type":"MultiPolygon","coordinates":[[[[59.152,54.274],[59.223,54.323],[59.313,54.3725],[59.3925,54.476],[59.3075,54.4075],[59.293,54.396],[59.269,54.3765],[59.224,54.34],[59.152,54.274]]],[[[59.1515,54.2495],[59.157,54.199],[59.1775,54.217],[59.1515,54.2535],[59.1515,54.2495]]],[[[59.1505,54.1905],[59.157,54.199],[59.1505,54.1955],[59.1505,54.1905]]],[[[59.147,53.9215],[59.194,53.8995],[59.147,53.95],[59.147,53.9215]]],[[[59.1355,53.813],[59.1375,53.805],[59.1715,53.857],[59.1455,53.839],[59.1355,53.813]]]]},"properties":{"name":"KAZAKH STEPPE","scalerank":1,"featurecla":"Plain","region":"Asia"}},
{"type":"Feature","geometry":null,"properties":{"name":"NORTHERN EUROPEAN PLAIN","scalerank":1,"featurecla":"Plain","region":"Europe"}},
{"type":"Feature","geometry":null,"properties":{"name":"SCANDINAVIA","scalerank":1,"featurecla":"Pen/cape","region":"Europe"}},
{"type":"Feature","geometry":null,"properties":{"name":"ARABIAN PENINSULA","scalerank":1,"featurecla":"Pen/cape","region":"Asia"}},
{"type":"Feature","geometry":{"type":"MultiPolygon","coordinates":[[[[37.077,21.333],[37.193,20.1205],[37.2275,20.5565],[37.077,21.333]]],[[[35.9415,22.73],[35.9245,22.7355],[35.9555,22.701],[36.231,22.504],[35.9415,22.73]]]]},"properties":{"name":"SAHARA","scalerank":1,"featurecla":"Desert","region":"Africa"}},
{"type":"Feature","geometry":null,"properties":{"name":"PENÍNSULA IBÉRICA","scalerank":1,"featurecla":"Plateau","region":"Europe"}},
{"type":"Feature","geometry":{"type":"Polygon","coordinates":[[[10.4125,36.732],[10.189,37.034],[10.18,37.124],[10.099,37.224],[10.017,37.2525],[9.8755,37.254],[9.8155,37.2545],[9.7345,37.298],[9.1315,37.137],[8.98,37.0925],[8.8235,36.9975],[8.5765,36.937],[8.175,36.913],[8.007,36.8755],[7.984,36.8745],[7.9105,36.8565],[7.7915,36.8805],[7.5315,37.0205],[7.238,37.0415],[7.2385,36.9685],[6.9275,36.9195],[6.576,37.003],[6.5635,37.0145],[6.4315,37.0345],[6.249,36.9385],[6.2175,36.9255],[5.505,36.7085],[5.4245,36.6755],[5.2955,36.648],[5.1955,36.677],[4.9955,36.808],[4.876,36.8605],[4.87,36.8615],[4.398,36.8965],[3.779,36.896],[3.5205,36.795],[3.392,36.7925],[3.153,36.77],[2.9835,36.7845],[2.861,36.7355],[2.755,36.6865],[2.5935,36.6005],[1.257,36.5195],[0.9875,36.448],[0.815,36.368],[0.791,36.3565],[0.1895,36.077],[0.048,35.9005],[-0.048,35.833],[-0.189,35.819],[-0.426,35.8615],[-0.543,35.8155],[-0.671,35.7655],[-0.702,35.7505],[-0.722,35.7455],[-0.9175,35.6685],[-1.0875,35.579],[-1.113,35.561],[-1.265,35.4035],[-1.279,35.3965],[-1.3255,35.3745],[-1.336,35.3645],[-1.5075,35.288],[-1.6735,35.183],[-1.9135,35.094],[-2.005,35.0855],[-2.0125,35.0855],[-2.018,35.085],[-2.4355,35.1125],[-2.4825,35.1205],[-2.637,35.1125],[-2.84,35.128],[-2.8695,35.1725],[-2.877,35.188],[-2.9375,35.293],[-2.992,35.3875],[-3.004,35.376],[-3.063,35.317],[-3.206,35.239],[-3.3885,35.2125],[-3.3945,35.212],[-3.5905,35.2285],[-3.603,35.2345],[-3.6635,35.265],[-3.762,35.2545],[-3.788,35.245],[-4.33,35.1615],[-4.837,35.2815],[-5.1755,35.538],[-5.19,35.5525],[-5.2525,35.6145],[-5.3375,35.8085],[-5.3375,35.8395],[-5.3785,35.9155],[-5.469,35.891],[-5.5225,35.862],[-5.623,35.829],[-5.7395,35.817],[-5.748,35.816],[-5.882,35.7925],[-6.353,34.776],[-6.8615,33.987],[-7.5625,33.6405],[-8.301,33.3745],[-8.5985,33.1845],[-9.246,32.5725],[-9.256,32.2405],[-9.723,31.6075],[-9.8135,31.3565],[-9.8335,31.0695],[-9.8325,30.8475],[-9.8625,30.7565],[-9.863,30.744],[-9.587,30.455],[-9.653,30.0445],[-10.4865,29.065],[-10.543,29.0115],[-10.589,28.974],[-10.893,28.8145],[-11.081,28.714],[-11.4785,28.338],[-12.263,28.0605],[-12.469,28.0095],[-12.566,28],[-12.6215,27.9875],[-12.947,27.915],[-13.176,27.6555],[-13.6085,26.6845],[-14.414,26.2535],[-14.459,26.181],[-14.4705,26.163],[-14.523,25.925],[-14.58,25.8415],[-14.6705,25.636],[-14.843,25.22],[-14.856,24.8715],[-15,24.598],[-15,20],[-13.7245,20],[-13.567,20],[-13.1345,20],[-12.634,20],[-11.88,20],[-10.832,20],[-8.62,20],[-5.1955,20],[-2.1135,20],[3.569,20],[4.224,20],[7.697,20],[7.7305,20],[7.8085,20],[8.737,20],[8.8435,20],[10.0775,20],[16.2215,20],[17.309,20],[19.3525,20],[19.5885,20],[25.605,20],[27.275,20],[30.304,20],[30.3715,20],[32.0685,20],[37.192,20],[37.2015,20],[37.193,20.1205],[37.077,21.333],[37.076,21.335],[37.053,21.374],[36.927,21.5865],[36.8825,21.769],[36.875,21.928],[36.8715,21.9965],[36.8705,22.016],[36.8665,22.0235],[36.858,22.041],[36.856,22.0445],[36.231,22.504],[35.9555,22.701],[35.9245,22.7355],[35.9135,22.7395],[35.8635,22.7735],[35.846,22.7855],[35.698,22.946],[35.523,23.4425],[35.517,23.5515],[35.485,23.6155],[35.498,23.794],[35.659,23.9575],[35.6245,24.066],[35.478,24.155],[35.437,24.213],[35.3785,24.289],[35.3605,24.307],[35.194,24.475],[34.565,25.691],[33.959,26.649],[33.893,27.0495],[33.884,27.078],[33.6975,27.341],[33.559,27.701],[33.5555,27.7575],[33.5135,27.875],[33.2445,28.169],[33.202,28.2085],[33.1425,28.286],[32.947,28.5175],[32.9065,28.557],[32.898,28.565],[32.895,28.5705],[32.8745,28.6025],[32.742,28.8345],[32.73,28.848],[32.659,28.9275],[32.632,28.992],[32.6355,29.1005],[32.6355,29.104],[32.614,29.198],[32.3495,29.6215],[32.473,29.9255],[32.7595,29.5025],[33.1435,29.0395],[33.236,28.6425],[33.7255,28.1],[34.2415,27.8355],[34.375,27.9775],[34.4,28.404],[34.7365,29.2705],[34.9235,29.499],[34.8985,29.5785],[34.8685,29.901],[34.7185,30.2505],[34.349,31.317],[34.249,31.3425],[33.6665,31.1305],[33.13,31.168],[32.6035,31.069],[32.3175,31.259],[32.119,31.097],[32.102,31.093],[31.876,31.4135],[31.817,31.5005],[31.7705,31.5055],[31.6065,31.456],[31.5245,31.4585],[31.2545,31.564],[31.0455,31.566],[31.031,31.5075],[30.884,31.5225],[30.9,31.54],[30.6665,31.4985],[30.571,31.473],[30.479,31.465],[30.399,31.4505],[30.3795,31.441],[30.344,31.4025],[30.0495,31.2655],[29.8445,31.173],[29.7615,31.12],[29.101,30.8315],[29.072,30.8305],[29.0685,30.8315],[29.012,30.838],[28.8155,30.895],[28.181,31.079],[27.9675,31.0975],[27.62,31.1915],[27.54,31.2125],[27.2865,31.356],[26.4575,31.512],[26.001,31.6],[25.8935,31.621],[25.382,31.513],[25.279,31.5265],[25.2255,31.534],[25.2185,31.545],[25.1785,31.5415],[25.0235,31.885],[24.9415,31.9575],[24.544,32.0025],[24.526,32.001],[24.48,31.9965],[24.039,32.037],[23.775,32.161],[23.2865,32.214],[23.1065,32.3315],[23.1075,32.3475],[23.1075,32.349],[23.051,32.6345],[22.917,32.687],[22.8885,32.6965],[22.7715,32.735],[22.754,32.7405],[22.7215,32.748],[22.5235,32.794],[22.4025,32.851],[22.011,32.909],[21.9765,32.9125],[21.8395,32.9085],[21.7375,32.938],[21.7095,32.941],[21.704,32.9415],[21.6995,32.941],[21.602,32.915],[21.4245,32.799],[21.319,32.7775],[21.103,32.776],[20.482,32.4715],[20.4695,32.465],[19.9725,31.907],[20.1115,30.9635],[20.013,30.8005],[19.881,30.6505],[19.8505,30.6315],[19.7135,30.4885],[19.1235,30.266],[18.67,30.4155],[18.172,30.783],[17.361,31.05],[16.1965,31.2355],[15.706,31.4265],[15.469,31.6455],[15.359,32.1595],[15.18,32.3885],[14.4505,32.5185],[14.209,32.691],[13.196,32.9045],[12.7535,32.801],[12.28,32.8585],[11.8805,33.06],[11.1165,33.286],[11.0845,33.563],[10.723,33.5145],[10.1905,33.802],[10.0055,34.1195],[10.204,34.3705],[10.691,34.6785],[11.101,35.216],[11.0045,35.634],[10.689,35.7995],[10.455,36.2625],[10.8125,36.54],[11.104,36.9165],[11.0015,37.066],[10.4125,36.732]]]},"properties":{"name":"AFRICA","scalerank":0,"featurecla":"Continent","region":"Africa"}},
{"type":"Feature","geometry":{"type":"MultiPolygon","coordinates":[[[[65,25.405],[65,26.4465],[65,27.7705],[65,29.7975],[65,30.3835],[65,31.9465],[65,32.0835],[65,32.1045],[65,34.4395],[65,35.205],[65,37.4535],[65,40.185],[65,46.449],[65,47.7465],[65,55.129],[65,60],[59.573,60],[58.849,60],[58.8015,60],[58.943,58.437],[58.9755,57.7075],[59.178,56.3005],[59.225,55.0325],[59.3635,54.664],[59.354,54.621],[59.391,54.567],[59.3925,54.476],[59.313,54.3725],[59.223,54.323],[59.152,54.274],[59.1515,54.2535],[59.1775,54.217],[59.157,54.199],[59.1505,54.1905],[59.137,54.171],[59.114,54.13],[59.0785,54.0435],[59.128,53.977],[59.147,53.95],[59.194,53.8995],[59.1715,53.857],[59.1375,53.805],[59.1425,53.79],[59.1525,53.76],[59.0175,53.511],[59.036,53.3695],[59.0845,53.3215],[59.024,53.1545],[59.009,53.139],[58.8975,52.9255],[58.896,52.908],[58.8935,52.884],[58.891,52.855],[58.92,52.787],[59.0315,52.521],[58.915,52.2865],[58.6685,51.789],[58.6315,51.6985],[58.6295,51.6805],[58.628,51.6535],[58.6335,51.593],[58.76,51.443],[58.7405,51.3085],[58.6465,51.235],[58.4435,51.2015],[58.3575,51.1715],[58.2445,51.132],[57.7955,51.1245],[57.333,51.2315],[57.309,51.242],[57.1295,51.3205],[57.1045,51.3315],[57.0715,51.3365],[56.8815,51.363],[56.822,51.3715],[56.4805,51.4195],[55.961,51.625],[55.7375,51.678],[55.3925,51.756],[54.6795,51.759],[54.1155,51.6455],[53.778,51.566],[53.6705,51.566],[53.4305,51.5695],[52.8015,51.498],[52.5015,51.391],[52.462,51.3745],[52.369,51.3945],[51.954,51.3965],[51.44,51.1755],[51.1265,50.632],[51.1025,50.274],[51.3255,49.9275],[51.8575,49.306],[51.9575,49.1775],[51.8175,48.643],[51.5735,48.456],[51.5725,48.453],[51.587,48.44],[51.598,48.438],[51.6695,47.966],[51.6075,47.634],[51.8715,47.417],[51.937,47.1815],[51.776,46.982],[51.7755,46.962],[51.948,46.895],[52.011,46.902],[52.0505,46.869],[52.3405,46.895],[52.483,46.9905],[52.916,46.9545],[52.9815,46.9205],[53.17,46.669],[53.109,46.414],[53.1355,46.1915],[53.05,45.988],[52.8875,45.7795],[52.774,45.573],[53.079,45.3075],[52.531,45.3985],[51.7325,45.3995],[51.5395,45.343],[51.484,45.3495],[51.25,45.1215],[51.058,44.8115],[51.4215,44.6015],[51.431,44.602],[51.5435,44.531],[51.5035,44.5335],[51.177,44.5015],[50.8605,44.629],[50.4095,44.624],[50.331,44.3255],[50.831,44.193],[51.1395,43.649],[51.302,43.4825],[51.2955,43.174],[51.616,43.1585],[51.844,42.9105],[52.5965,42.76],[52.6185,42.428],[52.462,42.1005],[52.6095,41.5295],[52.83,41.342],[52.97,41.976],[53.164,42.094],[53.8465,42.091],[54.095,41.5195],[54.592,41.1935],[54.71,40.891],[54.3195,40.8345],[53.87,40.6485],[53.615,40.8185],[53.145,40.825],[52.9435,41.038],[52.7335,40.3985],[52.7445,40.22],[52.9875,39.9875],[53.404,39.9605],[53.4725,39.669],[53.125,39.432],[53.6175,39.216],[53.8685,38.9495],[53.8235,37.928],[54.0165,36.852],[54.016,36.8495],[53.6795,36.853],[53.374,36.869],[52.19,36.6215],[51.762,36.6145],[51.1185,36.7425],[50.533,37.0135],[50.1305,37.407],[49.47,37.4965],[49.081,37.6675],[48.96,37.89],[48.851,38.8155],[49.0135,39.134],[49.2,39.0725],[49.363,39.3495],[49.3245,39.6085],[49.557,40.197],[49.669,40.249],[49.7405,40.2715],[49.86,40.303],[49.919,40.3165],[50.366,40.2795],[50.328,40.3645],[49.726,40.4625],[49.701,40.468],[49.4875,40.54],[49.4635,40.554],[49.4445,40.565],[49.286,40.673],[47.7575,41.445],[47.3005,41.676],[47.0325,41.8115],[46.884,41.871],[46.4165,42.0355],[45.916,42.1925],[44.6775,42.506],[44.1225,42.683],[43.29,42.948],[42.8485,43.126],[41.5035,43.5715],[41,43.7705],[40.9155,43.83],[40.838,43.8845],[39.741,44.383],[38.2795,44.862],[38.1715,44.8975],[37.424,45.0285],[37.3505,45.034],[37.221,45.0425],[37.109,45.008],[37.2065,44.9705],[37.284,44.905],[37.5725,44.671],[37.8515,44.699],[37.9465,44.6185],[38.1815,44.4195],[38.7175,44.288],[39.3295,43.8975],[39.618,43.6555],[39.842,43.4955],[40.524,43.121],[40.8365,43.0635],[41.1285,42.828],[41.3965,42.745],[41.4195,42.7375],[41.489,42.6595],[41.5225,42.561],[41.763,41.97],[41.702,41.7055],[41.4145,41.4235],[41.0835,41.261],[40.9615,41.2125],[40.9595,41.2115],[40.959,41.2115],[40.8655,41.1975],[40.8195,41.19],[40.736,41.138],[40.3275,40.983],[40.2715,40.9635],[40.265,40.9615],[40.0125,40.974],[40,40.977],[39.923,40.968],[39.838,40.978],[39.808,40.9825],[39.7075,41.015],[39.59,41.0535],[39.4265,41.1065],[39.409,41.1035],[39.1865,41.0695],[39.125,41.06],[38.683,40.971],[38.6615,40.9655],[38.557,40.9365],[38.555,40.9365],[38.381,40.9245],[38.082,40.9735],[37.996,40.9875],[37.9605,40.9935],[37.785,41.0685],[37.7655,41.079],[37.633,41.093],[37.303,41.1385],[37.2575,41.1475],[37.066,41.1845],[36.992,41.2755],[36.647,41.3525],[36.5895,41.328],[36.5135,41.2655],[36.5095,41.2625],[36.4055,41.2745],[36.382,41.286],[36.34,41.3065],[36.2785,41.336],[36.271,41.3425],[36.212,41.3965],[36.1935,41.4135],[36.124,41.537],[36.052,41.6825],[35.978,41.705],[35.9335,41.7115],[35.92,41.7135],[35.8455,41.6975],[35.8215,41.692],[35.558,41.634],[35.209,41.7945],[35.19,41.816],[35.1705,41.8375],[35.149,41.8615],[35.155,42.0275],[35.0065,42.0635],[34.8995,42.019],[34.5365,41.9595],[34.498,41.96],[34.1935,41.9635],[34.193,41.9635],[33.945,41.98],[33.579,42.0045],[33.5435,42.007],[33.3815,42.0175],[33.285,42.0045],[32.989,41.906],[32.9705,41.8995],[32.8505,41.8715],[32.83,41.867],[32.81,41.863],[32.579,41.814],[32.5755,41.8135],[32.542,41.8065],[32.452,41.777],[32.386,41.7555],[32.3785,41.753],[32.083,41.5875],[32.028,41.564],[31.6075,41.384],[31.458,41.32],[31.259,41.11],[31.255,41.1075],[31.2505,41.1075],[30.7255,41.1055],[30.5115,41.157],[30.345,41.197],[29.9195,41.151],[29.3225,41.2275],[29.0945,41.177],[29.0615,41.077],[29.0455,41.0075],[29.082,40.9635],[29.1135,40.938],[29.114,40.938],[29.1575,40.9105],[29.3645,40.8095],[29.601,40.7825],[29.8005,40.76],[29.843,40.76],[29.5415,40.7115],[29.5075,40.7085],[29.4065,40.695],[29.3515,40.688],[29.083,40.653],[29.054,40.649],[28.958,40.6305],[28.9545,40.6285],[28.885,40.589],[28.788,40.534],[28.82,40.5155],[28.895,40.4825],[28.974,40.4675],[28.8675,40.3905],[28.8545,40.3905],[28.289,40.403],[28.045,40.3785],[27.9615,40.4305],[27.9645,40.4355],[27.732,40.4815],[27.314,40.415],[27.2845,40.4555],[27.241,40.4545],[27.1565,40.453],[27.1215,40.4525],[26.738,40.4],[26.5795,40.2775],[26.539,40.2465],[26.4755,40.1975],[26.3935,40.11],[26.376,40.0915],[26.3655,40.0805],[26.2275,40.002],[26.1815,39.99],[26.178,39.977],[26.15,39.873],[26.1505,39.8365],[26.1515,39.809],[26.153,39.725],[26.1275,39.6115],[26.1015,39.569],[26.113,39.4675],[26.2575,39.4775],[26.343,39.4835],[26.351,39.484],[26.8245,39.5625],[26.827,39.563],[26.865,39.471],[26.8585,39.4645],[26.8135,39.419],[26.7105,39.3395],[26.682,39.292],[26.713,39.266],[26.7215,39.258],[26.755,39.2225],[26.8495,39.0565],[26.8145,39.0205],[26.809,39.01],[26.815,38.961],[26.866,38.923],[26.912,38.9325],[26.981,38.8525],[26.964,38.8345],[26.943,38.812],[26.921,38.788],[26.8295,38.749],[26.79,38.736],[26.7955,38.6265],[26.8125,38.599],[26.838,38.5575],[26.9705,38.448],[26.976,38.448],[26.8715,38.3745],[26.8615,38.373],[26.8575,38.3735],[26.7275,38.4185],[26.6965,38.4055],[26.677,38.345],[26.65,38.348],[26.6415,38.3525],[26.595,38.4185],[26.595,38.419],[26.5995,38.439],[26.6035,38.4555],[26.6105,38.487],[26.3725,38.562],[26.4185,38.4645],[26.323,38.3335],[26.2905,38.277],[26.333,38.2425],[26.4795,38.1865],[26.498,38.1765],[26.5155,38.167],[26.5245,38.1625],[26.621,38.1765],[26.8785,38.055],[26.892,38.0565],[27.1585,37.987],[27.201,37.982],[27.082,37.689],[27.078,37.6875],[27.068,37.658],[27.0915,37.642],[27.185,37.53],[27.204,37.4915],[27.2065,37.4745],[27.217,37.404],[27.219,37.389],[27.2865,37.3505],[27.52,37.249],[27.5225,37.234],[27.5295,37.1945],[27.5315,37.1845],[27.404,37.1315],[27.368,37.1225],[27.3215,37.1255],[27.294,37.121],[27.2885,37.116],[27.26,37.089],[27.2495,37.079],[27.311,36.982],[27.331,37.002],[27.6685,37.0075],[28.065,37.026],[28.1085,37.0285],[28.208,36.9875],[28.2,36.983],[28.083,36.9205],[28.05,36.8825],[27.9035,36.807],[27.795,36.799],[27.631,36.7865],[27.5545,36.759],[27.5405,36.684],[27.5455,36.684],[27.556,36.683],[27.5785,36.681],[27.656,36.6745],[27.917,36.7425],[27.92,36.7425],[28.084,36.7515],[28.087,36.643],[28.1115,36.6465],[28.1995,36.691],[28.26,36.761],[28.289,36.795],[28.3035,36.812],[28.31,36.8115],[28.3255,36.811],[28.4045,36.8075],[28.612,36.7475],[28.7075,36.7055],[28.764,36.689],[28.817,36.6755],[29.0655,36.59],[29.092,36.5535],[29.1435,36.397],[29.2175,36.33],[29.2485,36.3115],[29.3485,36.259],[29.4225,36.2365],[29.425,36.236],[29.5135,36.2095],[29.52,36.2075],[29.689,36.1565],[29.7895,36.168],[29.8295,36.1795],[29.8305,36.1795],[30.083,36.2495],[30.446,36.27],[30.484,36.3135],[30.485,36.3205],[30.553,36.518],[30.5585,36.526],[30.5715,36.6745],[30.573,36.6915],[30.7405,36.8605],[30.851,36.854],[31.3525,36.801],[31.697,36.6485],[31.7065,36.6445],[31.761,36.6205],[31.778,36.613],[31.8415,36.5925],[31.8975,36.575],[31.9385,36.562],[32.1305,36.449],[32.284,36.268],[32.534,36.1005],[32.5855,36.088],[32.795,36.036],[32.988,36.098],[33.0995,36.103],[33.112,36.105],[33.308,36.1335],[33.3085,36.1335],[33.6945,36.182],[33.934,36.286],[33.955,36.295],[34.0235,36.341],[34.1885,36.4985],[34.193,36.5025],[34.399,36.6635],[34.4855,36.715],[34.5175,36.7345],[34.54,36.7475],[34.6135,36.7885],[34.666,36.805],[34.873,36.765],[34.9375,36.729],[35.176,36.635],[35.393,36.575],[35.5375,36.597],[35.6255,36.653],[35.756,36.7685],[35.8015,36.778],[35.9045,36.8475],[36.0375,36.9055],[36.049,36.9105],[36.053,36.908],[36.1885,36.659],[35.883,36.4065],[35.811,36.31],[35.957,35.998],[35.7645,35.5715],[35.943,35.224],[35.8995,34.852],[35.978,34.5475],[35.648,34.248],[35.612,34.032],[35.2515,33.3925],[34.922,32.614],[34.804,32.1965],[34.746,32.0575],[34.484,31.5925],[34.2695,31.362],[34.349,31.317],[34.7185,30.2505],[34.8685,29.901],[34.8985,29.5785],[34.9235,29.499],[34.9745,29.547],[34.982,29.4845],[34.78,28.5075],[34.616,28.1485],[34.722,28.1305],[35.1805,28.035],[35.424,27.734],[35.8515,27.0705],[35.977,26.9385],[36.2495,26.595],[36.536,26.0975],[36.675,26.039],[36.7625,25.7515],[36.9205,25.641],[37.149,25.291],[37.2205,24.8735],[37.181,24.82],[37.543,24.2915],[37.7135,24.2745],[38.289,23.911],[38.464,23.712],[38.876,22.948],[38.941,22.882],[38.954,22.797],[39.0075,22.77],[39.07,22.2935],[39.021,22.0335],[38.988,21.8815],[39.1505,21.433],[39.1125,21.3515],[39.348,20.8945],[39.491,20.737],[39.6135,20.5175],[39.884,20.293],[39.926,20.287],[40.0805,20.266],[40.4725,20],[41.26,20],[41.3145,20],[42.815,20],[45.989,20],[55.498,20],[57.7625,20],[57.856,20.2025],[57.862,20.244],[58.103,20.5705],[58.209,20.424],[58.235,20.411],[58.474,20.407],[58.642,20.7135],[58.6905,20.807],[59.069,21.289],[59.121,21.3215],[59.3715,21.499],[59.6775,22.042],[59.681,22.054],[59.7515,22.152],[59.823,22.509],[59.535,22.5785],[59.3065,22.8005],[59.2805,22.8405],[59.03,23.1305],[58.773,23.517],[58.7305,23.545],[58.393,23.618],[58.3245,23.624],[57.825,23.759],[57.698,23.7855],[57.22,23.923],[56.9315,24.135],[56.9125,24.15],[56.49,24.7165],[56.474,24.757],[56.373,25.0185],[56.3635,25.5695],[56.301,25.6465],[56.298,25.6505],[56.307,25.7095],[56.3295,25.752],[56.3735,25.8045],[56.4165,26.1085],[56.418,26.208],[56.4245,26.2755],[56.4265,26.294],[56.43,26.327],[56.3465,26.3135],[56.2285,26.22],[56.215,26.224],[56.1645,26.207],[55.941,25.794],[55.523,25.498],[55.098,25.0415],[55.0445,25.006],[54.747,24.8105],[54.612,24.605],[54.5805,24.5635],[54.397,24.278],[54.148,24.171],[53.8935,24.077],[53.802,24.0695],[53.7685,24.0715],[53.0265,24.1475],[52.5115,24.1125],[52.251,23.995],[51.906,23.9855],[51.7915,24.075],[51.5685,24.286],[51.31,24.3405],[51.587,24.965],[51.4855,25.5245],[51.5725,25.781],[51.389,26.011],[51.259,26.1515],[51.108,26.0805],[51.0475,26.0235],[50.763,25.4445],[50.8335,24.944],[50.847,24.8885],[50.8045,24.7895],[50.7275,24.8675],[50.558,25.0865],[50.455,25.425],[50.2815,25.566],[50.1205,25.87],[50.095,25.9285],[50.081,25.9615],[50.096,26.1185],[50.1095,26.1125],[50.1355,26.1005],[50.141,26.1005],[50.1555,26.4255],[50.136,26.4385],[50.1105,26.456],[50.0265,26.699],[49.986,26.829],[49.882,26.878],[49.7165,26.956],[49.4055,27.181],[49.282,27.31],[49.175,27.4375],[48.9065,27.629],[48.807,27.7655],[48.4345,28.556],[48.3895,28.6315],[48.184,28.9795],[48.0515,29.3555],[47.8455,29.3655],[47.8175,29.4875],[47.873,29.5345],[48.136,29.618],[47.9825,30.0115],[48.454,29.9385],[48.919,30.121],[48.917,30.3975],[49.555,30.029],[49.983,30.2095],[50.169,29.921],[50.6495,29.42],[50.675,29.1465],[50.876,29.0625],[50.867,28.87],[51.062,28.726],[51.279,28.1315],[51.6665,27.845],[52.031,27.8245],[52.476,27.6165],[52.6915,27.3235],[52.9825,27.142],[53.455,26.9435],[53.706,26.7255],[54.247,26.6965],[54.645,26.509],[54.896,26.5565],[55.6505,26.9775],[56.356,27.2],[56.813,27.09],[56.982,26.9055],[57.1045,26.3715],[57.3345,25.7915],[58.4295,25.587],[58.531,25.5925],[59.046,25.4175],[59.456,25.4815],[59.616,25.4035],[60.0245,25.384],[61.1085,25.184],[61.1805,25.1615],[61.47,25.1405],[61.4905,25.1535],[62.3155,25.135],[62.5725,25.2545],[63.2855,25.2275],[63.3175,25.225],[63.4955,25.2975],[63.721,25.386],[64.125,25.374],[64.1405,25.3505],[64.659,25.184],[65,25.3105],[65,25.405]]],[[[33.9315,35.1405],[34.069,35.3655],[34.0935,35.38],[34.382,35.5465],[34.4105,35.563],[34.556,35.662],[34.411,35.6295],[34.1925,35.5455],[34.1475,35.5205],[34.0635,35.474],[33.7705,35.397],[33.697,35.3775],[33.2795,35.344],[33.2425,35.3475],[32.963,35.3865],[32.9415,35.3905],[32.792,35.1635],[32.7725,35.1595],[32.556,35.156],[32.318,35.0765],[32.301,35.083],[32.317,34.9535],[32.371,34.856],[32.3995,34.8045],[32.414,34.778],[32.449,34.7295],[32.502,34.7075],[32.693,34.6495],[32.725,34.6485],[32.941,34.5775],[32.942,34.576],[33.008,34.5695],[33.009,34.572],[33.207,34.703],[33.289,34.7165],[33.3115,34.722],[33.3985,34.746],[33.4385,34.764],[33.5145,34.8065],[33.8225,34.966],[34.05,34.9885],[34.0045,35.065],[33.9885,35.0815],[33.965,35.106],[33.9315,35.1405]]],[[[52.6595,45.518],[52.6125,45.5275],[52.5545,45.4735],[52.5985,45.428],[52.6595,45.518]]],[[[54.4655,24.443],[54.4495,24.4545],[54.42,24.427],[54.4285,24.425],[54.4655,24.443]]],[[[36.9245,25.4255],[36.8875,25.4535],[36.9155,25.391],[36.955,25.4145],[36.9245,25.4255]]],[[[27.0215,37.7125],[27.0135,37.7045],[27.0485,37.736],[27.0215,37.7125]]],[[[26.393,40.2025],[26.3805,40.174],[26.4155,40.209],[26.393,40.2025]]]]},"properties":{"name":"ASIA","scalerank":0,"featurecla":"Continent","region":"Asia"}},
{"type":"Feature","geometry":{"type":"MultiPolygon","coordinates":[[[[22.6885,58.597],[22.6785,58.6005],[22.547,58.6275],[22.328,58.581],[22.225,58.517],[22.2055,58.5215],[22.1685,58.516],[22.0025,58.51],[22.002,58.5105],[21.9245,58.5145],[21.8625,58.497],[21.8765,58.4845],[21.9685,58.356],[21.965,58.349],[21.9565,58.342],[21.9245,58.316],[21.9015,58.308],[21.8545,58.3015],[21.882,58.2625],[21.932,58.2465],[22.0345,58.2135],[22.0995,58.1745],[22.111,58.085],[22.05,58.0415],[21.983,57.9845],[21.979,57.968],[21.9915,57.9405],[21.9945,57.9355],[22.0765,57.936],[22.1505,57.966],[22.1525,57.967],[22.1985,58.019],[22.22,58.0435],[22.2275,58.052],[22.2695,58.1605],[22.271,58.1615],[22.417,58.224],[22.427,58.2255],[22.4985,58.236],[22.7305,58.2305],[22.745,58.2475],[22.787,58.2725],[22.8505,58.2975],[22.885,58.3115],[23.0115,58.3685],[23.0355,58.3725],[23.0825,58.3985],[23.0845,58.4],[23.227,58.4435],[23.2715,58.447],[23.308,58.4495],[23.323,58.451],[23.293,58.4835],[22.9645,58.6055],[22.863,58.617],[22.821,58.6215],[22.82,58.6215],[22.6885,58.597]]],[[[18.805,57.833],[18.784,57.841],[18.722,57.8635],[18.6145,57.8445],[18.5375,57.8305],[18.1365,57.5565],[18.105,57.272],[18.167,57.2065],[18.1775,57.188],[18.2415,57.112],[18.2765,57.089],[18.2855,57.083],[18.281,57.079],[18.2065,57.01],[18.2045,57.007],[18.167,56.951],[18.1465,56.9205],[18.249,56.9315],[18.32,56.968],[18.3425,56.983],[18.3475,56.9955],[18.352,57.005],[18.355,57.013],[18.5385,57.197],[18.5645,57.2045],[18.6415,57.226],[18.7,57.2425],[18.712,57.265],[18.8325,57.3815],[18.8435,57.3865],[18.844,57.3865],[18.871,57.3915],[18.908,57.3985],[18.8025,57.5955],[18.804,57.6095],[18.8645,57.7245],[18.878,57.7295],[18.934,57.7395],[19.0365,57.8245],[19.0765,57.836],[18.9565,57.9],[18.9005,57.9155],[18.8445,57.901],[18.819,57.8585],[18.805,57.833]]],[[[12.526,56.0835],[12.453,56.1],[12.3685,56.115],[12.323,56.122],[12.219,56.1185],[11.961,56.014],[11.8665,55.968],[11.9155,55.9325],[11.9345,55.896],[11.933,55.887],[11.8855,55.808],[11.8585,55.772],[11.7875,55.701],[11.7835,55.7015],[11.6875,55.7705],[11.686,55.7875],[11.682,55.8295],[11.691,55.8805],[11.68,55.9195],[11.6535,55.9385],[11.4745,55.9435],[11.409,55.83],[11.373,55.798],[11.3115,55.749],[11.2755,55.7365],[11.1985,55.7325],[11.182,55.7335],[11.123,55.7365],[11.087,55.7385],[11.017,55.7315],[10.979,55.7215],[10.9865,55.7015],[11.0005,55.6655],[11.007,55.6495],[11.128,55.535],[11.148,55.5125],[11.179,55.387],[11.174,55.353],[11.1705,55.3285],[11.2425,55.2515],[11.244,55.25],[11.2865,55.2045],[11.3105,55.198],[11.313,55.1985],[11.476,55.2115],[11.654,55.187],[11.6545,55.185],[12.0655,55.07],[12.0815,55.1475],[12.0835,55.156],[12.0865,55.1715],[12.09,55.188],[12.125,55.1955],[12.347,55.2505],[12.413,55.286],[12.385,55.3855],[12.4335,55.6215],[12.5065,55.6365],[12.508,55.637],[12.545,55.656],[12.569,55.785],[12.598,56.0215],[12.6085,56.033],[12.5785,56.064],[12.5295,56.082],[12.526,56.0835]]],[[[47.574,45.6345],[47.6215,45.594],[47.65,45.6565],[47.701,45.686],[48.159,45.737],[48.2575,45.778],[48.487,45.935],[48.589,45.935],[48.7035,45.976],[48.81,46.1005],[48.9505,46.1465],[49.2055,46.3855],[49.344,46.4855],[49.7605,46.5715],[50.298,46.791],[50.3065,46.795],[51.178,47.11],[51.65,47.018],[51.6705,46.9995],[51.7715,46.9635],[51.776,46.982],[51.937,47.1815],[51.8715,47.417],[51.6075,47.634],[51.6695,47.966],[51.598,48.438],[51.587,48.44],[51.5725,48.453],[51.5735,48.456],[51.8175,48.643],[51.9575,49.1775],[51.8575,49.306],[51.3255,49.9275],[51.1025,50.274],[51.1265,50.632],[51.44,51.1755],[51.954,51.3965],[52.369,51.3945],[52.462,51.3745],[52.5015,51.391],[52.8015,51.498],[53.4305,51.5695],[53.6705,51.566],[53.778,51.566],[54.1155,51.6455],[54.6795,51.759],[55.3925,51.756],[55.7375,51.678],[55.961,51.625],[56.4805,51.4195],[56.822,51.3715],[56.8815,51.363],[57.0715,51.3365],[57.1045,51.3315],[57.1295,51.3205],[57.309,51.242],[57.333,51.2315],[57.7955,51.1245],[58.2445,51.132],[58.3575,51.1715],[58.4435,51.2015],[58.6465,51.235],[58.7405,51.3085],[58.76,51.443],[58.6335,51.593],[58.628,51.6535],[58.6295,51.6805],[58.6315,51.6985],[58.6685,51.789],[58.915,52.2865],[59.0315,52.521],[58.92,52.787],[58.891,52.855],[58.8935,52.884],[58.896,52.908],[58.8975,52.9255],[59.009,53.139],[59.024,53.1545],[59.0845,53.3215],[59.036,53.3695],[59.0175,53.511],[59.1525,53.76],[59.1425,53.79],[59.1375,53.805],[59.1355,53.813],[59.1455,53.839],[59.1715,53.857],[59.194,53.8995],[59.147,53.9215],[59.128,53.977],[59.0785,54.0435],[59.114,54.13],[59.137,54.171],[59.1505,54.1955],[59.157,54.199],[59.1515,54.2495],[59.1365,54.2665],[59.1565,54.3],[59.224,54.34],[59.269,54.3765],[59.293,54.396],[59.3075,54.4075],[59.331,54.515],[59.354,54.621],[59.3635,54.664],[59.225,55.0325],[59.178,56.3005],[58.9755,57.7075],[58.943,58.437],[58.8015,60],[57.7515,60],[53.807,60],[49.8585,60],[47.1435,60],[31.6615,60],[31.2165,60],[30.1145,59.9805],[30.1725,59.957],[30.1615,59.92],[29.6695,59.9555],[29.0405,59.926],[29.0135,59.9015],[28.7475,59.8065],[28.6915,59.811],[28.0395,59.521],[28.0125,59.4845],[27.8925,59.414],[27.834,59.418],[27.499,59.44],[27.495,59.44],[27.336,59.4505],[25.6155,59.6275],[25.5595,59.6335],[25.5075,59.598],[24.5835,59.4555],[24.5425,59.459],[24.2095,59.392],[24.1755,59.376],[24.1215,59.3745],[24.0835,59.292],[23.7825,59.275],[23.6745,59.25],[23.517,59.1075],[23.472,59.0295],[23.515,58.999],[23.4895,58.9605],[23.497,58.8195],[23.5305,58.7165],[23.6915,58.5055],[24.115,58.266],[24.529,58.354],[24.3015,57.784],[24.363,57.6455],[24.403,57.325],[24.3825,57.25],[24.3605,57.233],[24.002,57.0415],[23.931,57.0085],[23.2875,57.0895],[23.038,57.392],[22.743,57.546],[22.5545,57.7245],[21.715,57.5585],[21.459,57.3225],[21.2575,56.933],[21.1255,56.8555],[21.0315,56.6365],[21.03,56.1665],[21.038,56.1185],[21.046,56.07],[21.054,56.023],[21.059,55.894],[21.0665,55.8055],[21.171,55.6175],[21.189,54.935],[20.3965,54.9515],[19.9465,54.773],[19.944,54.75],[19.407,54.386],[19.0755,54.3575],[18.587,54.513],[18.404,54.812],[18.3235,54.838],[17.262,54.7295],[16.8855,54.5965],[16.3755,54.437],[16.1865,54.2905],[14.7155,54.0185],[14.4875,53.672],[13.8655,53.8535],[13.724,54.153],[13.448,54.141],[13.0285,54.411],[12.5755,54.4675],[12.1115,54.1685],[11.7965,54.1455],[11.3995,53.9445],[11.0085,54.181],[10.3585,54.438],[10.2125,54.409],[9.9415,54.5145],[10.029,54.5815],[9.9975,54.6975],[9.954,54.7385],[9.8935,54.78],[9.737,54.8345],[9.7205,54.8835],[9.715,54.8995],[9.7055,54.9285],[9.688,55],[9.67,55.0095],[9.6345,55.0255],[9.5725,55.0405],[9.552,55.0405],[9.459,55.0475],[9.505,55.1165],[9.5105,55.12],[9.6435,55.2045],[9.671,55.2665],[9.658,55.299],[9.645,55.332],[9.64,55.3435],[9.639,55.3485],[9.6165,55.435],[9.591,55.493],[9.594,55.4955],[9.6615,55.5575],[9.773,55.608],[9.899,55.7075],[9.999,55.7355],[9.962,55.813],[9.9215,55.834],[10.1285,55.866],[10.1595,55.854],[10.183,55.865],[10.1855,55.8735],[10.2265,56.0055],[10.238,56.0315],[10.2625,56.0865],[10.475,56.2435],[10.539,56.2005],[10.582,56.2015],[10.688,56.222],[10.7535,56.242],[10.846,56.5215],[10.49,56.5205],[10.2825,56.6205],[10.296,56.999],[10.3385,57.0215],[10.477,57.205],[10.524,57.243],[10.52,57.33],[10.5245,57.4035],[10.537,57.4485],[10.535,57.451],[10.504,57.489],[10.61,57.737],[10.5335,57.7355],[10.259,57.617],[9.9625,57.581],[9.8995,57.537],[9.8795,57.523],[9.815,57.4785],[9.5545,57.2325],[9.5525,57.2315],[9.4355,57.1755],[9.4335,57.1745],[9.432,57.174],[9.3005,57.147],[9.299,57.1465],[9.2965,57.1465],[9.0365,57.1555],[8.952,57.1505],[8.949,57.1495],[8.6185,57.1115],[8.2665,56.8155],[8.2675,56.775],[8.3465,56.712],[8.408,56.688],[8.4185,56.684],[8.4685,56.6645],[8.507,56.6775],[8.772,56.7255],[8.8785,56.89],[8.8995,56.913],[9.1105,57.0435],[9.255,57.0115],[9.253,57.004],[9.2455,56.9705],[9.2095,56.8085],[9.2045,56.7655],[9.197,56.7075],[9.1965,56.7015],[9.158,56.735],[9.149,56.743],[9.129,56.757],[9.067,56.794],[8.888,56.735],[8.8475,56.706],[8.736,56.6275],[8.596,56.5245],[8.553,56.5605],[8.399,56.5855],[8.3965,56.586],[8.242,56.618],[8.2315,56.618],[8.164,56.607],[8.13,56.3215],[8.1215,56.14],[8.1405,56.103],[8.18,55.8935],[8.1695,55.828],[8.137,55.631],[8.132,55.6],[8.2405,55.5545],[8.392,55.4945],[8.4555,55.4725],[8.654,55.2995],[8.6555,55.287],[8.6165,55.144],[8.608,55.142],[8.6615,54.986],[8.662,54.981],[8.667,54.9335],[8.6825,54.792],[8.7895,54.696],[8.8625,54.615],[8.869,54.6075],[8.881,54.594],[8.648,54.3975],[8.633,54.3685],[8.645,54.295],[8.7805,54.313],[8.846,54.3005],[8.898,53.8355],[8.619,53.875],[8.5385,53.557],[8.0095,53.6905],[7.3135,53.6825],[7.262,53.6735],[7.0535,53.376],[6.816,53.441],[5.8735,53.375],[5.5325,53.269],[5.5305,53.2675],[5.446,53.214],[5.3585,53.0965],[4.839,52.9285],[4.8085,52.934],[4.7125,52.872],[4.483,52.309],[3.587,51.454],[2.4455,51.0665],[1.9125,50.9905],[1.5795,50.7395],[1.5515,50.294],[1.407,50.0885],[1.0125,49.9345],[0.924,49.91],[0.68,49.8725],[0.616,49.863],[0.578,49.849],[0.309,49.7485],[0.187,49.703],[0.1865,49.703],[0.1265,49.6015],[0.1295,49.5085],[0.176,49.4945],[0.2775,49.4635],[0.417,49.4485],[0.1785,49.4085],[-0.011,49.33],[-0.1635,49.297],[-0.203,49.303],[-0.521,49.3545],[-0.7655,49.3595],[-1.2325,49.495],[-1.2585,49.68],[-1.588,49.6675],[-1.753,49.682],[-1.8565,49.684],[-1.7705,49.4285],[-1.6905,49.313],[-1.583,49.2025],[-1.5655,48.8055],[-1.3765,48.6525],[-1.4215,48.6445],[-1.424,48.644],[-1.4375,48.6415],[-1.4985,48.6395],[-1.8245,48.6305],[-2.0795,48.645],[-2.2745,48.647],[-2.446,48.6485],[-2.488,48.6295],[-2.647,48.5575],[-2.6925,48.537],[-2.793,48.601],[-2.8375,48.6415],[-3.003,48.7905],[-3.546,48.7655],[-3.6755,48.7235],[-3.8555,48.6945],[-4.531,48.62],[-4.7485,48.41],[-4.4345,48.218],[-4.406,48.205],[-4.5125,48.0965],[-4.679,48.0395],[-4.428,47.969],[-4.2265,47.8095],[-4.1365,47.8315],[-3.508,47.753],[-3.4515,47.716],[-3.396,47.7205],[-2.666,47.526],[-2.6465,47.5265],[-2.518,47.519],[-2.4825,47.5115],[-2.4765,47.413],[-2.5185,47.3885],[-2.5235,47.365],[-2.503,47.312],[-2.197,47.163],[-2.082,47.1115],[-2.0595,46.8105],[-1.7865,46.515],[-1.1465,46.3115],[-1.066,45.8055],[-1.189,45.1615],[-1.2455,44.56],[-1.485,43.564],[-1.6315,43.438],[-2.1965,43.322],[-2.2815,43.3255],[-2.315,43.327],[-2.337,43.328],[-2.4635,43.3675],[-2.607,43.4125],[-2.7045,43.428],[-2.875,43.4545],[-2.94,43.441],[-2.96,43.4315],[-3.025,43.386],[-3.2015,43.405],[-3.2485,43.4155],[-3.442,43.465],[-3.4845,43.489],[-3.527,43.5115],[-3.6045,43.5195],[-3.736,43.487],[-3.7535,43.483],[-3.8865,43.499],[-3.8895,43.4995],[-4.0005,43.4675],[-4.0155,43.463],[-4.0505,43.4575],[-4.1635,43.439],[-4.3105,43.415],[-4.313,43.4145],[-4.369,43.415],[-4.523,43.4155],[-4.605,43.428],[-4.8025,43.457],[-4.9655,43.481],[-5.04,43.492],[-5.046,43.493],[-5.064,43.4955],[-5.1055,43.502],[-5.3155,43.553],[-5.7215,43.6015],[-5.8465,43.645],[-5.9125,43.631],[-6.1995,43.6025],[-6.224,43.604],[-6.272,43.599],[-6.433,43.583],[-6.4385,43.5825],[-6.6175,43.5925],[-6.9005,43.5855],[-7.006,43.565],[-7.061,43.554],[-7.2615,43.5945],[-7.262,43.5945],[-7.283,43.61],[-7.334,43.6475],[-7.3995,43.696],[-7.5035,43.74],[-7.569,43.731],[-7.629,43.7395],[-7.673,43.7555],[-7.698,43.7645],[-7.823,43.718],[-7.8525,43.707],[-7.864,43.706],[-7.8795,43.705],[-8.0045,43.6945],[-8.137,43.629],[-8.289,43.5395],[-8.2585,43.504],[-8.252,43.4955],[-8.252,43.4935],[-8.249,43.4395],[-8.309,43.4155],[-8.3395,43.403],[-8.3865,43.3915],[-8.4215,43.386],[-8.8735,43.3345],[-9.178,43.174],[-9.19,43.1455],[-9.2035,43.1125],[-9.2355,43.036],[-9.235,42.977],[-9.127,42.865],[-9.0415,42.814],[-8.953,42.802],[-8.937,42.7665],[-8.988,42.5855],[-8.9315,42.603],[-8.8715,42.6215],[-8.864,42.624],[-8.8025,42.59],[-8.81,42.5625],[-8.776,42.435],[-8.74,42.4165],[-8.81,42.3345],[-8.729,42.287],[-8.727,42.2865],[-8.7725,42.2105],[-8.8355,42.153],[-8.863,42.1275],[-8.887,42.1055],[-8.777,41.941],[-8.783,41.9345],[-8.8305,41.8835],[-8.878,41.832],[-8.8465,41.705],[-8.7935,41.701],[-8.811,41.652],[-8.798,41.5285],[-8.7515,41.339],[-8.7385,41.2845],[-8.677,41.159],[-8.6665,41.118],[-8.66,41.0865],[-8.656,41.035],[-8.674,40.9165],[-8.6805,40.8195],[-8.7725,40.6055],[-8.869,40.271],[-8.8725,40.259],[-8.8865,40.1795],[-8.8555,40.155],[-8.8425,40.128],[-8.838,40.1155],[-9.004,39.8205],[-9.1945,39.49],[-9.2355,39.4445],[-9.247,39.431],[-9.2515,39.426],[-9.3195,39.391],[-9.3715,39.3415],[-9.353,39.249],[-9.353,39.248],[-9.353,39.2475],[-9.3935,39.1585],[-9.4145,39.112],[-9.427,38.9985],[-9.431,38.963],[-9.4315,38.9605],[-9.432,38.9595],[-9.464,38.8795],[-9.475,38.853],[-9.136,38.743],[-9.1115,38.793],[-9.0695,38.863],[-9.0395,38.903],[-8.9545,39.016],[-8.8895,39.0535],[-8.8675,39.066],[-8.805,39.076],[-8.938,38.998],[-9.0005,38.903],[-8.989,38.855],[-9.0105,38.761],[-9.0215,38.747],[-9.1565,38.69],[-9.178,38.688],[-9.2505,38.6565],[-9.211,38.469],[-9.2135,38.448],[-9.1865,38.438],[-9.1805,38.4395],[-9.0905,38.457],[-8.9975,38.486],[-8.8615,38.51],[-8.799,38.518],[-8.734,38.4825],[-8.8,38.438],[-8.814,38.4395],[-8.8755,37.9685],[-8.879,37.9585],[-8.813,37.8275],[-8.792,37.733],[-8.8185,37.5925],[-8.814,37.432],[-8.814,37.431],[-8.8145,37.43],[-8.832,37.389],[-8.883,37.2685],[-8.9735,37.078],[-8.994,37.0395],[-8.996,37.032],[-8.9355,37.016],[-8.8485,37.0755],[-8.7725,37.075],[-8.484,37.1],[-8.4595,37.0985],[-7.982,37.021],[-7.9535,37.0105],[-7.834,37.0055],[-7.7215,37.0595],[-7.406,37.1795],[-7.3845,37.182],[-7.3825,37.1825],[-7.175,37.209],[-7.134,37.2065],[-7.0135,37.2005],[-6.9745,37.1985],[-6.9465,37.2085],[-6.864,37.279],[-6.8845,37.194],[-6.5515,36.9905],[-6.4405,36.888],[-6.396,36.8315],[-6.352,36.8765],[-6.2425,36.9045],[-6.2595,36.899],[-6.3285,36.848],[-6.3385,36.834],[-6.4125,36.729],[-6.384,36.637],[-6.3365,36.6205],[-6.178,36.3465],[-6.1705,36.334],[-6.0935,36.248],[-6.0545,36.2035],[-6.0405,36.1885],[-6.004,36.1855],[-5.8085,36.0885],[-5.7355,36.0635],[-5.6485,36.034],[-5.6255,36.026],[-5.4625,36.074],[-5.3815,36.134],[-5.366,36.1345],[-5.3295,36.2355],[-5.29,36.291],[-5.2705,36.3185],[-5.2365,36.3655],[-5.2305,36.3735],[-5.23,36.374],[-5.0445,36.466],[-4.9505,36.497],[-4.674,36.5065],[-4.502,36.629],[-4.0015,36.744],[-3.9115,36.75],[-3.7975,36.754],[-3.674,36.746],[-3.598,36.741],[-3.579,36.74],[-3.432,36.708],[-3.4075,36.7145],[-3.3745,36.7235],[-3.158,36.7585],[-3.149,36.7585],[-2.8915,36.7405],[-2.7875,36.7145],[-2.6705,36.7475],[-2.453,36.831],[-2.258,36.79],[-2.1875,36.7455],[-2.1115,36.7765],[-1.9515,36.934],[-1.9395,36.946],[-1.608,37.4055],[-1.5115,37.459],[-1.1785,37.565],[-1.1165,37.5665],[-0.956,37.571],[-0.938,37.5715],[-0.887,37.5755],[-0.8615,37.5775],[-0.8305,37.58],[-0.7215,37.631],[-0.7795,37.8155],[-0.7725,37.825],[-0.683,37.992],[-0.669,38.0535],[-0.558,38.1995],[-0.5505,38.203],[-0.496,38.3385],[-0.4885,38.345],[-0.4675,38.3625],[-0.41,38.4115],[-0.171,38.5315],[-0.131,38.55],[0.0465,38.644],[0.067,38.656],[0.1195,38.687],[0.1365,38.697],[0.167,38.726],[0.2015,38.759],[0.1735,38.7985],[0.155,38.8245],[0.045,38.8635],[-0.133,38.969],[-0.134,38.9695],[-0.167,39.0125],[-0.205,39.0625],[-0.329,39.417],[-0.2135,39.6805],[-0.2085,39.6875],[-0.075,39.876],[0.021,39.988],[0.096,40.0565],[0.1585,40.1065],[0.177,40.1255],[0.3135,40.267],[0.3635,40.319],[0.488,40.4775],[0.5145,40.5105],[0.732,40.635],[0.748,40.6415],[0.881,40.711],[0.891,40.7225],[0.851,40.757],[0.7145,40.823],[0.7375,40.8385],[1.1115,41.078],[1.206,41.0975],[1.2095,41.0985],[2.0825,41.2875],[2.1455,41.321],[2.1995,41.3685],[2.3515,41.484],[2.386,41.499],[2.563,41.5755],[2.857,41.7035],[2.8995,41.7215],[3.005,41.7675],[3.248,41.944],[3.219,42.114],[3.18,42.1335],[3.175,42.136],[3.1695,42.142],[3.1505,42.1625],[3.1585,42.211],[3.3065,42.289],[3.091,42.591],[3.052,42.915],[3.259,43.193],[4.0525,43.593],[4.6285,43.387],[5.06,43.4445],[5.4065,43.2285],[5.8095,43.098],[6.1465,43.083],[6.3055,43.1385],[6.7165,43.3735],[7.4015,43.739],[7.493,43.767],[7.7335,43.8025],[7.965,43.866],[8.2925,44.1365],[8.5295,44.328],[8.552,44.346],[8.566,44.351],[8.691,44.3955],[8.766,44.4225],[8.9305,44.408],[8.971,44.395],[9.233,44.3215],[9.2895,44.319],[10.0475,44.02],[10.246,43.852],[10.3205,43.513],[10.7085,42.9365],[11.168,42.535],[11.6375,42.2875],[12.631,41.4695],[13.0885,41.244],[13.7335,41.2355],[14.1025,40.827],[14.4595,40.6325],[14.7655,40.6685],[14.986,40.3775],[14.951,40.239],[15.7235,39.938],[15.7635,39.87],[16.0235,39.3535],[16.197,38.759],[15.9725,38.7125],[15.8225,38.303],[15.643,38.1755],[15.7245,37.939],[16.057,37.942],[16.2825,38.2495],[16.5455,38.409],[16.559,38.715],[16.7555,38.8895],[17.1745,38.998],[17.1145,39.3805],[16.598,39.639],[16.53,39.8595],[16.6695,40.137],[16.7035,40.184],[16.928,40.458],[17.2155,40.4865],[17.476,40.315],[17.865,40.28],[18.078,39.937],[18.344,39.8215],[18.486,40.105],[18.328,40.371],[17.955,40.655],[17.474,40.8405],[17.1035,41.062],[16.0125,41.4355],[15.914,41.621],[16.1515,41.7585],[15.964,41.9395],[15.169,41.934],[14.866,42.0525],[14.1825,42.5065],[14.0105,42.6895],[13.8045,43.1805],[13.564,43.5715],[12.691,43.9945],[12.3965,44.224],[12.2485,44.7225],[12.5235,44.968],[12.2255,45.2415],[12.2745,45.446],[13.0305,45.6375],[13.2065,45.7715],[13.7535,45.655],[13.758,45.651],[13.7835,45.627],[13.7735,45.621],[13.7625,45.6145],[13.759,45.612],[13.649,45.543],[13.6375,45.536],[13.517,45.482],[13.5785,45.303],[13.58,45.299],[13.6035,45.2315],[13.6135,45.1635],[13.6205,45.1395],[13.6245,45.1245],[13.6295,45.108],[13.7425,44.9915],[13.7475,44.985],[13.8605,44.8375],[13.8875,44.832],[13.9155,44.831],[13.966,44.8355],[13.9735,44.8445],[14.0275,44.91],[14.0905,44.9975],[14.2075,45.128],[14.2175,45.1385],[14.2365,45.161],[14.253,45.2235],[14.359,45.3405],[14.386,45.342],[14.425,45.3315],[14.5505,45.2975],[14.632,45.223],[14.755,45.1445],[14.897,44.9015],[14.8855,44.8185],[14.8905,44.7615],[14.8925,44.735],[14.895,44.7065],[14.9815,44.603],[15.009,44.582],[15.058,44.5445],[15.1425,44.4805],[15.2685,44.3845],[15.27,44.3835],[15.354,44.342],[15.368,44.335],[15.3815,44.3285],[15.471,44.272],[15.37,44.289],[15.3695,44.2895],[15.2905,44.289],[15.2495,44.2775],[15.2315,44.2715],[15.2065,44.272],[15.163,44.267],[15.127,44.258],[15.186,44.172],[15.6555,43.8115],[15.7645,43.7615],[15.8205,43.736],[15.949,43.607],[15.9455,43.5865],[15.9855,43.52],[16.131,43.5065],[16.441,43.5255],[16.4555,43.5195],[16.5975,43.465],[16.6005,43.464],[16.8095,43.4145],[16.899,43.3935],[16.903,43.3925],[16.9115,43.3855],[16.9815,43.33],[17.0415,43.2815],[17.0515,43.2735],[17.1295,43.211],[17.247,43.1545],[17.3305,43.1145],[17.41,43.056],[17.4285,43.042],[17.436,43.0365],[17.45,43.0265],[17.453,43.0245],[17.472,43.0105],[17.5375,42.9625],[17.6675,42.897],[17.6855,42.8825],[17.7235,42.8505],[17.4505,42.9455],[17.22,43.026],[17.0455,43.015],[17.258,42.9685],[17.2635,42.9665],[17.282,42.959],[17.385,42.9175],[17.442,42.8945],[17.5675,42.844],[17.585,42.837],[17.7755,42.8055],[17.824,42.7975],[18.1605,42.634],[18.333,42.528],[18.5175,42.433],[18.5195,42.4325],[18.547,42.4295],[18.5535,42.4285],[18.5915,42.444],[18.6335,42.423],[18.619,42.3985],[18.633,42.378],[18.653,42.368],[18.9005,42.2445],[18.951,42.2025],[19.022,42.1435],[19.025,42.141],[19.033,42.1345],[19.1225,42.0605],[19.1275,42.0515],[19.1865,41.9485],[19.3415,41.8695],[19.3425,41.869],[19.4035,41.863],[19.4685,41.856],[19.5775,41.77],[19.5765,41.713],[19.5765,41.6865],[19.576,41.6695],[19.52,41.5785],[19.4975,41.5625],[19.442,41.414],[19.4535,41.321],[19.456,41.3125],[19.466,41.161],[19.456,41.106],[19.3995,40.8195],[19.384,40.7905],[19.348,40.6925],[19.3375,40.664],[19.3445,40.622],[19.3805,40.565],[19.3865,40.5545],[19.406,40.524],[19.431,40.4835],[19.3585,40.4085],[19.3225,40.407],[19.341,40.378],[19.3525,40.36],[19.36,40.3475],[19.398,40.285],[19.7585,40.086],[19.7765,40.078],[19.7995,40.067],[19.834,40.0515],[19.9985,39.751],[19.9985,39.7505],[19.999,39.743],[20.0015,39.7095],[20.1675,39.5705],[20.1915,39.546],[20.1985,39.5315],[20.218,39.492],[20.2205,39.487],[20.2415,39.4455],[20.255,39.419],[20.292,39.3445],[20.3005,39.328],[20.3505,39.306],[20.3795,39.2935],[20.477,39.246],[20.552,39.168],[20.575,39.1455],[20.5925,39.134],[20.7075,39.044],[20.7135,39.035],[20.7435,39.023],[20.9085,39.034],[20.923,39.037],[20.98,39.0315],[21.034,39.0265],[21.0425,39.0275],[21.1455,38.973],[21.1525,38.922],[21.15,38.9205],[21.129,38.9075],[21.1115,38.8965],[21.0995,38.8925],[21.074,38.885],[21.0255,38.9],[20.978,38.915],[20.928,38.9305],[20.87,38.9385],[20.8405,38.935],[20.7775,38.928],[20.771,38.8905],[20.777,38.8075],[20.8895,38.759],[20.973,38.674],[20.998,38.6405],[21.003,38.63],[21.0235,38.584],[21.048,38.5295],[21.0895,38.437],[21.106,38.4],[21.122,38.3795],[21.1825,38.3455],[21.2675,38.3655],[21.283,38.369],[21.2985,38.373],[21.33,38.4245],[21.331,38.4875],[21.3515,38.477],[21.3555,38.475],[21.357,38.4715],[21.3575,38.471],[21.3605,38.465],[21.39,38.408],[21.399,38.399],[21.424,38.372],[21.426,38.3705],[21.4845,38.323],[21.567,38.3335],[21.857,38.382],[21.859,38.3825],[22.1265,38.3755],[22.213,38.356],[22.32,38.357],[22.382,38.384],[22.407,38.417],[22.408,38.4185],[22.5835,38.345],[22.7835,38.2615],[22.833,38.2355],[22.9325,38.202],[23.046,38.201],[23.09,38.197],[23.149,38.176],[23.1835,38.1335],[22.955,38.0745],[22.893,38.051],[22.9085,38.023],[22.7865,37.991],[22.7115,38.047],[22.548,38.115],[22.4695,38.134],[22.3625,38.16],[22.317,38.171],[22.151,38.231],[22.071,38.2675],[22.0405,38.2815],[21.9535,38.321],[21.8265,38.328],[21.8195,38.3245],[21.7485,38.274],[21.7325,38.2565],[21.4835,38.1915],[21.4635,38.1995],[21.349,38.1],[21.3315,38.0685],[21.1635,37.9315],[21.145,37.9195],[21.2055,37.829],[21.3295,37.6695],[21.3325,37.668],[21.679,37.387],[21.6925,37.3095],[21.6185,37.2385],[21.579,37.2005],[21.583,37.081],[21.738,36.863],[21.841,36.7795],[21.8925,36.7375],[21.9345,36.8035],[21.935,36.818],[22.1435,36.9445],[22.1645,36.903],[22.183,36.8975],[22.3065,36.789],[22.373,36.7055],[22.3775,36.6875],[22.38,36.66],[22.381,36.645],[22.379,36.604],[22.3785,36.589],[22.378,36.5795],[22.3765,36.547],[22.375,36.5135],[22.4275,36.476],[22.4525,36.4645],[22.4895,36.447],[22.523,36.6285],[22.5275,36.6365],[22.545,36.6675],[22.5505,36.677],[22.8175,36.715],[22.8325,36.687],[22.983,36.5285],[23.107,36.452],[23.1115,36.5475],[23.092,36.575],[23.0525,36.6915],[23.0535,36.6935],[23.065,36.74],[23.0735,36.775],[22.995,37.016],[22.9005,37.196],[22.8935,37.2095],[22.819,37.329],[22.818,37.3305],[22.8145,37.3345],[22.795,37.358],[22.7595,37.414],[22.7565,37.425],[22.826,37.55],[22.851,37.532],[22.873,37.5285],[22.9925,37.4925],[23.015,37.482],[23.0235,37.4775],[23.1,37.364],[23.203,37.3485],[23.242,37.371],[23.389,37.4135],[23.4895,37.44],[23.458,37.497],[23.456,37.499],[23.3945,37.5805],[23.3475,37.5975],[23.147,37.7165],[23.147,37.7265],[23.147,37.764],[23.147,37.7955],[23.0895,37.9135],[23.1725,37.95],[23.342,37.9805],[23.397,37.9885],[23.502,38.035],[23.5025,38.035],[23.5865,38.0055],[23.6615,37.9435],[23.742,37.877],[23.8115,37.826],[23.915,37.7375],[23.923,37.729],[23.943,37.7075],[23.9715,37.677],[24.0615,37.818],[24.061,37.82],[24.055,37.8475],[24.0505,37.871],[24.0495,37.8755],[24.0485,37.879],[24.0435,37.904],[24.0415,37.914],[24.031,38.0025],[24.0305,38.006],[24.0245,38.14],[23.967,38.275],[23.846,38.3215],[23.833,38.326],[23.7505,38.3405],[23.5875,38.468],[23.5695,38.4895],[23.5275,38.497],[23.3675,38.527],[23.353,38.5445],[23.312,38.592],[23.253,38.661],[23.0655,38.7135],[23.0205,38.742],[22.718,38.832],[22.6875,38.849],[22.6855,38.849],[22.6545,38.8965],[22.677,38.899],[22.8025,38.9015],[22.9305,38.9475],[23.0665,39.038],[23.015,39.0345],[22.9645,39.0335],[22.939,39.1115],[22.936,39.115],[22.9175,39.135],[22.886,39.17],[22.909,39.299],[22.9215,39.3065],[22.935,39.311],[23.0205,39.319],[23.0215,39.3185],[23.134,39.12],[23.1515,39.104],[23.3275,39.175],[23.298,39.2615],[23.266,39.3175],[23.245,39.3435],[23.1035,39.492],[23.0215,39.5395],[22.8665,39.737],[22.8355,39.8005],[22.788,39.847],[22.592,40.037],[22.6135,40.2955],[22.6425,40.3665],[22.6365,40.3875],[22.6285,40.482],[22.6295,40.4955],[22.6565,40.5055],[22.6975,40.5205],[22.742,40.5365],[22.8115,40.5785],[22.8515,40.4905],[22.8965,40.4],[23.018,40.3425],[23.073,40.316],[23.08,40.313],[23.0905,40.308],[23.1235,40.294],[23.1585,40.2795],[23.328,40.09],[23.3555,40.0495],[23.3955,39.99],[23.445,39.976],[23.6275,39.924],[23.674,39.959],[23.7885,40.0775],[23.831,40.0275],[23.8595,40.01],[23.882,39.9985],[23.902,39.9885],[23.947,39.9655],[24.001,40.0245],[23.9955,40.039],[23.988,40.0585],[23.9675,40.1145],[23.9175,40.155],[23.9875,40.33],[24.056,40.3035],[24.1925,40.2505],[24.2325,40.215],[24.2925,40.242],[24.1835,40.341],[24.1275,40.366],[24.0485,40.4015],[24.0305,40.4095],[24.009,40.4085],[23.8625,40.5225],[23.879,40.5445],[23.8595,40.5605],[23.952,40.7475],[24.029,40.7335],[24.2345,40.786],[24.306,40.8465],[24.4635,40.9425],[24.4645,40.943],[24.727,40.8645],[24.7515,40.862],[24.793,40.8575],[24.824,40.8735],[24.99,40.96],[24.9945,40.962],[25.138,40.9805],[25.245,40.935],[25.2555,40.9335],[25.2775,40.9365],[25.435,40.9075],[25.4405,40.906],[25.508,40.8865],[25.5955,40.8755],[25.6585,40.868],[25.7645,40.855],[26.058,40.698],[26.068,40.6835],[26.224,40.618],[26.3315,40.609],[26.3905,40.609],[26.419,40.6115],[26.472,40.6155],[26.489,40.617],[26.737,40.5635],[26.7205,40.544],[26.707,40.5395],[26.6395,40.515],[26.6,40.5005],[26.4475,40.445],[26.254,40.3145],[26.253,40.2745],[26.226,40.1415],[26.33,40.1235],[26.367,40.1605],[26.3805,40.174],[26.393,40.2025],[26.4155,40.209],[26.519,40.301],[26.6235,40.3825],[26.7755,40.499],[26.855,40.525],[26.972,40.563],[26.9745,40.564],[27.0925,40.615],[27.253,40.685],[27.26,40.689],[27.266,40.6945],[27.406,40.8185],[27.415,40.8265],[27.4305,40.841],[27.4445,40.867],[27.4995,40.973],[27.7475,41.0135],[27.925,40.9905],[28.172,41.0805],[28.603,41.0095],[28.7445,40.9815],[28.7805,40.974],[28.9545,41.008],[28.9565,41.008],[28.947,41.2485],[28.3475,41.466],[28.3465,41.4665],[28.3455,41.467],[28.0505,41.729],[27.9965,41.894],[28.0145,41.969],[27.9825,42.0475],[27.9135,42.1165],[27.8955,42.1345],[27.889,42.1405],[27.853,42.1765],[27.8495,42.18],[27.7575,42.2885],[27.708,42.35],[27.6395,42.401],[27.7115,42.669],[27.7175,42.6745],[27.8185,42.7165],[27.889,42.7495],[27.8905,42.8135],[27.892,42.854],[27.8955,42.979],[27.9035,43.0565],[27.9285,43.1835],[27.9645,43.2175],[27.9795,43.2305],[28.035,43.2685],[28.4655,43.3895],[28.562,43.5015],[28.6585,43.984],[28.656,44.051],[28.6485,44.226],[28.648,44.2365],[28.6455,44.2955],[28.684,44.352],[28.699,44.374],[28.705,44.3795],[28.83,44.4875],[28.852,44.506],[28.888,44.575],[28.865,44.572],[28.8465,44.637],[28.847,44.6535],[28.8685,44.7465],[28.8705,44.75],[28.926,44.81],[28.915,44.845],[28.9105,44.859],[29.0725,44.951],[29.048,44.9255],[29.069,44.872],[29.069,44.871],[29.0745,44.8375],[29.048,44.7575],[29.5575,44.8435],[29.6355,44.9795],[29.661,45.081],[29.6725,45.127],[29.6785,45.1515],[29.706,45.26],[29.726,45.34],[29.685,45.7545],[30.219,45.8665],[30.7215,46.366],[30.7965,46.552],[31.026,46.601],[31.3355,46.6155],[31.403,46.629],[31.9745,46.709],[32.3615,46.475],[32.013,46.387],[32.477,46.0835],[33.202,46.1755],[33.603,46.0835],[33.6365,46.033],[33.492,45.852],[33.466,45.838],[33.3795,45.804],[32.828,45.593],[32.508,45.404],[32.6115,45.328],[32.7725,45.359],[32.9185,45.348],[33.148,45.217],[33.154,45.2135],[33.2425,45.177],[33.2615,45.171],[33.327,45.1795],[33.581,45.032],[33.5835,45.0265],[33.4625,44.597],[33.4505,44.5535],[33.55,44.495],[33.656,44.433],[33.7555,44.399],[33.7945,44.396],[33.904,44.388],[33.91,44.3875],[34.0745,44.424],[34.2085,44.498],[34.2475,44.5195],[34.29,44.5465],[34.3865,44.6405],[34.5885,44.7625],[34.646,44.7825],[34.8055,44.8155],[34.8335,44.8185],[34.873,44.822],[34.888,44.8235],[35.089,44.804],[35.116,44.8425],[35.1935,44.912],[35.234,44.9285],[35.358,44.9785],[35.807,45.038],[35.87,45.0055],[36.0195,45.026],[36.1215,45.029],[36.23,45.026],[36.253,45.0315],[36.3235,45.0485],[36.3935,45.0655],[36.418,45.127],[36.5445,45.3485],[36.575,45.3935],[36.427,45.4335],[36.323,45.451],[36.3035,45.4545],[36.2905,45.4565],[36.077,45.424],[35.8335,45.4015],[35.374,45.3535],[35.023,45.701],[34.844,46.0815],[34.8495,46.19],[35.2305,46.4405],[35.4,46.3815],[35.827,46.6245],[36.2795,46.6585],[37.34,46.917],[37.5435,47.0745],[38.1785,47.08],[38.485,47.1755],[39.2935,47.106],[37.968,46.618],[38.1835,46.095],[37.933,46.0015],[37.6125,45.5645],[37.647,45.377],[37.1035,45.303],[36.794,45.4095],[36.789,45.407],[36.651,45.1265],[37.109,45.008],[37.221,45.0425],[37.3505,45.034],[37.424,45.0285],[38.1715,44.8975],[38.2795,44.862],[39.741,44.383],[40.838,43.8845],[40.9155,43.83],[41,43.7705],[41.5035,43.5715],[42.8485,43.126],[44.1225,42.683],[44.6775,42.506],[45.916,42.1925],[46.4165,42.0355],[46.884,41.871],[47.0325,41.8115],[47.3005,41.676],[47.7575,41.445],[49.286,40.673],[49.4445,40.565],[49.4625,40.558],[49.4925,40.5465],[49.701,40.468],[49.726,40.4625],[50.2955,40.422],[50.248,40.462],[49.7185,40.608],[49.7085,40.6145],[49.2265,41.026],[49.1745,41.116],[49.1065,41.3015],[48.6645,41.7865],[48.477,41.905],[48.303,42.08],[48.2915,42.096],[47.8225,42.6135],[47.463,43.035],[47.509,43.5095],[47.5105,43.5145],[47.484,43.6145],[47.463,43.555],[47.3615,43.9935],[47.23,44.1925],[46.707,44.5035],[46.841,44.7185],[47.2215,45.0245],[47.3955,45.3205],[47.413,45.421],[47.574,45.6345]]],[[[27.843,35.9295],[27.9025,35.9865],[28.066,36.062],[28.073,36.063],[28.076,36.1025],[28.0735,36.111],[28.123,36.1875],[28.128,36.193],[28.1655,36.25],[28.1685,36.2555],[28.23,36.3715],[28.2305,36.39],[28.232,36.4335],[28.1715,36.426],[27.9145,36.3455],[27.815,36.277],[27.7165,36.1715],[27.7185,36.141],[27.716,35.958],[27.7155,35.9575],[27.843,35.9295]]],[[[24.0935,35.594],[23.737,35.6555],[23.722,35.621],[23.715,35.6045],[23.715,35.597],[23.608,35.5655],[23.57,35.535],[23.566,35.5145],[23.5495,35.3985],[23.5615,35.295],[23.593,35.257],[23.634,35.237],[23.6825,35.234],[23.7005,35.2335],[23.7505,35.237],[23.787,35.2395],[23.8475,35.2435],[23.8835,35.246],[23.942,35.2335],[24.011,35.2195],[24.1685,35.199],[24.2215,35.192],[24.2435,35.189],[24.432,35.1645],[24.4635,35.1605],[24.4765,35.1555],[24.537,35.133],[24.5835,35.1155],[24.6665,35.098],[24.7645,34.945],[24.7995,34.9345],[24.805,34.935],[24.8555,34.938],[25.206,34.9595],[25.8295,35.025],[26.09,35.016],[26.1655,35.0185],[26.2425,35.044],[26.2465,35.0535],[26.2555,35.095],[26.281,35.159],[26.288,35.203],[26.3145,35.3025],[26.32,35.315],[26.118,35.215],[26.028,35.2155],[26.003,35.2085],[25.9335,35.19],[25.8935,35.179],[25.891,35.1775],[25.837,35.1325],[25.8355,35.132],[25.746,35.258],[25.75,35.2855],[25.755,35.319],[25.756,35.3265],[25.684,35.3425],[25.582,35.3295],[25.297,35.3395],[25.276,35.34],[25.206,35.343],[25.143,35.3455],[25.047,35.3825],[25.003,35.41],[24.964,35.412],[24.9315,35.4135],[24.8655,35.417],[24.7215,35.425],[24.527,35.3795],[24.483,35.372],[24.445,35.366],[24.265,35.4075],[24.2575,35.423],[24.2555,35.468],[24.1255,35.5115],[24.198,35.5375],[24.0935,35.594]]],[[[14.4485,35.9575],[14.4365,35.8215],[14.566,35.8525],[14.4485,35.9575]]],[[[26.393,39.27],[26.41,39.3295],[26.3975,39.3405],[26.3825,39.346],[26.3595,39.3555],[26.1655,39.3735],[26.1655,39.373],[26.1175,39.315],[26.0885,39.3045],[26.053,39.293],[26.0355,39.2875],[26.027,39.2845],[26.0265,39.2845],[25.9305,39.287],[25.9095,39.2875],[25.851,39.2095],[25.847,39.1945],[25.8555,39.1785],[25.9035,39.141],[25.9335,39.132],[26.0725,39.0955],[26.108,39.081],[26.161,39.026],[26.1715,39.0235],[26.328,38.988],[26.348,38.9835],[26.3965,38.974],[26.469,38.973],[26.5455,38.9935],[26.503,39.0315],[26.4925,39.0635],[26.5315,39.0645],[26.5955,39.049],[26.591,39.065],[26.4955,39.197],[26.428,39.245],[26.393,39.27]]],[[[16.8345,43.351],[16.774,43.359],[16.8915,43.3145],[16.8345,43.351]]],[[[14.764,44.8215],[14.751,44.845],[14.6905,44.848],[14.8565,44.715],[14.846,44.734],[14.764,44.8215]]],[[[15.509,38.1065],[15.6345,38.2675],[15.5685,38.296],[15.3405,38.2175],[15.224,38.211],[15.215,38.203],[14.77,38.161],[14.737,38.151],[14.7005,38.127],[14.45,38.0435],[14.416,38.0425],[14.4095,38.041],[14.2875,38.017],[14.044,38.0395],[13.9365,38.024],[13.4915,38.103],[13.3515,38.1805],[13.291,38.1915],[13.232,38.191],[12.9025,38.035],[12.7345,38.183],[12.7215,38.1665],[12.6645,38.108],[12.5795,38.072],[12.5475,38.053],[12.487,37.9385],[12.469,37.897],[12.4375,37.8145],[12.4545,37.774],[12.527,37.6695],[12.5425,37.6595],[12.64,37.5945],[12.699,37.572],[12.735,37.569],[13.0045,37.526],[13.0405,37.5065],[13.0755,37.499],[13.2205,37.452],[13.221,37.452],[13.2265,37.4465],[13.6405,37.2245],[13.759,37.159],[13.886,37.107],[13.905,37.101],[13.9065,37.1005],[13.932,37.102],[14.143,37.1035],[14.259,37.0465],[14.3675,36.973],[14.502,36.7985],[14.534,36.7855],[14.776,36.7105],[15.1125,36.688],[15.1165,36.7365],[15.1155,36.838],[15.116,36.8395],[15.1255,36.858],[15.295,37.0295],[15.2955,37.0435],[15.2885,37.097],[15.23,37.1455],[15.223,37.1535],[15.174,37.209],[15.193,37.221],[15.2215,37.2385],[15.2305,37.2445],[15.1935,37.283],[15.165,37.5895],[15.207,37.7205],[15.4755,38.063],[15.509,38.1065]]],[[[9.082,60],[8.648,60],[6.7045,60],[5.94,60],[5.772,59.661],[5.305,59.6425],[5.1315,59.2265],[5.3625,59.1665],[5.8185,59.3485],[5.845,59.3535],[5.9485,59.1355],[5.8905,59.0985],[5.9305,59.037],[6.017,58.9875],[6.1375,58.8745],[5.612,59.013],[5.5175,58.7265],[5.707,58.5235],[6.389,58.268],[6.6925,58.224],[6.787,58.1435],[6.803,58.1545],[6.8955,58.121],[6.8925,58.1105],[7.1235,58.039],[7.194,58.0475],[7.466,58.021],[8.0375,58.1475],[8.0555,58.147],[8.5215,58.3005],[9.194,58.712],[9.31,58.857],[9.8,59.027],[10.1795,59.0095],[10.4545,59.3775],[11.196,59.0785],[11.2715,58.4755],[11.263,58.453],[11.33,58.3805],[11.4495,58.1185],[11.703,57.973],[11.735,57.7175],[12.053,57.447],[12.0995,57.3435],[12.4215,56.9065],[12.6605,56.726],[12.7175,56.663],[12.7065,56.235],[12.6565,56.07],[12.8345,55.882],[12.939,55.533],[12.939,55.5305],[13.124,55.376],[13.3215,55.3465],[13.8065,55.4285],[14.1735,55.3965],[14.2835,55.482],[14.203,55.729],[14.473,56.0145],[14.714,56.134],[15.7225,56.164],[15.9965,56.2225],[16.1505,56.501],[16.2165,56.59],[16.4575,56.927],[16.476,57.265],[16.652,57.5005],[16.597,57.913],[16.7,58.161],[16.7165,58.303],[16.652,58.4345],[16.8035,58.4565],[16.7885,58.5855],[16.6395,58.651],[16.877,58.6535],[17.4005,58.818],[17.4565,58.8585],[18.2855,59.1095],[18.719,59.6575],[18.8935,59.732],[18.8845,59.98],[18.8705,60],[9.082,60]]],[[[47.9205,45.562],[47.946,45.5125],[47.987,45.554],[47.9205,45.562]]],[[[5.928,53.465],[5.907,53.469],[5.9295,53.459],[5.928,53.465]]],[[[13.1775,54.537],[13.1815,54.509],[13.482,54.3375],[13.7075,54.281],[13.6705,54.5355],[13.423,54.6995],[13.1775,54.537]]],[[[5.6715,59.99],[5.685,60],[5.67,60],[5.6715,59.99]]],[[[27.0135,37.7045],[27.0215,37.7055],[27.0485,37.736],[27.0135,37.7045]]],[[[25.743,36.7895],[26.0385,36.895],[26.0265,36.9235],[25.743,36.7895]]],[[[24.9805,37.797],[24.806,37.972],[24.73,37.974],[24.9805,37.797]]],[[[24.5365,37.9795],[24.5635,38.1475],[24.276,38.22],[24.099,38.671],[23.472,38.85],[23.252,38.801],[23.759,38.401],[24.04,38.39],[24.212,38.1175],[24.5365,37.9795]]],[[[11.7395,54.8075],[11.2585,54.952],[11.0355,54.773],[11.4575,54.629],[11.7395,54.8075]]],[[[10.2545,55.088],[10.624,55.0525],[10.819,55.322],[10.687,55.5575],[10.286,55.611],[9.8605,55.5155],[9.989,55.163],[10.2545,55.088]]],[[[22.6615,58.709],[23.0085,58.834],[22.587,59.081],[22.411,58.8635],[22.6615,58.709]]]]},"properties":{"name":"EUROPE","scalerank":0,"featurecla":"Continent","region":"Europe"}},
{"type":"Feature","geometry":null,"properties":{"name":"JUTLAND","scalerank":4,"featurecla":"Geoarea","region":"Europe"}},
{"type":"Feature","geometry":{"type":"Polygon","coordinates":[[[20.9565,37.5975],[21.0345,37.8035],[20.7845,38.489],[20.6905,38.8745],[20.3105,39.2005],[20.018,39.551],[19.9435,39.8485],[19.587,39.8485],[19.5445,39.6785],[19.693,39.422],[20.279,38.807],[20.2925,38.0625],[20.702,37.621],[20.9565,37.5975]]]},"properties":{"name":"Ionian Is.","scalerank":5,"featurecla":"Island group","region":"Europe"}},
{"type":"Feature","geometry":null,"properties":{"name":"Outer Hebrides","scalerank":5,"featurecla":"Island group","region":"Europe"}},
{"type":"Feature","geometry":null,"properties":{"name":"Orkney Is.","scalerank":5,"featurecla":"Island group","region":"Europe"}},
{"type":"Feature","geometry":{"type":"Polygon","coordinates":[[[-1.445,59.292],[-0.8505,60],[-1.75,60],[-1.877,59.533],[-1.736,59.261],[-1.445,59.292]]]},"properties":{"name":"Shetland Is.","scalerank":5,"featurecla":"Island group","region":"Europe"}},
{"type":"Feature","geometry":{"type":"Polygon","coordinates":[[[26.0265,36.9235],[25.8055,37.4475],[25.2035,37.962],[24.806,37.972],[24.9805,37.797],[24.73,37.974],[24.352,37.8315],[23.9705,37.2805],[24.273,36.661],[24.9655,36.2295],[25.7525,36.242],[26.094,36.7635],[26.0385,36.895],[25.743,36.7895],[26.0265,36.9235]]]},"properties":{"name":"Cyclades","scalerank":5,"featurecla":"Island group","region":"Europe"}},
{"type":"Feature","geometry":{"type":"Polygon","coordinates":[[[7.3135,53.6825],[7.885,53.7175],[7.9275,53.9385],[6.3255,53.7415],[5.5795,53.5795],[4.961,53.373],[4.604,53.169],[4.9045,52.9805],[5.022,53.162],[5.5785,53.362],[6.476,53.482],[7.262,53.6735],[7.3135,53.6825]],[[5.9295,53.459],[5.907,53.469],[5.928,53.465],[5.9295,53.459]]]},"properties":{"name":"Frisian Is.","scalerank":5,"featurecla":"Island group","region":"Europe"}},
{"type":"Feature","geometry":{"type":"Polygon","coordinates":[[[-14.8875,27.368],[-13.6705,28.1265],[-13.106,29.4495],[-15,29.638],[-15,27.361],[-14.8875,27.368]]]},"properties":{"name":"ISLAS CANARIAS","scalerank":4,"featurecla":"Island group","region":"Africa"}},
{"type":"Feature","geometry":{"type":"Polygon","coordinates":[[[1.732,38.4835],[2.7545,38.9685],[3.2515,39.0815],[3.5975,39.2825],[4.4005,39.4875],[4.576,39.6435],[4.5925,39.8865],[4.3995,40.247],[4.1315,40.2875],[3.4225,40.2555],[2.582,40.0845],[2.1885,39.912],[1.7675,39.5995],[1.3185,39.3565],[1.0185,38.9845],[1.064,38.5975],[1.3705,38.418],[1.732,38.4835]]]},"properties":{"name":"Balearic Islands","scalerank":3,"featurecla":"Island group","region":"Europe"}},
{"type":"Feature","geometry":{"type":"Polygon","coordinates":[[[1.8675,51.4385],[1.7425,51.671],[1.981,51.895],[2.1725,52.3245],[2.1775,52.695],[1.9535,53.092],[1.342,53.3685],[0.7265,53.4265],[0.3565,54.03],[0.2895,54.368],[-0.411,54.8705],[-0.933,55.059],[-1.359,55.9085],[-2.1405,56.3675],[-1.4425,57.1775],[-1.332,57.5525],[-1.5495,57.9305],[-2.0155,58.148],[-2.7525,58.14],[-2.331,58.83],[-1.966,59.21],[-1.981,59.442],[-2.2905,59.732],[-3.034,59.793],[-3.607,59.469],[-3.826,59.0365],[-4.331,58.9885],[-4.9835,59.034],[-5.2905,58.9235],[-5.4935,58.6605],[-6.296,58.9485],[-7.2275,58.6255],[-7.5005,58.3545],[-7.543,58.096],[-7.95,57.732],[-7.863,57.318],[-7.989,56.9135],[-7.7095,56.5445],[-7.3005,56.531],[-6.7705,56.1425],[-6.945,55.7055],[-7.25,55.8115],[-8.391,55.5805],[-9.0115,55.07],[-9.21,54.7355],[-10.0835,54.717],[-10.3945,54.5545],[-10.669,54.1765],[-10.7145,53.9485],[-10.4295,53.1165],[-10.1335,52.9635],[-10.3465,52.7],[-10.7135,52.4805],[-10.8315,52.2225],[-10.813,51.7525],[-10.659,51.481],[-10.3195,51.1975],[-9.9515,51.049],[-9.217,51.0555],[-8.734,51.1425],[-7.8975,51.4055],[-7.287,51.686],[-6.3215,51.7685],[-5.9215,52.048],[-5.5805,52.975],[-5.71,53.7015],[-5.3105,53.9345],[-4.933,53.6485],[-4.9935,53.1695],[-5.1325,52.806],[-4.991,52.4785],[-5.408,52.339],[-5.688,52.0245],[-5.6655,51.6815],[-5.465,51.4025],[-4.926,51.1775],[-4.9695,51.055],[-5.5155,50.669],[-5.7955,50.5865],[-6.105,50.1615],[-6.029,49.8275],[-5.71,49.6095],[-5.002,49.604],[-4.596,49.8595],[-4.2245,49.9155],[-3.91,49.795],[-3.481,49.8365],[-3.1215,50.232],[-2.492,50.1535],[-2.0065,50.1545],[-0.427,50.3085],[0.873,50.521],[1.1855,50.6835],[1.8675,51.4385]]]},"properties":{"name":"BRITISH ISLES","scalerank":1,"featurecla":"Island group","region":"Europe"}}
]}