{"type":"FeatureCollection","features":[{"type":"Feature","properties":{"id":"place:갈리아","layer":"settlements","name_ko":"갈리아","name_ancient":"Gallia","name_modern":"프랑스","kind":"region","rank":1,"minzoom":0,"source":"book+web","confidence":"medium","src":"point"},"geometry":{"type":"Point","coordinates":[2.5,47]}},{"type":"Feature","properties":{"id":"place:갈리아속주","layer":"settlements","name_ko":"갈리아 속주","name_ancient":"Gallia Transalpina","name_modern":"프랑스","kind":"region","rank":3,"minzoom":6,"source":"book+web","confidence":"low","src":"point"},"geometry":{"type":"Point","coordinates":[2.2,46.2]}},{"type":"Feature","properties":{"id":"place:갈리아키살피나","layer":"settlements","name_ko":"갈리아키살피나","name_ancient":"Gallia Cisalpina","name_modern":"이탈리아 북부","kind":"region","rank":3,"minzoom":6,"source":"book+web","confidence":"medium","src":"point"},"geometry":{"type":"Point","coordinates":[11,45]}},{"type":"Feature","properties":{"id":"place:갈릴리","layer":"settlements","name_ko":"갈릴리","name_ancient":"Galilaea","name_modern":"갈릴리, 이스라엘/레바논","kind":"region","rank":3,"minzoom":6,"source":"book+web","confidence":"high","src":"point"},"geometry":{"type":"Point","coordinates":[35.53,32.76]}},{"type":"Feature","properties":{"id":"place:게르마니아","layer":"settlements","name_ko":"게르마니아","name_ancient":"Germania","name_modern":"독일 지역","kind":"region","rank":2,"minzoom":4,"source":"book+web","confidence":"low","src":"point"},"geometry":{"type":"Point","coordinates":[10,51]}},{"type":"Feature","properties":{"id":"place:곤디샤푸르","layer":"settlements","name_ko":"곤디샤푸르","name_ancient":"Gundeshapur","name_modern":"선데이샤푸르, 이란","kind":"city","rank":3,"minzoom":6,"source":"book+web","confidence":"high","src":"point"},"geometry":{"type":"Point","coordinates":[48.51,32.28]}},{"type":"Feature","properties":{"id":"place:골고다","layer":"settlements","name_ko":"골고다","name_ancient":"Golgotha / Calvariae Locus","name_modern":"성묘교회, 예루살렘 구시가","kind":"building","rank":3,"minzoom":6,"source":"book+web","confidence":"medium","src":"point"},"geometry":{"type":"Point","coordinates":[35.2294,31.7786]}},{"type":"Feature","properties":{"id":"place:그리스","layer":"settlements","name_ko":"그리스","name_ancient":"Graecia / Achaia","name_modern":"그리스","kind":"region","rank":2,"minzoom":4,"source":"book+web","confidence":"medium","src":"point"},"geometry":{"type":"Point","coordinates":[22,39]}},{"type":"Feature","properties":{"id":"place:나르본느","layer":"settlements","name_ko":"나르본느","name_ancient":"Narbo","name_modern":"나르본느, 프랑스","kind":"city","rank":3,"minzoom":6,"source":"book+web","confidence":"high","src":"point"},"geometry":{"type":"Point","coordinates":[3,43.1833]}},{"type":"Feature","properties":{"id":"place:나일강","layer":"settlements","name_ko":"나일 강","name_ancient":"Nilus","name_modern":"나일 강 삼각주 기점(카이로 인근), 이집트","kind":"river","rank":3,"minzoom":6,"source":"book+web","confidence":"medium","src":"point"},"geometry":{"type":"Point","coordinates":[31.14,30.1725]}},{"type":"Feature","properties":{"id":"place:누미디아","layer":"settlements","name_ko":"누미디아","name_ancient":"Numidia","name_modern":"알제리","kind":"region","rank":2,"minzoom":4,"source":"book+web","confidence":"high","src":"point"},"geometry":{"type":"Point","coordinates":[6.6119,36.3675]}},{"type":"Feature","properties":{"id":"place:니샤푸르","layer":"settlements","name_ko":"니샤푸르","name_ancient":"Nishapur","name_modern":"니샤푸르, 이란","kind":"city","rank":3,"minzoom":6,"source":"book+web","confidence":"high","src":"point"},"geometry":{"type":"Point","coordinates":[58.76,36.21]}},{"type":"Feature","properties":{"id":"place:니코메디아","layer":"settlements","name_ko":"니코메디아","name_ancient":"Nicomedia","name_modern":"이즈미트, 튀르키예","kind":"city","rank":3,"minzoom":6,"source":"book+web","confidence":"high","src":"point"},"geometry":{"type":"Point","coordinates":[29.9167,40.7667]}},{"type":"Feature","properties":{"id":"place:니코폴리스","layer":"settlements","name_ko":"니코폴리스","name_ancient":"Nicopolis","name_modern":"터누, 루마니아","kind":"city","rank":3,"minzoom":6,"source":"book+web","confidence":"medium","src":"point"},"geometry":{"type":"Point","coordinates":[25,43.7]}},{"type":"Feature","properties":{"id":"place:님","layer":"settlements","name_ko":"님","name_ancient":"Nemausus","name_modern":"님, 프랑스","kind":"city","rank":3,"minzoom":6,"source":"book+web","confidence":"high","src":"point"},"geometry":{"type":"Point","coordinates":[4.3604,43.8384]}},{"type":"Feature","properties":{"id":"place:다키아","layer":"settlements","name_ko":"다키아","name_ancient":"Dacia","name_modern":"루마니아","kind":"region","rank":3,"minzoom":6,"source":"book+web","confidence":"medium","src":"point"},"geometry":{"type":"Point","coordinates":[22.5,47.5]}},{"type":"Feature","properties":{"id":"place:달마티아","layer":"settlements","name_ko":"달마티아","name_ancient":"Dalmatia","name_modern":"달마티아, 크로아티아","kind":"region","rank":3,"minzoom":6,"source":"book+web","confidence":"high","src":"point"},"geometry":{"type":"Point","coordinates":[16.4834,43.5396]}},{"type":"Feature","properties":{"id":"place:델피","layer":"settlements","name_ko":"델피","name_ancient":"Delphi","name_modern":"델포이, 포키스, 그리스","kind":"city","rank":3,"minzoom":6,"source":"book+web","confidence":"low","src":"point"},"geometry":{"type":"Point","coordinates":[22.5014,38.4822]}},{"type":"Feature","properties":{"id":"place:도나우강","layer":"settlements","name_ko":"도나우 강","name_ancient":"Danubius, Ister","name_modern":"다뉴브 강, 중부 유럽","kind":"river","rank":2,"minzoom":4,"source":"book+web","confidence":"low","src":"point"},"geometry":{"type":"Point","coordinates":[17,48]}},{"type":"Feature","properties":{"id":"place:독일","layer":"settlements","name_ko":"독일","name_ancient":"Germania","name_modern":"독일","kind":"region","rank":3,"minzoom":6,"source":"book+web","confidence":"medium","src":"point"},"geometry":{"type":"Point","coordinates":[7.5,52.5]}},{"type":"Feature","properties":{"id":"place:동일리리쿰","layer":"settlements","name_ko":"동 일리리쿰","name_ancient":"Illyricum Orientale","name_modern":"보스니아·세르비아","kind":"region","rank":3,"minzoom":6,"source":"book+web","confidence":"low","src":"point"},"geometry":{"type":"Point","coordinates":[18,44.5]}},{"type":"Feature","properties":{"id":"place:드레파나","layer":"settlements","name_ko":"드레파나","name_ancient":"Drepana","name_modern":"트라파니, 이탈리아","kind":"city","rank":3,"minzoom":6,"source":"book+web","confidence":"high","src":"point"},"geometry":{"type":"Point","coordinates":[12.5125,38.015]}},{"type":"Feature","properties":{"id":"place:디르하키움","layer":"settlements","name_ko":"디르하키움","name_ancient":"Dyrrhachium","name_modern":"두레스, 알바니아","kind":"city","rank":3,"minzoom":6,"source":"book+web","confidence":"high","src":"point"},"geometry":{"type":"Point","coordinates":[19.45,41.32]}},{"type":"Feature","properties":{"id":"place:라리사","layer":"settlements","name_ko":"라리사","name_ancient":"Larissa","name_modern":"라리사, 그리스","kind":"city","rank":3,"minzoom":6,"source":"book+web","confidence":"high","src":"point"},"geometry":{"type":"Point","coordinates":[22.4167,39.6417]}},{"type":"Feature","properties":{"id":"place:라벤나","layer":"settlements","name_ko":"라벤나","name_ancient":"Ravenna","name_modern":"라벤나, 이탈리아","kind":"city","rank":3,"minzoom":6,"source":"book+web","confidence":"high","src":"point"},"geometry":{"type":"Point","coordinates":[12.1966,44.4157]}},{"type":"Feature","properties":{"id":"place:라인강","layer":"settlements","name_ko":"라인 강","name_ancient":"Rhenus","name_modern":"마인츠(Mogontiacum), 독일","kind":"river","rank":3,"minzoom":6,"source":"book+web","confidence":"medium","src":"point"},"geometry":{"type":"Point","coordinates":[8.2736,49.9994]}},{"type":"Feature","properties":{"id":"place:랑그르","layer":"settlements","name_ko":"랑그르","name_ancient":"Langres","name_modern":"랑그르, 프랑스","kind":"city","rank":3,"minzoom":6,"source":"book+web","confidence":"high","src":"point"},"geometry":{"type":"Point","coordinates":[5.346,47.861]}},{"type":"Feature","properties":{"id":"place:러시아","layer":"settlements","name_ko":"러시아","name_ancient":"","name_modern":"러시아 지역","kind":"region","rank":3,"minzoom":6,"source":"book+web","confidence":"low","src":"point"},"geometry":{"type":"Point","coordinates":[35,48]}},{"type":"Feature","properties":{"id":"place:렙티스마그나","layer":"settlements","name_ko":"렙티스 마그나","name_ancient":"Leptis Magna","name_modern":"렙다, 리비아","kind":"city","rank":3,"minzoom":6,"source":"book+web","confidence":"high","src":"point"},"geometry":{"type":"Point","coordinates":[14.2906,32.6392]}},{"type":"Feature","properties":{"id":"place:로도스섬","layer":"settlements","name_ko":"로도스 섬","name_ancient":"Rhodos","name_modern":"로도스, 그리스","kind":"island","rank":2,"minzoom":4,"source":"book+web","confidence":"high","src":"point"},"geometry":{"type":"Point","coordinates":[28,36.1667]}},{"type":"Feature","properties":{"id":"place:로마","layer":"settlements","name_ko":"로마","name_ancient":"Roma","name_modern":"로마, 이탈리아","kind":"city","rank":1,"minzoom":0,"source":"book+web","confidence":"high","src":"point"},"geometry":{"type":"Point","coordinates":[12.4862,41.8917]}},{"type":"Feature","properties":{"id":"place:로마제국","layer":"settlements","name_ko":"로마 제국","name_ancient":"Imperium Romanum","name_modern":"유럽·북아프리카·중동","kind":"region","rank":2,"minzoom":4,"source":"book+web","confidence":"low","src":"point"},"geometry":{"type":"Point","coordinates":[12.4964,41.9028]}},{"type":"Feature","properties":{"id":"place:론강","layer":"settlements","name_ko":"론 강","name_ancient":"Rhodanus","name_modern":"프랑스","kind":"river","rank":3,"minzoom":6,"source":"book+web","confidence":"medium","src":"point"},"geometry":{"type":"Point","coordinates":[5,44.5]}},{"type":"Feature","properties":{"id":"place:루마니아","layer":"settlements","name_ko":"루마니아","name_ancient":"Dacia","name_modern":"루마니아","kind":"region","rank":3,"minzoom":6,"source":"book+web","confidence":"high","src":"point"},"geometry":{"type":"Point","coordinates":[25,44.5]}},{"type":"Feature","properties":{"id":"place:루비콘강","layer":"settlements","name_ko":"루비콘 강","name_ancient":"Rubico","name_modern":"피우미치노 강, 사비냐노 술 루비코네 인근, 이탈리아","kind":"river","rank":2,"minzoom":4,"source":"book+web","confidence":"medium","src":"point"},"geometry":{"type":"Point","coordinates":[12.4431,44.1681]}},{"type":"Feature","properties":{"id":"place:루카","layer":"settlements","name_ko":"루카","name_ancient":"Luca","name_modern":"루카, 토스카나, 이탈리아","kind":"city","rank":3,"minzoom":6,"source":"book+web","confidence":"high","src":"point"},"geometry":{"type":"Point","coordinates":[10.5028,43.8417]}},{"type":"Feature","properties":{"id":"place:리미니","layer":"settlements","name_ko":"리미니","name_ancient":"Ariminum","name_modern":"리미니, 이탈리아","kind":"city","rank":3,"minzoom":6,"source":"book+web","confidence":"high","src":"point"},"geometry":{"type":"Point","coordinates":[12.5754,44.0603]}},{"type":"Feature","properties":{"id":"place:리에티","layer":"settlements","name_ko":"리에티","name_ancient":"Reate","name_modern":"리에티, 이탈리아","kind":"city","rank":3,"minzoom":6,"source":"book+web","confidence":"high","src":"point"},"geometry":{"type":"Point","coordinates":[12.8626,42.4058]}},{"type":"Feature","properties":{"id":"place:마르마라해","layer":"settlements","name_ko":"마르마라해","name_ancient":"Propontis","name_modern":"튀르키예","kind":"sea","rank":3,"minzoom":6,"source":"book+web","confidence":"medium","src":"point"},"geometry":{"type":"Point","coordinates":[28,40.8]}},{"type":"Feature","properties":{"id":"place:마르브","layer":"settlements","name_ko":"마르브","name_ancient":"Merv","name_modern":"마리, 투르크메니스탄","kind":"city","rank":3,"minzoom":6,"source":"book+web","confidence":"high","src":"point"},"geometry":{"type":"Point","coordinates":[61.87,37.65]}},{"type":"Feature","properties":{"id":"place:마르살라만","layer":"settlements","name_ko":"마르살라 만","name_ancient":"Lilybaeum","name_modern":"마르살라, 이탈리아","kind":"city","rank":3,"minzoom":6,"source":"book+web","confidence":"high","src":"point"},"geometry":{"type":"Point","coordinates":[12.4342,37.7981]}},{"type":"Feature","properties":{"id":"place:마르스광장","layer":"settlements","name_ko":"마르스 광장","name_ancient":"Campus Martius","name_modern":"로마 캄포 마르치오, 이탈리아","kind":"building","rank":3,"minzoom":6,"source":"book+web","confidence":"high","src":"point"},"geometry":{"type":"Point","coordinates":[12.4772,41.8978]}},{"type":"Feature","properties":{"id":"place:마르키아노폴리스","layer":"settlements","name_ko":"마르키아노폴리스","name_ancient":"Marcianopolis","name_modern":"데브냐, 불가리아","kind":"city","rank":3,"minzoom":6,"source":"book+web","confidence":"high","src":"point"},"geometry":{"type":"Point","coordinates":[27.585,43.2252]}},{"type":"Feature","properties":{"id":"place:메디나","layer":"settlements","name_ko":"메디나","name_ancient":"Medina","name_modern":"메디나, 사우디아라비아","kind":"city","rank":3,"minzoom":6,"source":"book+web","confidence":"high","src":"point"},"geometry":{"type":"Point","coordinates":[39.6067,24.4744]}},{"type":"Feature","properties":{"id":"place:메리다","layer":"settlements","name_ko":"메리다","name_ancient":"Emerita Augusta","name_modern":"메리다, 스페인","kind":"city","rank":3,"minzoom":6,"source":"book+web","confidence":"high","src":"point"},"geometry":{"type":"Point","coordinates":[-6.34,38.92]}},{"type":"Feature","properties":{"id":"place:메소포타미아","layer":"settlements","name_ko":"메소포타미아","name_ancient":"Mesopotamia","name_modern":"이라크·시리아","kind":"region","rank":3,"minzoom":6,"source":"book+web","confidence":"high","src":"point"},"geometry":{"type":"Point","coordinates":[43.5,33.7]}},{"type":"Feature","properties":{"id":"place:메시나","layer":"settlements","name_ko":"메시나","name_ancient":"Messana","name_modern":"메시나, 시칠리아 이탈리아","kind":"city","rank":3,"minzoom":6,"source":"book+web","confidence":"high","src":"point"},"geometry":{"type":"Point","coordinates":[15.5566,38.1923]}},{"type":"Feature","properties":{"id":"place:메카","layer":"settlements","name_ko":"메카","name_ancient":"","name_modern":"메카, 사우디아라비아","kind":"city","rank":3,"minzoom":6,"source":"book+web","confidence":"high","src":"point"},"geometry":{"type":"Point","coordinates":[39.8262,21.4225]}},{"type":"Feature","properties":{"id":"place:모이시아","layer":"settlements","name_ko":"모이시아","name_ancient":"Moesia","name_modern":"불가리아·세르비아","kind":"region","rank":3,"minzoom":6,"source":"book+web","confidence":"medium","src":"point"},"geometry":{"type":"Point","coordinates":[23.5,43.5]}},{"type":"Feature","properties":{"id":"place:문다평원","layer":"settlements","name_ko":"문다 평원","name_ancient":"Munda","name_modern":"라 란테후엘라 인근 추정, 안달루시아, 스페인","kind":"battlefield","rank":3,"minzoom":6,"source":"book+web","confidence":"low","src":"point"},"geometry":{"type":"Point","coordinates":[-5.2167,37.35]}},{"type":"Feature","properties":{"id":"place:밀라노","layer":"settlements","name_ko":"밀라노","name_ancient":"Mediolanum","name_modern":"밀라노, 이탈리아","kind":"city","rank":2,"minzoom":4,"source":"book+web","confidence":"high","src":"point"},"geometry":{"type":"Point","coordinates":[9.1895,45.4643]}},{"type":"Feature","properties":{"id":"place:바그다드","layer":"settlements","name_ko":"바그다드","name_ancient":"","name_modern":"바그다드, 이라크","kind":"city","rank":3,"minzoom":6,"source":"book+web","confidence":"high","src":"point"},"geometry":{"type":"Point","coordinates":[44.3661,33.3153]}},{"type":"Feature","properties":{"id":"place:바르셀로나","layer":"settlements","name_ko":"바르셀로나","name_ancient":"Barcino","name_modern":"바르셀로나, 스페인","kind":"city","rank":3,"minzoom":6,"source":"book+web","confidence":"high","src":"point"},"geometry":{"type":"Point","coordinates":[2.1589,41.3887]}},{"type":"Feature","properties":{"id":"place:바빌론","layer":"settlements","name_ko":"바빌론","name_ancient":"Babylon","name_modern":"힐라, 이라크","kind":"city","rank":3,"minzoom":6,"source":"book+web","confidence":"high","src":"point"},"geometry":{"type":"Point","coordinates":[44.42,32.54]}},{"type":"Feature","properties":{"id":"place:발칸","layer":"settlements","name_ko":"발칸","name_ancient":"Haemus Mons","name_modern":"발칸 반도, 동유럽","kind":"mountain","rank":3,"minzoom":6,"source":"book+web","confidence":"medium","src":"point"},"geometry":{"type":"Point","coordinates":[21,42.5]}},{"type":"Feature","properties":{"id":"place:발칸반도","layer":"settlements","name_ko":"발칸 반도","name_ancient":"Balkan Peninsula","name_modern":"발칸, 남동유럽","kind":"region","rank":3,"minzoom":6,"source":"book+web","confidence":"low","src":"point"},"geometry":{"type":"Point","coordinates":[21,42.5]}},{"type":"Feature","properties":{"id":"place:발트해","layer":"settlements","name_ko":"발트해","name_ancient":"Mare Suebicum","name_modern":"발트해 (북유럽)","kind":"sea","rank":3,"minzoom":6,"source":"book+web","confidence":"medium","src":"point"},"geometry":{"type":"Point","coordinates":[20,58]}},{"type":"Feature","properties":{"id":"place:발흐","layer":"settlements","name_ko":"발흐","name_ancient":"Balkh","name_modern":"발흐, 아프가니스탄","kind":"city","rank":3,"minzoom":6,"source":"book+web","confidence":"high","src":"point"},"geometry":{"type":"Point","coordinates":[66.87,36.77]}},{"type":"Feature","properties":{"id":"place:베네벤토","layer":"settlements","name_ko":"베네벤토","name_ancient":"Beneventum","name_modern":"베네벤토, 이탈리아","kind":"city","rank":3,"minzoom":6,"source":"book+web","confidence":"high","src":"point"},"geometry":{"type":"Point","coordinates":[14.7781,41.1307]}},{"type":"Feature","properties":{"id":"place:베누스신전","layer":"settlements","name_ko":"베누스 신전","name_ancient":"Templum Veneris","name_modern":"로마, 이탈리아","kind":"building","rank":3,"minzoom":6,"source":"book+web","confidence":"high","src":"point"},"geometry":{"type":"Point","coordinates":[12.4844,41.8952]}},{"type":"Feature","properties":{"id":"place:베로나","layer":"settlements","name_ko":"베로나","name_ancient":"Verona","name_modern":"베로나, 이탈리아","kind":"city","rank":3,"minzoom":6,"source":"book+web","confidence":"high","src":"point"},"geometry":{"type":"Point","coordinates":[10.9833,45.4333]}},{"type":"Feature","properties":{"id":"place:베르가모","layer":"settlements","name_ko":"베르가모","name_ancient":"Bergomum","name_modern":"베르가모, 이탈리아","kind":"city","rank":3,"minzoom":6,"source":"book+web","confidence":"high","src":"point"},"geometry":{"type":"Point","coordinates":[9.67,45.695]}},{"type":"Feature","properties":{"id":"place:베지에","layer":"settlements","name_ko":"베지에","name_ancient":"Baeterrae","name_modern":"베지에, 프랑스","kind":"city","rank":3,"minzoom":6,"source":"book+web","confidence":"high","src":"point"},"geometry":{"type":"Point","coordinates":[3.214,43.3412]}},{"type":"Feature","properties":{"id":"place:보르도","layer":"settlements","name_ko":"보르도","name_ancient":"Burdigala","name_modern":"보르도, 프랑스","kind":"city","rank":3,"minzoom":6,"source":"book+web","confidence":"high","src":"point"},"geometry":{"type":"Point","coordinates":[-0.57,44.84]}},{"type":"Feature","properties":{"id":"place:보스포루스해협","layer":"settlements","name_ko":"보스포루스 해협","name_ancient":"Bosporus","name_modern":"보스포루스 해협, 튀르키예","kind":"sea","rank":2,"minzoom":4,"source":"book+web","confidence":"high","src":"point"},"geometry":{"type":"Point","coordinates":[28.9802,41.0086]}},{"type":"Feature","properties":{"id":"place:본곶","layer":"settlements","name_ko":"본 곶","name_ancient":"Bononia","name_modern":"불로뉴쉬르메르, 프랑스","kind":"cape","rank":3,"minzoom":6,"source":"book+web","confidence":"medium","src":"point"},"geometry":{"type":"Point","coordinates":[1.57,50.72]}},{"type":"Feature","properties":{"id":"place:북아프리카","layer":"settlements","name_ko":"북아프리카","name_ancient":"Africa Romana","name_modern":"알제리·튀니지·리비아","kind":"region","rank":2,"minzoom":4,"source":"book+web","confidence":"low","src":"point"},"geometry":{"type":"Point","coordinates":[5,35]}},{"type":"Feature","properties":{"id":"place:브레시아","layer":"settlements","name_ko":"브레시아","name_ancient":"Brixia","name_modern":"브레시아, 이탈리아","kind":"city","rank":3,"minzoom":6,"source":"book+web","confidence":"high","src":"point"},"geometry":{"type":"Point","coordinates":[10.2147,45.5356]}},{"type":"Feature","properties":{"id":"place:브리타니아","layer":"settlements","name_ko":"브리타니아","name_ancient":"Britannia","name_modern":"영국","kind":"region","rank":1,"minzoom":0,"source":"book+web","confidence":"high","src":"point"},"geometry":{"type":"Point","coordinates":[-0.0889,51.5133]}},{"type":"Feature","properties":{"id":"place:브린디시","layer":"settlements","name_ko":"브린디시","name_ancient":"Brundisium","name_modern":"브린디시, 이탈리아","kind":"city","rank":3,"minzoom":6,"source":"book+web","confidence":"high","src":"point"},"geometry":{"type":"Point","coordinates":[17.933,40.633]}},{"type":"Feature","properties":{"id":"place:비샤푸르","layer":"settlements","name_ko":"비샤푸르","name_ancient":"Bishapur","name_modern":"카즈룬, 이란","kind":"city","rank":3,"minzoom":6,"source":"book+web","confidence":"high","src":"point"},"geometry":{"type":"Point","coordinates":[52.8,28.9]}},{"type":"Feature","properties":{"id":"place:비수아강","layer":"settlements","name_ko":"비수아 강","name_ancient":"Vistula","name_modern":"비수와 강, 폴란드","kind":"river","rank":3,"minzoom":6,"source":"book+web","confidence":"high","src":"point"},"geometry":{"type":"Point","coordinates":[18.9519,54.3617]}},{"type":"Feature","properties":{"id":"place:비엔나","layer":"settlements","name_ko":"비엔나","name_ancient":"Vindobona","name_modern":"빈, 오스트리아","kind":"city","rank":3,"minzoom":6,"source":"book+web","confidence":"high","src":"point"},"geometry":{"type":"Point","coordinates":[16.3703,48.2108]}},{"type":"Feature","properties":{"id":"place:비잔티움","layer":"settlements","name_ko":"비잔티움","name_ancient":"Byzantium","name_modern":"이스탄불, 튀르키예","kind":"city","rank":3,"minzoom":6,"source":"book+web","confidence":"high","src":"point"},"geometry":{"type":"Point","coordinates":[28.9799,41.0085]}},{"type":"Feature","properties":{"id":"place:사군툼","layer":"settlements","name_ko":"사군툼","name_ancient":"Saguntum","name_modern":"사곤토, 스페인","kind":"city","rank":3,"minzoom":6,"source":"book+web","confidence":"high","src":"point"},"geometry":{"type":"Point","coordinates":[-0.2783,39.68]}},{"type":"Feature","properties":{"id":"place:사르데냐섬","layer":"settlements","name_ko":"사르데냐 섬","name_ancient":"Sardinia","name_modern":"사르데냐, 이탈리아","kind":"island","rank":3,"minzoom":6,"source":"book+web","confidence":"high","src":"point"},"geometry":{"type":"Point","coordinates":[9,40]}},{"type":"Feature","properties":{"id":"place:사브라타","layer":"settlements","name_ko":"사브라타","name_ancient":"Sabratha","name_modern":"사브라타, 리비아","kind":"city","rank":3,"minzoom":6,"source":"book+web","confidence":"high","src":"point"},"geometry":{"type":"Point","coordinates":[12.4885,32.7933]}},{"type":"Feature","properties":{"id":"place:사산조페르시아","layer":"settlements","name_ko":"사산조 페르시아","name_ancient":"Ctesiphon (수도)","name_modern":"살만 팍, 이라크 (바그다드 남동 35km)","kind":"region","rank":3,"minzoom":6,"source":"book+web","confidence":"medium","src":"point"},"geometry":{"type":"Point","coordinates":[44.5806,33.0936]}},{"type":"Feature","properties":{"id":"place:산비탈레성당","layer":"settlements","name_ko":"산비탈레 성당","name_ancient":"Basilica Sancti Vitalis","name_modern":"라벤나, 이탈리아","kind":"building","rank":3,"minzoom":6,"source":"book+web","confidence":"high","src":"point"},"geometry":{"type":"Point","coordinates":[12.201,44.4136]}},{"type":"Feature","properties":{"id":"place:성로마누스교회","layer":"settlements","name_ko":"성 로마누스 교회","name_ancient":"","name_modern":"콘스탄티노플, 현 이스탄불","kind":"building","rank":3,"minzoom":6,"source":"book+web","confidence":"low","src":"point"},"geometry":{"type":"Point","coordinates":[28.98,41.008]}},{"type":"Feature","properties":{"id":"place:성로마누스문","layer":"settlements","name_ko":"성 로마누스 문","name_ancient":"Porta Romana","name_modern":"콘스탄티노플 성벽, 터키","kind":"building","rank":3,"minzoom":6,"source":"book+web","confidence":"medium","src":"point"},"geometry":{"type":"Point","coordinates":[28.97,41.02]}},{"type":"Feature","properties":{"id":"place:성소피아성당","layer":"settlements","name_ko":"성 소피아 성당","name_ancient":"Hagia Sophia / Sancta Sophia","name_modern":"이스탄불 파티흐구, 튀르키예","kind":"building","rank":3,"minzoom":6,"source":"book+web","confidence":"high","src":"point"},"geometry":{"type":"Point","coordinates":[28.98,41.0083]}},{"type":"Feature","properties":{"id":"place:세비야","layer":"settlements","name_ko":"세비야","name_ancient":"Hispalis","name_modern":"세비야, 스페인","kind":"city","rank":3,"minzoom":6,"source":"book+web","confidence":"high","src":"point"},"geometry":{"type":"Point","coordinates":[-5.9732,37.3828]}},{"type":"Feature","properties":{"id":"place:셀리누스","layer":"settlements","name_ko":"셀리누스","name_ancient":"Selinus","name_modern":"셀리눈테, 시칠리아","kind":"city","rank":3,"minzoom":6,"source":"book+web","confidence":"high","src":"point"},"geometry":{"type":"Point","coordinates":[12.8286,37.586]}},{"type":"Feature","properties":{"id":"place:소아시아","layer":"settlements","name_ko":"소아시아","name_ancient":"Asia Minor","name_modern":"아나톨리아, 터키","kind":"region","rank":1,"minzoom":0,"source":"book+web","confidence":"medium","src":"point"},"geometry":{"type":"Point","coordinates":[35,39]}},{"type":"Feature","properties":{"id":"place:수사","layer":"settlements","name_ko":"수사","name_ancient":"Susa","name_modern":"수산, 이란","kind":"city","rank":3,"minzoom":6,"source":"book+web","confidence":"high","src":"point"},"geometry":{"type":"Point","coordinates":[48.26,32.19]}},{"type":"Feature","properties":{"id":"place:스칸디나비아반도","layer":"settlements","name_ko":"스칸디나비아 반도","name_ancient":"Scandia / Scandza","name_modern":"노르웨이·스웨덴·핀란드 북서부","kind":"region","rank":3,"minzoom":6,"source":"book+web","confidence":"medium","src":"point"},"geometry":{"type":"Point","coordinates":[14,63]}},{"type":"Feature","properties":{"id":"place:스키타이","layer":"settlements","name_ko":"스키타이","name_ancient":"Scythia","name_modern":"북흑해 지역","kind":"region","rank":3,"minzoom":6,"source":"book+web","confidence":"high","src":"point"},"geometry":{"type":"Point","coordinates":[29.4751,46.6887]}},{"type":"Feature","properties":{"id":"place:스트라스부르","layer":"settlements","name_ko":"스트라스부르","name_ancient":"Argentoratum","name_modern":"스트라스부르, 프랑스","kind":"city","rank":3,"minzoom":6,"source":"book+web","confidence":"high","src":"point"},"geometry":{"type":"Point","coordinates":[7.75,48.58]}},{"type":"Feature","properties":{"id":"place:스폴레토","layer":"settlements","name_ko":"스폴레토","name_ancient":"Spoletium","name_modern":"스폴레토, 이탈리아","kind":"city","rank":3,"minzoom":6,"source":"book+web","confidence":"high","src":"point"},"geometry":{"type":"Point","coordinates":[12.7403,42.7352]}},{"type":"Feature","properties":{"id":"place:시라쿠사","layer":"settlements","name_ko":"시라쿠사","name_ancient":"Syracusae","name_modern":"시라쿠사, 이탈리아","kind":"city","rank":3,"minzoom":6,"source":"book+web","confidence":"high","src":"point"},"geometry":{"type":"Point","coordinates":[15.293,37.0639]}},{"type":"Feature","properties":{"id":"place:시리아","layer":"settlements","name_ko":"시리아","name_ancient":"Syria","name_modern":"시리아","kind":"region","rank":2,"minzoom":4,"source":"book+web","confidence":"medium","src":"point"},"geometry":{"type":"Point","coordinates":[36.15,36.2]}},{"type":"Feature","properties":{"id":"place:시칠리아","layer":"settlements","name_ko":"시칠리아","name_ancient":"Sicilia","name_modern":"시칠리아 섬, 이탈리아","kind":"island","rank":1,"minzoom":0,"source":"book+web","confidence":"medium","src":"point"},"geometry":{"type":"Point","coordinates":[14,37.5]}},{"type":"Feature","properties":{"id":"place:아그드","layer":"settlements","name_ko":"아그드","name_ancient":"Agatha","name_modern":"아그드, 프랑스","kind":"city","rank":3,"minzoom":6,"source":"book+web","confidence":"high","src":"point"},"geometry":{"type":"Point","coordinates":[3.4758,43.3108]}},{"type":"Feature","properties":{"id":"place:아그리젠토시","layer":"settlements","name_ko":"아그리젠토 시","name_ancient":"Akragas","name_modern":"아그리젠토, 이탈리아","kind":"city","rank":3,"minzoom":6,"source":"book+web","confidence":"high","src":"point"},"geometry":{"type":"Point","coordinates":[13.575,37.3125]}},{"type":"Feature","properties":{"id":"place:아드리아해","layer":"settlements","name_ko":"아드리아해","name_ancient":"Mare Adriaticum","name_modern":"이탈리아·알바니아·크로아티아","kind":"sea","rank":3,"minzoom":6,"source":"book+web","confidence":"medium","src":"point"},"geometry":{"type":"Point","coordinates":[16,43.5]}},{"type":"Feature","properties":{"id":"place:아라비아","layer":"settlements","name_ko":"아라비아","name_ancient":"Arabia","name_modern":"아라비아 반도 (사우디아라비아 등)","kind":"region","rank":3,"minzoom":6,"source":"book+web","confidence":"medium","src":"point"},"geometry":{"type":"Point","coordinates":[46,23]}},{"type":"Feature","properties":{"id":"place:아르메니아","layer":"settlements","name_ko":"아르메니아","name_ancient":"Armenia","name_modern":"아르메니아","kind":"region","rank":2,"minzoom":4,"source":"book+web","confidence":"medium","src":"point"},"geometry":{"type":"Point","coordinates":[45.0382,40.0691]}},{"type":"Feature","properties":{"id":"place:아를","layer":"settlements","name_ko":"아를","name_ancient":"Arelate","name_modern":"아를, 프랑스","kind":"city","rank":3,"minzoom":6,"source":"book+web","confidence":"high","src":"point"},"geometry":{"type":"Point","coordinates":[4.6256,43.677]}},{"type":"Feature","properties":{"id":"place:아스완제1폭포","layer":"settlements","name_ko":"아스완 제1폭포","name_ancient":"Cataractae","name_modern":"아스완, 이집트","kind":"river","rank":3,"minzoom":6,"source":"book+web","confidence":"medium","src":"point"},"geometry":{"type":"Point","coordinates":[32.878,24.078]}},{"type":"Feature","properties":{"id":"place:아시아","layer":"settlements","name_ko":"아시아","name_ancient":"Asia (provincia)","name_modern":"아나톨리아 서부, 튀르키예 (대표점: 에페소스)","kind":"region","rank":2,"minzoom":4,"source":"book+web","confidence":"medium","src":"point"},"geometry":{"type":"Point","coordinates":[27.3419,37.9411]}},{"type":"Feature","properties":{"id":"place:아테네","layer":"settlements","name_ko":"아테네","name_ancient":"Athenae","name_modern":"아테네, 그리스","kind":"city","rank":3,"minzoom":6,"source":"book+web","confidence":"high","src":"point"},"geometry":{"type":"Point","coordinates":[23.7275,37.9838]}},{"type":"Feature","properties":{"id":"place:아펜니노산맥","layer":"settlements","name_ko":"아펜니노 산맥","name_ancient":"Apennini","name_modern":"이탈리아","kind":"mountain","rank":3,"minzoom":6,"source":"book+web","confidence":"medium","src":"point"},"geometry":{"type":"Point","coordinates":[12.5758,43.2757]}},{"type":"Feature","properties":{"id":"place:아풀리아","layer":"settlements","name_ko":"아풀리아","name_ancient":"Apulia","name_modern":"아풀리아, 이탈리아","kind":"region","rank":3,"minzoom":6,"source":"book+web","confidence":"high","src":"point"},"geometry":{"type":"Point","coordinates":[16.5077,41.0052]}},{"type":"Feature","properties":{"id":"place:아프라시아브","layer":"settlements","name_ko":"아프라시아브","name_ancient":"Maracanda (Afrasiab)","name_modern":"사마르칸트 북부 아프라시아브 유적, 우즈베키스탄","kind":"city","rank":3,"minzoom":6,"source":"book+web","confidence":"high","src":"point"},"geometry":{"type":"Point","coordinates":[66.9878,39.6714]}},{"type":"Feature","properties":{"id":"place:아프리카","layer":"settlements","name_ko":"아프리카","name_ancient":"Africa Proconsularis","name_modern":"튀니지","kind":"region","rank":2,"minzoom":4,"source":"book+web","confidence":"high","src":"point"},"geometry":{"type":"Point","coordinates":[10.3205,36.8518]}},{"type":"Feature","properties":{"id":"place:안티오키아","layer":"settlements","name_ko":"안티오키아","name_ancient":"Antiochia","name_modern":"안타키아, 튀르키예","kind":"city","rank":2,"minzoom":4,"source":"book+web","confidence":"high","src":"point"},"geometry":{"type":"Point","coordinates":[36.1572,36.2066]}},{"type":"Feature","properties":{"id":"place:안티움","layer":"settlements","name_ko":"안티움","name_ancient":"Antium","name_modern":"안치오, 이탈리아","kind":"city","rank":3,"minzoom":6,"source":"book+web","confidence":"high","src":"point"},"geometry":{"type":"Point","coordinates":[12.6291,41.4479]}},{"type":"Feature","properties":{"id":"place:알레시아","layer":"settlements","name_ko":"알레시아","name_ancient":"Alesia","name_modern":"알리세-생트-렌, 프랑스","kind":"city","rank":3,"minzoom":6,"source":"book+web","confidence":"high","src":"point"},"geometry":{"type":"Point","coordinates":[4.5006,47.5392]}},{"type":"Feature","properties":{"id":"place:알렉산드리아","layer":"settlements","name_ko":"알렉산드리아","name_ancient":"Alexandria","name_modern":"알렉산드리아, 이집트","kind":"city","rank":2,"minzoom":4,"source":"book+web","confidence":"high","src":"point"},"geometry":{"type":"Point","coordinates":[29.9079,31.1982]}},{"type":"Feature","properties":{"id":"place:알리칸테","layer":"settlements","name_ko":"알리칸테","name_ancient":"Lucentum","name_modern":"알리칸테, 스페인","kind":"city","rank":3,"minzoom":6,"source":"book+web","confidence":"high","src":"point"},"geometry":{"type":"Point","coordinates":[-0.4831,38.3453]}},{"type":"Feature","properties":{"id":"place:알프스","layer":"settlements","name_ko":"알프스","name_ancient":"Alpes","name_modern":"프랑스·스위스·이탈리아","kind":"mountain","rank":2,"minzoom":4,"source":"book+web","confidence":"medium","src":"point"},"geometry":{"type":"Point","coordinates":[6.8839,45.6806]}},{"type":"Feature","properties":{"id":"place:에게해","layer":"settlements","name_ko":"에게해","name_ancient":"Aegaeum Mare","name_modern":"에게해 (그리스·튀르키예 사이)","kind":"sea","rank":3,"minzoom":6,"source":"book+web","confidence":"medium","src":"point"},"geometry":{"type":"Point","coordinates":[25,39]}},{"type":"Feature","properties":{"id":"place:에데사","layer":"settlements","name_ko":"에데사","name_ancient":"Edessa","name_modern":"우르파(샨르우르파), 튀르키예","kind":"city","rank":3,"minzoom":6,"source":"book+web","confidence":"high","src":"point"},"geometry":{"type":"Point","coordinates":[38.7855,37.163]}},{"type":"Feature","properties":{"id":"place:에메사","layer":"settlements","name_ko":"에메사","name_ancient":"Emesa","name_modern":"홈스, 시리아","kind":"city","rank":3,"minzoom":6,"source":"book+web","confidence":"high","src":"point"},"geometry":{"type":"Point","coordinates":[36.714,34.724]}},{"type":"Feature","properties":{"id":"place:에브로강","layer":"settlements","name_ko":"에브로 강","name_ancient":"Iberus","name_modern":"스페인","kind":"river","rank":3,"minzoom":6,"source":"book+web","confidence":"medium","src":"point"},"geometry":{"type":"Point","coordinates":[-1,40.72]}},{"type":"Feature","properties":{"id":"place:에스파냐","layer":"settlements","name_ko":"에스파냐","name_ancient":"Hispania","name_modern":"스페인","kind":"region","rank":1,"minzoom":0,"source":"book+web","confidence":"high","src":"point"},"geometry":{"type":"Point","coordinates":[-3.749,40.4636]}},{"type":"Feature","properties":{"id":"place:에크바타나","layer":"settlements","name_ko":"에크바타나","name_ancient":"Ecbatana","name_modern":"하마단, 이란","kind":"city","rank":3,"minzoom":6,"source":"book+web","confidence":"high","src":"point"},"geometry":{"type":"Point","coordinates":[48.52,34.81]}},{"type":"Feature","properties":{"id":"place:에페이로스","layer":"settlements","name_ko":"에페이로스","name_ancient":"Epiros","name_modern":"에페이로스, 그리스","kind":"region","rank":2,"minzoom":4,"source":"book+web","confidence":"high","src":"point"},"geometry":{"type":"Point","coordinates":[20.4,39.4]}},{"type":"Feature","properties":{"id":"place:예루살렘","layer":"settlements","name_ko":"예루살렘","name_ancient":"Hierosolyma","name_modern":"예루살렘","kind":"city","rank":3,"minzoom":6,"source":"book+web","confidence":"high","src":"point"},"geometry":{"type":"Point","coordinates":[35.2256,31.7789]}},{"type":"Feature","properties":{"id":"place:오데르강","layer":"settlements","name_ko":"오데르 강","name_ancient":"Viadrus","name_modern":"오데르 강, 폴란드","kind":"river","rank":3,"minzoom":6,"source":"book+web","confidence":"high","src":"point"},"geometry":{"type":"Point","coordinates":[14.5236,53.672]}},{"type":"Feature","properties":{"id":"place:오리엔트","layer":"settlements","name_ko":"오리엔트","name_ancient":"Oriens","name_modern":"시리아·소아시아 동부 일대 (대표점: 안타키아, 튀르키예)","kind":"region","rank":3,"minzoom":6,"source":"book+web","confidence":"low","src":"point"},"geometry":{"type":"Point","coordinates":[36.1817,36.2047]}},{"type":"Feature","properties":{"id":"place:오판토강","layer":"settlements","name_ko":"오판토 강","name_ancient":"Aufidus","name_modern":"오판토 강, 이탈리아","kind":"river","rank":3,"minzoom":6,"source":"book+web","confidence":"high","src":"point"},"geometry":{"type":"Point","coordinates":[16.02,41.2303]}},{"type":"Feature","properties":{"id":"place:요르단강","layer":"settlements","name_ko":"요르단 강","name_ancient":"Iordanes Flumen","name_modern":"이스라엘·팔레스타인·요르단","kind":"river","rank":3,"minzoom":6,"source":"book+web","confidence":"high","src":"point"},"geometry":{"type":"Point","coordinates":[35.6194,33.1875]}},{"type":"Feature","properties":{"id":"place:요크","layer":"settlements","name_ko":"요크","name_ancient":"Eboracum","name_modern":"요크, 영국","kind":"city","rank":3,"minzoom":6,"source":"book+web","confidence":"high","src":"point"},"geometry":{"type":"Point","coordinates":[-1.08,53.96]}},{"type":"Feature","properties":{"id":"place:우크라이나","layer":"settlements","name_ko":"우크라이나","name_ancient":"","name_modern":"우크라이나","kind":"region","rank":3,"minzoom":6,"source":"book+web","confidence":"low","src":"point"},"geometry":{"type":"Point","coordinates":[32,49]}},{"type":"Feature","properties":{"id":"place:우티카","layer":"settlements","name_ko":"우티카","name_ancient":"Utica","name_modern":"우티케, 튀니지","kind":"city","rank":3,"minzoom":6,"source":"book+web","confidence":"high","src":"point"},"geometry":{"type":"Point","coordinates":[10.0619,37.0569]}},{"type":"Feature","properties":{"id":"place:원형대경기장","layer":"settlements","name_ko":"원형 대경기장","name_ancient":"Circus Maximus","name_modern":"로마, 이탈리아","kind":"building","rank":3,"minzoom":6,"source":"book+web","confidence":"high","src":"point"},"geometry":{"type":"Point","coordinates":[12.4857,41.8859]}},{"type":"Feature","properties":{"id":"place:유다","layer":"settlements","name_ko":"유다","name_ancient":"Iudaea","name_modern":"이스라엘/팔레스타인","kind":"region","rank":3,"minzoom":6,"source":"book+web","confidence":"medium","src":"point"},"geometry":{"type":"Point","coordinates":[35.2,31.9]}},{"type":"Feature","properties":{"id":"place:유대","layer":"settlements","name_ko":"유대","name_ancient":"Judaea","name_modern":"유대, 현 이스라엘/팔레스타인","kind":"region","rank":3,"minzoom":6,"source":"book+web","confidence":"medium","src":"point"},"geometry":{"type":"Point","coordinates":[35.306,31.699]}},{"type":"Feature","properties":{"id":"place:유럽","layer":"settlements","name_ko":"유럽","name_ancient":"Europa","name_modern":"유럽","kind":"region","rank":3,"minzoom":6,"source":"book+web","confidence":"low","src":"point"},"geometry":{"type":"Point","coordinates":[10,50]}},{"type":"Feature","properties":{"id":"place:유프라테스강","layer":"settlements","name_ko":"유프라테스 강","name_ancient":"Euphrates","name_modern":"유프라테스 강, 이라크","kind":"river","rank":3,"minzoom":6,"source":"book+web","confidence":"high","src":"point"},"geometry":{"type":"Point","coordinates":[47.4419,31.005]}},{"type":"Feature","properties":{"id":"place:이오니아해","layer":"settlements","name_ko":"이오니아해","name_ancient":"Mare Ionium","name_modern":"이오니아해 (이탈리아·그리스 사이)","kind":"sea","rank":3,"minzoom":6,"source":"book+web","confidence":"medium","src":"point"},"geometry":{"type":"Point","coordinates":[19,38]}},{"type":"Feature","properties":{"id":"place:이집트","layer":"settlements","name_ko":"이집트","name_ancient":"Aegyptus","name_modern":"이집트","kind":"region","rank":1,"minzoom":0,"source":"book+web","confidence":"medium","src":"point"},"geometry":{"type":"Point","coordinates":[30,26]}},{"type":"Feature","properties":{"id":"place:이탈리아","layer":"settlements","name_ko":"이탈리아","name_ancient":"Italia","name_modern":"이탈리아","kind":"region","rank":2,"minzoom":4,"source":"book+web","confidence":"high","src":"point"},"geometry":{"type":"Point","coordinates":[12.8333,42.8333]}},{"type":"Feature","properties":{"id":"place:이탈리아반도","layer":"settlements","name_ko":"이탈리아 반도","name_ancient":"Italia","name_modern":"이탈리아","kind":"region","rank":3,"minzoom":6,"source":"book+web","confidence":"medium","src":"point"},"geometry":{"type":"Point","coordinates":[12,42.5]}},{"type":"Feature","properties":{"id":"place:인도","layer":"settlements","name_ko":"인도","name_ancient":"India","name_modern":"인도","kind":"region","rank":3,"minzoom":6,"source":"book+web","confidence":"medium","src":"point"},"geometry":{"type":"Point","coordinates":[79.5333,20.6367]}},{"type":"Feature","properties":{"id":"place:인도양","layer":"settlements","name_ko":"인도양","name_ancient":"","name_modern":"인도양","kind":"sea","rank":3,"minzoom":6,"source":"book+web","confidence":"low","src":"point"},"geometry":{"type":"Point","coordinates":[70,20]}},{"type":"Feature","properties":{"id":"place:일레르다","layer":"settlements","name_ko":"일레르다","name_ancient":"Ilerda","name_modern":"레이다, 스페인","kind":"city","rank":3,"minzoom":6,"source":"book+web","confidence":"high","src":"point"},"geometry":{"type":"Point","coordinates":[-1,41.3667]}},{"type":"Feature","properties":{"id":"place:일리리아","layer":"settlements","name_ko":"일리리아","name_ancient":"Illyricum","name_modern":"알바니아·크로아티아·보스니아","kind":"region","rank":3,"minzoom":6,"source":"book+web","confidence":"medium","src":"point"},"geometry":{"type":"Point","coordinates":[17.3294,43.8044]}},{"type":"Feature","properties":{"id":"place:일리리쿰","layer":"settlements","name_ko":"일리리쿰","name_ancient":"Illyricum","name_modern":"크로아티아","kind":"region","rank":3,"minzoom":6,"source":"book+web","confidence":"medium","src":"point"},"geometry":{"type":"Point","coordinates":[16.4831,43.5394]}},{"type":"Feature","properties":{"id":"place:자마","layer":"settlements","name_ko":"자마","name_ancient":"Zama","name_modern":"튀니지","kind":"battlefield","rank":3,"minzoom":6,"source":"book+web","confidence":"high","src":"point"},"geometry":{"type":"Point","coordinates":[9.4492,36.2989]}},{"type":"Feature","properties":{"id":"place:장안","layer":"settlements","name_ko":"장안","name_ancient":"長安","name_modern":"시안, 중국 산시성","kind":"city","rank":3,"minzoom":6,"source":"book+web","confidence":"high","src":"point"},"geometry":{"type":"Point","coordinates":[108.8583,34.3083]}},{"type":"Feature","properties":{"id":"place:젤라","layer":"settlements","name_ko":"젤라","name_ancient":"Zela","name_modern":"질레, 터키","kind":"battlefield","rank":3,"minzoom":6,"source":"book+web","confidence":"high","src":"point"},"geometry":{"type":"Point","coordinates":[35.883,40.3]}},{"type":"Feature","properties":{"id":"place:중국","layer":"settlements","name_ko":"중국","name_ancient":"Seres","name_modern":"중국","kind":"region","rank":3,"minzoom":6,"source":"book+web","confidence":"medium","src":"point"},"geometry":{"type":"Point","coordinates":[105,35]}},{"type":"Feature","properties":{"id":"place:중동","layer":"settlements","name_ko":"중동","name_ancient":"","name_modern":"중동 지역","kind":"region","rank":3,"minzoom":6,"source":"book+web","confidence":"low","src":"point"},"geometry":{"type":"Point","coordinates":[36,33]}},{"type":"Feature","properties":{"id":"place:지중해","layer":"settlements","name_ko":"지중해","name_ancient":"Mare Mediterraneum","name_modern":"지중해","kind":"sea","rank":3,"minzoom":6,"source":"book+web","confidence":"high","src":"point"},"geometry":{"type":"Point","coordinates":[18,35]}},{"type":"Feature","properties":{"id":"place:카디스","layer":"settlements","name_ko":"카디스","name_ancient":"Gades","name_modern":"카디스, 스페인","kind":"city","rank":3,"minzoom":6,"source":"book+web","confidence":"high","src":"point"},"geometry":{"type":"Point","coordinates":[-6.2947,36.5298]}},{"type":"Feature","properties":{"id":"place:카르타고","layer":"settlements","name_ko":"카르타고","name_ancient":"Carthago","name_modern":"카르타고, 튀니지 (튀니스 북동 15km)","kind":"city","rank":2,"minzoom":4,"source":"book+web","confidence":"high","src":"point"},"geometry":{"type":"Point","coordinates":[10.3233,36.8528]}},{"type":"Feature","properties":{"id":"place:카르타헤나","layer":"settlements","name_ko":"카르타헤나","name_ancient":"Carthago Nova (Qart Hadasht)","name_modern":"카르타헤나, 무르시아, 스페인","kind":"city","rank":3,"minzoom":6,"source":"book+web","confidence":"high","src":"point"},"geometry":{"type":"Point","coordinates":[-0.9842,37.6019]}},{"type":"Feature","properties":{"id":"place:카바신전","layer":"settlements","name_ko":"카바 신전","name_ancient":"","name_modern":"메카, 사우디아라비아","kind":"building","rank":3,"minzoom":6,"source":"book+web","confidence":"high","src":"point"},"geometry":{"type":"Point","coordinates":[39.8223,21.4225]}},{"type":"Feature","properties":{"id":"place:카스피해","layer":"settlements","name_ko":"카스피해","name_ancient":"Mare Caspium / Mare Hyrcanum","name_modern":"카스피해 (러시아·카자흐스탄·투르크메니스탄·이란·아제르바이잔)","kind":"sea","rank":3,"minzoom":6,"source":"book+web","confidence":"medium","src":"point"},"geometry":{"type":"Point","coordinates":[50.5,42]}},{"type":"Feature","properties":{"id":"place:카이사레아","layer":"settlements","name_ko":"카이사레아","name_ancient":"Caesarea","name_modern":"카이세리, 튀르키예","kind":"city","rank":3,"minzoom":6,"source":"book+web","confidence":"high","src":"point"},"geometry":{"type":"Point","coordinates":[35.4875,38.7225]}},{"type":"Feature","properties":{"id":"place:카파도키아","layer":"settlements","name_ko":"카파도키아","name_ancient":"Cappadocia","name_modern":"카이세리, 튀르키예","kind":"region","rank":3,"minzoom":6,"source":"book+web","confidence":"high","src":"point"},"geometry":{"type":"Point","coordinates":[35.4875,38.7225]}},{"type":"Feature","properties":{"id":"place:카푸아","layer":"settlements","name_ko":"카푸아","name_ancient":"Capua","name_modern":"산타 마리아 카푸아 베테레, 이탈리아","kind":"city","rank":3,"minzoom":6,"source":"book+web","confidence":"high","src":"point"},"geometry":{"type":"Point","coordinates":[14.25,41.086]}},{"type":"Feature","properties":{"id":"place:카푸트바다","layer":"settlements","name_ko":"카푸트바다","name_ancient":"Caput Vada","name_modern":"셰바, 튀니지","kind":"city","rank":3,"minzoom":6,"source":"book+web","confidence":"high","src":"point"},"geometry":{"type":"Point","coordinates":[11.12,35.24]}},{"type":"Feature","properties":{"id":"place:카프리섬","layer":"settlements","name_ko":"카프리 섬","name_ancient":"Capreae","name_modern":"카프리, 이탈리아","kind":"island","rank":3,"minzoom":6,"source":"book+web","confidence":"high","src":"point"},"geometry":{"type":"Point","coordinates":[14.2333,40.55]}},{"type":"Feature","properties":{"id":"place:칸나이평원","layer":"settlements","name_ko":"칸나이 평원","name_ancient":"Cannae","name_modern":"바를레타 인근, 풀리아주, 이탈리아","kind":"battlefield","rank":3,"minzoom":6,"source":"book+web","confidence":"high","src":"point"},"geometry":{"type":"Point","coordinates":[16.1325,41.3064]}},{"type":"Feature","properties":{"id":"place:칼케돈","layer":"settlements","name_ko":"칼케돈","name_ancient":"Chalcedon","name_modern":"카디쾨이, 튀르키예","kind":"city","rank":3,"minzoom":6,"source":"book+web","confidence":"medium","src":"point"},"geometry":{"type":"Point","coordinates":[29,41.03]}},{"type":"Feature","properties":{"id":"place:캄파니아","layer":"settlements","name_ko":"캄파니아","name_ancient":"Campania","name_modern":"캄파니아 주, 이탈리아","kind":"region","rank":2,"minzoom":4,"source":"book+web","confidence":"medium","src":"point"},"geometry":{"type":"Point","coordinates":[14.95,40.75]}},{"type":"Feature","properties":{"id":"place:코르도바","layer":"settlements","name_ko":"코르도바","name_ancient":"Corduba","name_modern":"코르도바, 스페인","kind":"city","rank":3,"minzoom":6,"source":"book+web","confidence":"high","src":"point"},"geometry":{"type":"Point","coordinates":[-4.7764,37.8847]}},{"type":"Feature","properties":{"id":"place:코르시카","layer":"settlements","name_ko":"코르시카","name_ancient":"Corsica","name_modern":"코르시카, 프랑스","kind":"island","rank":3,"minzoom":6,"source":"book+web","confidence":"high","src":"point"},"geometry":{"type":"Point","coordinates":[9.0136,42.0406]}},{"type":"Feature","properties":{"id":"place:콘센티아","layer":"settlements","name_ko":"콘센티아","name_ancient":"Consentia","name_modern":"코젠차, 이탈리아","kind":"city","rank":3,"minzoom":6,"source":"book+web","confidence":"high","src":"point"},"geometry":{"type":"Point","coordinates":[16.2,39.3]}},{"type":"Feature","properties":{"id":"place:콘스탄티노플","layer":"settlements","name_ko":"콘스탄티노플","name_ancient":"Constantinopolis","name_modern":"이스탄불, 터키","kind":"city","rank":1,"minzoom":0,"source":"book+web","confidence":"high","src":"point"},"geometry":{"type":"Point","coordinates":[28.9498,41.0198]}},{"type":"Feature","properties":{"id":"place:콜로세움","layer":"settlements","name_ko":"콜로세움","name_ancient":"Amphitheatrum Flavium","name_modern":"로마, 이탈리아","kind":"building","rank":3,"minzoom":6,"source":"book+web","confidence":"high","src":"point"},"geometry":{"type":"Point","coordinates":[12.4922,41.8903]}},{"type":"Feature","properties":{"id":"place:쾰른","layer":"settlements","name_ko":"쾰른","name_ancient":"Colonia Agrippina","name_modern":"쾰른, 독일","kind":"city","rank":3,"minzoom":6,"source":"book+web","confidence":"high","src":"point"},"geometry":{"type":"Point","coordinates":[6.9603,50.9375]}},{"type":"Feature","properties":{"id":"place:크레모나","layer":"settlements","name_ko":"크레모나","name_ancient":"Cremona","name_modern":"크레모나, 이탈리아","kind":"city","rank":3,"minzoom":6,"source":"book+web","confidence":"high","src":"point"},"geometry":{"type":"Point","coordinates":[10.0261,45.1339]}},{"type":"Feature","properties":{"id":"place:크레타섬","layer":"settlements","name_ko":"크레타 섬","name_ancient":"Creta","name_modern":"크레타, 그리스","kind":"island","rank":3,"minzoom":6,"source":"book+web","confidence":"medium","src":"point"},"geometry":{"type":"Point","coordinates":[22.5,37.5]}},{"type":"Feature","properties":{"id":"place:크로톤","layer":"settlements","name_ko":"크로톤","name_ancient":"Croton","name_modern":"크로톤, 이탈리아","kind":"city","rank":3,"minzoom":6,"source":"book+web","confidence":"high","src":"point"},"geometry":{"type":"Point","coordinates":[17.12,39.08]}},{"type":"Feature","properties":{"id":"place:크테시폰","layer":"settlements","name_ko":"크테시폰","name_ancient":"Ctesiphon","name_modern":"살만 팍, 이라크","kind":"city","rank":3,"minzoom":6,"source":"book+web","confidence":"high","src":"point"},"geometry":{"type":"Point","coordinates":[44.58,33.28]}},{"type":"Feature","properties":{"id":"place:키르쿠스플라미니우스","layer":"settlements","name_ko":"키르쿠스 플라미니우스","name_ancient":"Circus Flaminius","name_modern":"로마, 이탈리아","kind":"building","rank":3,"minzoom":6,"source":"book+web","confidence":"high","src":"point"},"geometry":{"type":"Point","coordinates":[12.477,41.893]}},{"type":"Feature","properties":{"id":"place:키르키스고원","layer":"settlements","name_ko":"키르키스 고원","name_ancient":"","name_modern":"톈산, 키르기스스탄","kind":"mountain","rank":3,"minzoom":6,"source":"book+web","confidence":"medium","src":"point"},"geometry":{"type":"Point","coordinates":[80,42]}},{"type":"Feature","properties":{"id":"place:키프로스","layer":"settlements","name_ko":"키프로스","name_ancient":"Cyprus","name_modern":"키프로스","kind":"island","rank":3,"minzoom":6,"source":"book+web","confidence":"medium","src":"point"},"geometry":{"type":"Point","coordinates":[33,35]}},{"type":"Feature","properties":{"id":"place:킬리키아","layer":"settlements","name_ko":"킬리키아","name_ancient":"Cilicia","name_modern":"터키 남부","kind":"region","rank":3,"minzoom":6,"source":"book+web","confidence":"high","src":"point"},"geometry":{"type":"Point","coordinates":[34.01,37.01]}},{"type":"Feature","properties":{"id":"place:타란토","layer":"settlements","name_ko":"타란토","name_ancient":"Tarentum","name_modern":"타란토, 이탈리아","kind":"city","rank":3,"minzoom":6,"source":"book+web","confidence":"high","src":"point"},"geometry":{"type":"Point","coordinates":[17.2431,40.4711]}},{"type":"Feature","properties":{"id":"place:타르수스","layer":"settlements","name_ko":"타르수스","name_ancient":"Tarsus","name_modern":"타르수스, 튀르키예","kind":"city","rank":3,"minzoom":6,"source":"book+web","confidence":"high","src":"point"},"geometry":{"type":"Point","coordinates":[34.8958,36.9122]}},{"type":"Feature","properties":{"id":"place:타프수스","layer":"settlements","name_ko":"타프수스","name_ancient":"Thapsus","name_modern":"튀니지","kind":"city","rank":3,"minzoom":6,"source":"book+web","confidence":"high","src":"point"},"geometry":{"type":"Point","coordinates":[11.0417,35.6208]}},{"type":"Feature","properties":{"id":"place:탄아이스","layer":"settlements","name_ko":"탄아이스","name_ancient":"Tanais","name_modern":"돈 강 삼각주, 러시아","kind":"city","rank":3,"minzoom":6,"source":"book+web","confidence":"medium","src":"point"},"geometry":{"type":"Point","coordinates":[39.2,47.1]}},{"type":"Feature","properties":{"id":"place:탈라모네","layer":"settlements","name_ko":"탈라모네","name_ancient":"Telamon","name_modern":"탈라모네, 토스카나주, 이탈리아","kind":"battlefield","rank":3,"minzoom":6,"source":"book+web","confidence":"high","src":"point"},"geometry":{"type":"Point","coordinates":[11.1328,42.5551]}},{"type":"Feature","properties":{"id":"place:터키","layer":"settlements","name_ko":"터키","name_ancient":"","name_modern":"튀르키예","kind":"region","rank":3,"minzoom":6,"source":"book+web","confidence":"low","src":"point"},"geometry":{"type":"Point","coordinates":[38.7855,37.163]}},{"type":"Feature","properties":{"id":"place:테르니","layer":"settlements","name_ko":"테르니","name_ancient":"Interamna","name_modern":"테르니, 이탈리아","kind":"city","rank":3,"minzoom":6,"source":"book+web","confidence":"high","src":"point"},"geometry":{"type":"Point","coordinates":[12.6406,42.5641]}},{"type":"Feature","properties":{"id":"place:테베","layer":"settlements","name_ko":"테베","name_ancient":"Thebes","name_modern":"룩소르, 이집트","kind":"city","rank":3,"minzoom":6,"source":"book+web","confidence":"high","src":"point"},"geometry":{"type":"Point","coordinates":[32.641,25.684]}},{"type":"Feature","properties":{"id":"place:테베레강","layer":"settlements","name_ko":"테베레 강","name_ancient":"Tiberis","name_modern":"로마, 이탈리아","kind":"river","rank":2,"minzoom":4,"source":"book+web","confidence":"high","src":"point"},"geometry":{"type":"Point","coordinates":[12.4755,41.8835]}},{"type":"Feature","properties":{"id":"place:테살로니카","layer":"settlements","name_ko":"테살로니카","name_ancient":"Thessalonica","name_modern":"테살로니키, 그리스","kind":"city","rank":3,"minzoom":6,"source":"book+web","confidence":"high","src":"point"},"geometry":{"type":"Point","coordinates":[22.9529,40.6283]}},{"type":"Feature","properties":{"id":"place:테살리아","layer":"settlements","name_ko":"테살리아","name_ancient":"Thessalia","name_modern":"테살리아, 그리스","kind":"region","rank":3,"minzoom":6,"source":"book+web","confidence":"high","src":"point"},"geometry":{"type":"Point","coordinates":[22.3,39.4]}},{"type":"Feature","properties":{"id":"place:토리노","layer":"settlements","name_ko":"토리노","name_ancient":"Augusta Taurinorum","name_modern":"토리노, 피에몬테, 이탈리아","kind":"city","rank":3,"minzoom":6,"source":"book+web","confidence":"high","src":"point"},"geometry":{"type":"Point","coordinates":[7.6761,45.0792]}},{"type":"Feature","properties":{"id":"place:톨레도","layer":"settlements","name_ko":"톨레도","name_ancient":"Toledo","name_modern":"톨레도, 스페인","kind":"city","rank":3,"minzoom":6,"source":"book+web","confidence":"high","src":"point"},"geometry":{"type":"Point","coordinates":[-4.0226,39.8581]}},{"type":"Feature","properties":{"id":"place:투르키스탄","layer":"settlements","name_ko":"투르키스탄","name_ancient":"Turán","name_modern":"투르키스탄, 카자흐스탄","kind":"region","rank":3,"minzoom":6,"source":"book+web","confidence":"low","src":"point"},"geometry":{"type":"Point","coordinates":[67,43]}},{"type":"Feature","properties":{"id":"place:툴루즈","layer":"settlements","name_ko":"툴루즈","name_ancient":"Tolosa","name_modern":"툴루즈, 프랑스","kind":"city","rank":3,"minzoom":6,"source":"book+web","confidence":"high","src":"point"},"geometry":{"type":"Point","coordinates":[1.4437,43.6043]}},{"type":"Feature","properties":{"id":"place:트라시메노호수","layer":"settlements","name_ko":"트라시메노 호수","name_ancient":"Lacus Trasimenus","name_modern":"트라시메노 호수, 이탈리아","kind":"battlefield","rank":3,"minzoom":6,"source":"book+web","confidence":"high","src":"point"},"geometry":{"type":"Point","coordinates":[12.1,43.14]}},{"type":"Feature","properties":{"id":"place:트라키아","layer":"settlements","name_ko":"트라키아","name_ancient":"Thracia","name_modern":"터키 북동부·불가리아","kind":"region","rank":2,"minzoom":4,"source":"book+web","confidence":"high","src":"point"},"geometry":{"type":"Point","coordinates":[22.5,42.5]}},{"type":"Feature","properties":{"id":"place:트란실바니아","layer":"settlements","name_ko":"트란실바니아","name_ancient":"Transylvania","name_modern":"클루즈나포카, 루마니아","kind":"region","rank":3,"minzoom":6,"source":"book+web","confidence":"medium","src":"point"},"geometry":{"type":"Point","coordinates":[24.5,46.3]}},{"type":"Feature","properties":{"id":"place:트레비아강","layer":"settlements","name_ko":"트레비아 강","name_ancient":"Trebia","name_modern":"이탈리아 북부","kind":"river","rank":3,"minzoom":6,"source":"book+web","confidence":"high","src":"point"},"geometry":{"type":"Point","coordinates":[9.5674,44.9885]}},{"type":"Feature","properties":{"id":"place:트리어","layer":"settlements","name_ko":"트리어","name_ancient":"Augusta Treverorum","name_modern":"트리어, 독일","kind":"city","rank":3,"minzoom":6,"source":"book+web","confidence":"high","src":"point"},"geometry":{"type":"Point","coordinates":[6.43,49.75]}},{"type":"Feature","properties":{"id":"place:티볼리","layer":"settlements","name_ko":"티볼리","name_ancient":"Tibur","name_modern":"티볼리, 라치오주, 이탈리아","kind":"city","rank":3,"minzoom":6,"source":"book+web","confidence":"high","src":"point"},"geometry":{"type":"Point","coordinates":[12.7981,41.9597]}},{"type":"Feature","properties":{"id":"place:티키누스강","layer":"settlements","name_ko":"티키누스 강","name_ancient":"Ticinus","name_modern":"이탈리아 북부","kind":"river","rank":3,"minzoom":6,"source":"book+web","confidence":"medium","src":"point"},"geometry":{"type":"Point","coordinates":[8.9,45.2]}},{"type":"Feature","properties":{"id":"place:파로스섬","layer":"settlements","name_ko":"파로스 섬","name_ancient":"Pharos","name_modern":"파로스, 이집트","kind":"island","rank":3,"minzoom":6,"source":"book+web","confidence":"high","src":"point"},"geometry":{"type":"Point","coordinates":[29.8856,31.213]}},{"type":"Feature","properties":{"id":"place:파르살루스","layer":"settlements","name_ko":"파르살루스","name_ancient":"Pharsalus","name_modern":"파르살라, 그리스","kind":"battlefield","rank":3,"minzoom":6,"source":"book+web","confidence":"high","src":"point"},"geometry":{"type":"Point","coordinates":[22.3833,39.3]}},{"type":"Feature","properties":{"id":"place:파비아","layer":"settlements","name_ko":"파비아","name_ancient":"Ticinum","name_modern":"파비아, 이탈리아","kind":"city","rank":3,"minzoom":6,"source":"book+web","confidence":"high","src":"point"},"geometry":{"type":"Point","coordinates":[9.15,45.1833]}},{"type":"Feature","properties":{"id":"place:팔레르모","layer":"settlements","name_ko":"팔레르모","name_ancient":"Panormus","name_modern":"팔레르모, 시칠리아 이탈리아","kind":"city","rank":3,"minzoom":6,"source":"book+web","confidence":"high","src":"point"},"geometry":{"type":"Point","coordinates":[13.363,38.118]}},{"type":"Feature","properties":{"id":"place:팔레스티나","layer":"settlements","name_ko":"팔레스티나","name_ancient":"Palestina","name_modern":"팔레스타인","kind":"region","rank":3,"minzoom":6,"source":"book+web","confidence":"high","src":"point"},"geometry":{"type":"Point","coordinates":[35.2332,31.9521]}},{"type":"Feature","properties":{"id":"place:팔미라","layer":"settlements","name_ko":"팔미라","name_ancient":"Palmyra / Tadmor","name_modern":"타드무르, 홈스주, 시리아","kind":"city","rank":3,"minzoom":6,"source":"book+web","confidence":"high","src":"point"},"geometry":{"type":"Point","coordinates":[38.2681,34.5514]}},{"type":"Feature","properties":{"id":"place:페니키아","layer":"settlements","name_ko":"페니키아","name_ancient":"Phoenicia","name_modern":"시리아·레바논","kind":"region","rank":3,"minzoom":6,"source":"book+web","confidence":"medium","src":"point"},"geometry":{"type":"Point","coordinates":[35.5,33.5]}},{"type":"Feature","properties":{"id":"place:페르시아","layer":"settlements","name_ko":"페르시아","name_ancient":"Persia","name_modern":"이란","kind":"region","rank":1,"minzoom":0,"source":"book+web","confidence":"medium","src":"point"},"geometry":{"type":"Point","coordinates":[54,32]}},{"type":"Feature","properties":{"id":"place:포강","layer":"settlements","name_ko":"포 강","name_ancient":"Padus","name_modern":"포 강, 이탈리아","kind":"river","rank":3,"minzoom":6,"source":"book+web","confidence":"high","src":"point"},"geometry":{"type":"Point","coordinates":[12.5415,44.9687]}},{"type":"Feature","properties":{"id":"place:포룸테레브로니","layer":"settlements","name_ko":"포룸 테레브로니","name_ancient":"Forum Terebronii / Abritus","name_modern":"라즈그라드, 불가리아","kind":"battlefield","rank":3,"minzoom":6,"source":"book+web","confidence":"medium","src":"point"},"geometry":{"type":"Point","coordinates":[26.37,43.5881]}},{"type":"Feature","properties":{"id":"place:폰투스","layer":"settlements","name_ko":"폰투스","name_ancient":"Pontus","name_modern":"터키 북부","kind":"region","rank":3,"minzoom":6,"source":"book+web","confidence":"high","src":"point"},"geometry":{"type":"Point","coordinates":[35.8333,40.65]}},{"type":"Feature","properties":{"id":"place:폴란드","layer":"settlements","name_ko":"폴란드","name_ancient":"","name_modern":"폴란드","kind":"region","rank":3,"minzoom":6,"source":"book+web","confidence":"low","src":"point"},"geometry":{"type":"Point","coordinates":[19.1,51.9]}},{"type":"Feature","properties":{"id":"place:폴렌티아","layer":"settlements","name_ko":"폴렌티아","name_ancient":"Pollentia","name_modern":"폴렌차, 이탈리아","kind":"city","rank":3,"minzoom":6,"source":"book+web","confidence":"high","src":"point"},"geometry":{"type":"Point","coordinates":[8.2,44.7]}},{"type":"Feature","properties":{"id":"place:폼페이","layer":"settlements","name_ko":"폼페이","name_ancient":"Pompeii","name_modern":"폼페이, 이탈리아","kind":"city","rank":3,"minzoom":6,"source":"book+web","confidence":"high","src":"point"},"geometry":{"type":"Point","coordinates":[14.4861,40.75]}},{"type":"Feature","properties":{"id":"place:푸키누스호수","layer":"settlements","name_ko":"푸키누스 호수","name_ancient":"Lacus Fucinus","name_modern":"푸치노 호수, 이탈리아","kind":"lake","rank":3,"minzoom":6,"source":"book+web","confidence":"high","src":"point"},"geometry":{"type":"Point","coordinates":[13.5472,41.995]}},{"type":"Feature","properties":{"id":"place:프로코네소스","layer":"settlements","name_ko":"프로코네소스","name_ancient":"Proconnesus","name_modern":"마르마라 섬, 튀르키예","kind":"island","rank":3,"minzoom":6,"source":"book+web","confidence":"high","src":"point"},"geometry":{"type":"Point","coordinates":[27.63,40.62]}},{"type":"Feature","properties":{"id":"place:필리포폴리스","layer":"settlements","name_ko":"필리포폴리스","name_ancient":"Philippopolis","name_modern":"플로브디프, 불가리아","kind":"city","rank":3,"minzoom":6,"source":"book+web","confidence":"high","src":"point"},"geometry":{"type":"Point","coordinates":[24.75,42.15]}},{"type":"Feature","properties":{"id":"place:필리피","layer":"settlements","name_ko":"필리피","name_ancient":"Philippoi","name_modern":"필리피, 그리스","kind":"city","rank":3,"minzoom":6,"source":"book+web","confidence":"high","src":"point"},"geometry":{"type":"Point","coordinates":[24.3387,41.0251]}},{"type":"Feature","properties":{"id":"place:하드리아노폴리스","layer":"settlements","name_ko":"하드리아노폴리스","name_ancient":"Hadrianopolis","name_modern":"에디르네, 터키","kind":"city","rank":3,"minzoom":6,"source":"book+web","confidence":"high","src":"point"},"geometry":{"type":"Point","coordinates":[26.5556,41.6769]}},{"type":"Feature","properties":{"id":"place:하이모이시아속주","layer":"settlements","name_ko":"하이모이시아 속주","name_ancient":"Haemimontus","name_modern":"에디르네, 튀르키예","kind":"region","rank":3,"minzoom":6,"source":"book+web","confidence":"high","src":"point"},"geometry":{"type":"Point","coordinates":[26.567,41.667]}},{"type":"Feature","properties":{"id":"place:헤라트","layer":"settlements","name_ko":"헤라트","name_ancient":"Herat","name_modern":"헤라트, 아프가니스탄","kind":"city","rank":3,"minzoom":6,"source":"book+web","confidence":"high","src":"point"},"geometry":{"type":"Point","coordinates":[62.2,34.35]}},{"type":"Feature","properties":{"id":"place:헬레스폰투스","layer":"settlements","name_ko":"헬레스폰투스","name_ancient":"Hellespontus","name_modern":"다르다넬스 해협, 차나칼레, 튀르키예","kind":"sea","rank":3,"minzoom":6,"source":"book+web","confidence":"medium","src":"point"},"geometry":{"type":"Point","coordinates":[26.4,40.2]}},{"type":"Feature","properties":{"id":"place:흑해","layer":"settlements","name_ko":"흑해","name_ancient":"Pontos Euxeinos","name_modern":"튀르키예·러시아·조지아 등","kind":"sea","rank":2,"minzoom":4,"source":"book+web","confidence":"medium","src":"point"},"geometry":{"type":"Point","coordinates":[36,43]}},{"type":"Feature","properties":{"id":"place:히포레기우스","layer":"settlements","name_ko":"히포 레기우스","name_ancient":"Hippo Regius","name_modern":"아나바, 알제리","kind":"city","rank":3,"minzoom":6,"source":"book+web","confidence":"high","src":"point"},"geometry":{"type":"Point","coordinates":[7.7667,36.9]}}]}