{"type":"FeatureCollection","features":[{"type":"Feature","geometry":{"type":"MultiPolygon","coordinates":[[[[38.2617,38.281],[38.2889,38.3253],[38.4645,38.4166],[38.5483,38.4209],[39.0625,38.1961],[39.1055,38.2082],[39.2801,38.5303],[39.3402,38.5844],[39.5142,38.6679],[39.6066,38.6741],[39.9003,38.5814],[39.9658,38.5911],[40.1566,38.7305],[40.2388,38.7572],[40.7015,38.758],[40.7559,38.7861],[40.8256,38.9065],[40.8964,38.9421],[41.425,38.8925],[41.4568,38.8998],[41.4598,38.918],[41.4737,38.9327],[41.5265,38.912],[41.6683,38.912],[41.7137,38.8834],[41.7511,38.76],[41.8165,38.722],[41.9635,38.722],[42.0573,38.7427],[42.6442,39.023],[42.7117,39.0204],[42.8539,38.9364],[42.9421,38.922],[43.1739,38.9715],[43.2218,38.9533],[43.2534,38.8888],[43.3155,38.8375],[44.2693,38.4798],[44.3269,38.4354],[44.4044,38.3127],[44.4553,38.27],[44.4339,38.1793],[44.3431,37.937],[44.3567,37.918],[44.4293,37.9166],[44.4958,37.8896],[44.5831,37.8102],[44.6232,37.7371],[44.6516,37.5526],[44.6877,37.5016],[44.8243,37.417],[44.866,37.3536],[44.8771,36.9702],[44.9042,36.9143],[45.0525,36.78],[45.0912,36.7131],[45.1217,36.5223],[45.1569,36.4699],[45.372,36.3213],[45.4009,36.2658],[45.3936,36.1951],[45.4015,36.178],[45.43,36.178],[45.4434,36.172],[45.4479,36.158],[45.4408,36.1186],[45.3945,36.0584],[45.405,36.0376],[46.2905,35.866],[46.3041,35.8539],[46.315,35.8209],[46.3089,35.8011],[46.1156,35.6524],[46.0815,35.5979],[46.0641,35.4874],[46.0841,35.4329],[46.2277,35.2945],[46.254,35.2347],[46.2504,35.1611],[46.1969,35.0976],[45.9503,35.0005],[45.9115,34.9564],[45.8837,34.7762],[45.897,34.7149],[46.1751,34.2715],[46.1921,34.1916],[46.1749,34.0823],[46.2012,34.058],[46.3359,34.058],[46.3507,34.0501],[46.3745,34.009],[46.3232,33.9366],[46.3326,33.9034],[46.7608,33.6851],[46.7881,33.6236],[46.7867,33.6085],[46.7186,33.4908],[46.7318,33.4557],[46.8001,33.4238],[46.8099,33.4119],[46.8218,33.3652],[46.8179,33.3489],[46.5921,33.0908],[46.5796,33.036],[46.6161,32.9202],[46.6078,32.8456],[46.4463,32.5842],[46.4235,32.5201],[46.4023,32.3362],[46.4131,32.2719],[46.6205,31.8312],[46.6187,31.8129],[46.5907,31.7749],[46.578,31.7677],[45.9735,31.7073],[45.9563,31.6842],[46.0408,31.5012],[46.0443,31.4263],[45.9703,31.2375],[45.9059,31.1916],[45.0653,31.1254],[44.9857,31.1503],[44.8289,31.2972],[44.7626,31.322],[44.6241,31.322],[44.5552,31.3578],[44.4606,31.5472],[44.4175,31.605],[43.1684,32.7683],[43.1015,32.8056],[42.7411,32.9131],[42.6743,32.962],[42.587,33.0962],[42.532,33.1426],[41.5206,33.6158],[41.4487,33.6639],[41.2288,33.868],[41.1613,33.9014],[40.9425,33.9468],[40.8846,33.9878],[40.8508,34.0554],[40.7999,34.0897],[40.502,34.1392],[40.4438,34.1909],[40.4128,34.3148],[40.3691,34.3519],[40.1525,34.3968],[40.0946,34.4378],[40.0602,34.5066],[40.0109,34.5508],[38.8346,35.0363],[38.7561,35.047],[38.228,34.9873],[38.1566,34.9596],[37.8056,34.6921],[37.7722,34.6409],[37.76,34.5727],[37.7187,34.5112],[37.3681,34.244],[37.3567,34.1998],[37.3883,34.141],[37.3873,34.1223],[37.3648,34.0898],[37.35,34.082],[37.2743,34.082],[37.2205,34.0547],[37.0864,33.8611],[37.0265,33.8056],[36.779,33.6582],[36.7521,33.6104],[36.7842,33.2976],[36.7782,33.2824],[36.7378,33.2465],[35.8141,33.242],[35.7655,33.2609],[35.7547,33.28],[35.7635,33.3237],[35.8005,33.3691],[35.9745,33.5069],[36.0063,33.5615],[36.0309,33.7694],[36.0527,33.8215],[36.1951,34.0746],[36.2163,34.1396],[36.2576,34.5113],[36.2484,34.532],[36.2088,34.5359],[36.1949,34.5904],[36.2788,34.8346],[36.2612,34.8743],[36.197,34.9064],[36.1566,34.9664],[36.1602,35.095],[36.1965,35.1634],[36.3042,35.2476],[36.3363,35.3016],[36.3479,35.4116],[36.3257,35.4666],[36.2504,35.5366],[36.188,35.551],[36.0353,35.5129],[35.9375,35.502],[35.9221,35.5108],[35.9008,35.5466],[35.8659,35.8623],[35.8836,35.9074],[35.9,35.918],[35.9303,35.918],[35.9459,35.9419],[35.9683,36.1815],[35.9458,36.2365],[35.8669,36.3098],[35.8612,36.3251],[35.867,36.3742],[35.8752,36.3873],[36.2111,36.6003],[36.233,36.6473],[36.1906,36.8306],[36.1958,36.85],[36.8843,37.1663],[37.5736,37.5926],[37.6407,37.6459],[38.065,38.079],[38.0682,38.108],[38.1883,38.108],[38.2417,38.1347],[38.2893,38.1966],[38.2936,38.231],[38.2648,38.2598],[38.2617,38.281]]],[[[34.4873,36.8273],[34.482,36.86],[34.4889,36.878],[34.515,36.888],[34.5277,36.8827],[34.533,36.86],[34.5211,36.832],[34.5,36.822],[34.4873,36.8273]]]]},"properties":{"id":"territory:Neo-Assyrian Empire:-800","name":"신아시리아 제국","name_en":"Neo-Assyrian Empire","actor":"기타중립","valid_from":-800,"valid_to":-750,"span_from":-900,"span_to":-601,"color":"#60A9A4","wikidata":"Q10914393","area":482045,"src":"cliopatria","confidence":"medium","finish":"chaikin1cap4km+grow2km+islands+s600m","islands":0}},{"type":"Feature","geometry":{"type":"Point","coordinates":[41.774,35.582]},"properties":{"id":"territory:Neo-Assyrian Empire:-800:label","name":"신아시리아 제국","name_en":"Neo-Assyrian Empire","actor":"기타중립","valid_from":-800,"valid_to":-750,"span_from":-900,"span_to":-601,"color":"#60A9A4","wikidata":"Q10914393","area":482045,"src":"cliopatria","confidence":"medium"}},{"type":"Feature","geometry":{"type":"MultiPolygon","coordinates":[[[[44.9296,36.8437],[44.9681,36.8001],[45.0462,36.7666],[45.0892,36.716],[45.1218,36.5215],[45.1532,36.464],[45.4335,36.2002],[45.4445,36.1312],[45.3945,36.0584],[45.405,36.0376],[46.2905,35.866],[46.3042,35.8539],[46.315,35.8209],[46.3089,35.8011],[46.1156,35.6524],[46.0815,35.5979],[46.0641,35.4874],[46.0841,35.4329],[46.2278,35.2945],[46.254,35.2347],[46.2504,35.1611],[46.1969,35.0977],[45.9503,35.0005],[45.9115,34.9564],[45.8837,34.7762],[45.897,34.7149],[46.1751,34.2715],[46.1921,34.1916],[46.1749,34.0823],[46.2011,34.058],[46.3359,34.058],[46.3508,34.0501],[46.3745,34.009],[46.3232,33.9366],[46.3325,33.9034],[46.7608,33.6851],[46.7881,33.6236],[46.7867,33.6085],[46.7176,33.4891],[46.7258,33.442],[46.8031,33.3702],[46.8095,33.3028],[46.804,33.2896],[46.5945,33.0879],[46.5797,33.0355],[46.6164,32.9103],[46.601,32.8658],[46.5585,32.862],[46.5373,32.8365],[46.4073,32.3337],[46.4134,32.2713],[46.6205,31.8312],[46.6187,31.8129],[46.578,31.7677],[45.9734,31.7073],[45.9563,31.6842],[46.0408,31.5012],[46.0443,31.4263],[45.9703,31.2375],[45.9059,31.1916],[45.0652,31.1254],[44.9789,31.1543],[44.8289,31.2972],[44.7627,31.322],[44.6153,31.3243],[44.5477,31.3657],[44.4606,31.5472],[44.4175,31.605],[43.1684,32.7683],[43.1016,32.8056],[42.741,32.9131],[42.6743,32.962],[42.587,33.0962],[42.532,33.1426],[41.5206,33.6158],[41.4487,33.6638],[41.2288,33.8681],[41.1614,33.9014],[40.9424,33.9468],[40.8846,33.9879],[40.8508,34.0554],[40.8,34.0897],[40.502,34.1392],[40.4438,34.1909],[40.4128,34.3148],[40.3691,34.3519],[40.1524,34.3968],[40.0946,34.4379],[40.0602,34.5066],[40.011,34.5508],[38.8346,35.0363],[38.7561,35.047],[38.228,34.9873],[38.1567,34.9596],[37.8056,34.6921],[37.7722,34.6409],[37.76,34.5727],[37.7187,34.5112],[37.368,34.244],[37.3567,34.1998],[37.3883,34.141],[37.3873,34.1223],[37.3648,34.0898],[37.35,34.082],[37.2743,34.082],[37.2205,34.0547],[37.0864,33.8611],[37.0265,33.8056],[36.7789,33.6582],[36.7521,33.6104],[36.7842,33.2976],[36.7782,33.2824],[36.7378,33.2466],[35.8141,33.242],[35.7569,33.2686],[35.7597,33.315],[35.7976,33.3663],[35.9746,33.5069],[36.0063,33.5615],[36.0309,33.7694],[36.0527,33.8215],[36.1951,34.0746],[36.2163,34.1396],[36.2576,34.5113],[36.2484,34.532],[36.2088,34.5359],[36.1949,34.5904],[36.2788,34.8346],[36.2612,34.8743],[36.197,34.9064],[36.1566,34.9664],[36.1602,35.095],[36.1965,35.1634],[36.3042,35.2476],[36.3363,35.3016],[36.3479,35.4116],[36.3258,35.4666],[36.2504,35.5366],[36.188,35.551],[36.0353,35.5128],[35.9375,35.502],[35.9221,35.5108],[35.9008,35.5466],[35.8659,35.8623],[35.8836,35.9074],[35.9,35.918],[35.9303,35.918],[35.9459,35.9419],[35.9683,36.1815],[35.9458,36.2365],[35.8669,36.3098],[35.8612,36.3251],[35.8669,36.3741],[35.8752,36.3872],[36.2111,36.6003],[36.233,36.6473],[36.1906,36.8306],[36.1958,36.85],[36.8843,37.1663],[37.5736,37.5926],[37.6407,37.6459],[38.064,38.078],[38.2636,38.072],[38.3332,38.1085],[38.4197,38.3032],[38.4711,38.332],[38.6105,38.332],[38.6808,38.307],[38.8278,38.174],[38.9104,38.1431],[39.1336,38.142],[39.2162,38.182],[39.4706,38.5635],[39.5284,38.5865],[39.9802,38.5382],[40.0486,38.5631],[40.0994,38.6259],[40.1612,38.6575],[40.7123,38.719],[40.788,38.7599],[40.8373,38.824],[40.8977,38.8457],[41.3419,38.7881],[41.4183,38.8149],[41.4701,38.8841],[41.5304,38.912],[41.6684,38.912],[41.7137,38.8834],[41.7434,38.7706],[41.8068,38.7248],[41.9671,38.7224],[42.0577,38.7408],[42.7218,39.0242],[42.7816,39.0154],[42.8581,38.9444],[42.9405,38.9223],[43.174,38.9715],[43.2218,38.9533],[43.2534,38.8888],[43.3154,38.8375],[44.2702,38.4795],[44.3371,38.4375],[44.4055,38.3691],[44.4204,38.3154],[44.3042,37.9281],[44.3348,37.8615],[44.5422,37.7207],[44.5783,37.6676],[44.6068,37.4829],[44.6516,37.4171],[44.7943,37.3272],[44.8544,37.3031],[44.8506,37.267],[44.9296,36.8437]]],[[[34.4873,36.8273],[34.482,36.86],[34.4889,36.878],[34.515,36.888],[34.5277,36.8827],[34.533,36.86],[34.5211,36.832],[34.5,36.822],[34.4873,36.8273]]]]},"properties":{"id":"territory:Neo-Assyrian Empire:-750","name":"신아시리아 제국","name_en":"Neo-Assyrian Empire","actor":"기타중립","valid_from":-750,"valid_to":-700,"span_from":-900,"span_to":-601,"color":"#60A9A4","wikidata":"Q10914393","area":479763,"src":"cliopatria","confidence":"medium","finish":"chaikin1cap4km+grow2km+islands+s600m","islands":0}},{"type":"Feature","geometry":{"type":"Point","coordinates":[41.779,35.568]},"properties":{"id":"territory:Neo-Assyrian Empire:-750:label","name":"신아시리아 제국","name_en":"Neo-Assyrian Empire","actor":"기타중립","valid_from":-750,"valid_to":-700,"span_from":-900,"span_to":-601,"color":"#60A9A4","wikidata":"Q10914393","area":479763,"src":"cliopatria","confidence":"medium"}},{"type":"Feature","geometry":{"type":"Polygon","coordinates":[[[33.8492,21.9708],[33.7768,21.6653],[33.7814,21.648],[33.8171,21.6405],[33.8453,21.5987],[34.2693,19.6811],[34.2984,19.6211],[34.4609,19.4199],[34.4959,19.3537],[34.6067,18.9716],[34.6391,18.9126],[34.8719,18.6456],[34.9043,18.5779],[34.9503,18.3327],[34.985,18.2856],[35.2759,18.124],[35.3279,18.0691],[35.5006,17.6829],[35.5434,17.6335],[35.9837,17.3497],[36.0214,17.286],[36.0631,16.8389],[36.0331,16.7723],[35.71,16.5002],[35.638,16.4731],[34.7528,16.472],[34.7049,16.4452],[34.5955,16.2557],[34.5876,16.1963],[34.6881,15.8195],[34.6839,15.8026],[34.6553,15.7717],[34.6402,15.7661],[34.141,15.8177],[34.0929,15.7951],[33.8947,15.4813],[33.8261,15.4351],[32.5708,15.1897],[32.5199,15.2176],[32.512,15.2325],[32.512,15.29],[32.4839,15.3182],[32.1221,15.3678],[32.0484,15.3925],[31.7501,15.5591],[31.6972,15.6138],[31.531,15.9294],[31.5134,16.0066],[31.5205,16.1906],[31.4971,16.2434],[31.4063,16.3221],[31.3849,16.3893],[31.4494,16.5779],[31.4418,16.6333],[31.3463,16.7697],[31.3182,16.839],[31.2079,17.598],[31.1926,17.622],[31.152,17.6309],[31.1285,17.674],[30.8661,20.298],[30.8503,20.322],[30.82,20.322],[30.804,20.3318],[30.7856,20.3677],[30.8002,20.7501],[30.789,20.772],[30.76,20.772],[30.7441,20.7817],[30.7234,20.8266],[30.7405,21.2706],[30.7309,21.292],[30.6919,21.3011],[30.6693,21.3444],[30.6252,21.9083],[30.6101,21.932],[30.568,21.9366],[30.5584,21.9804],[30.6868,22.2438],[30.7033,22.3085],[30.7207,22.8126],[30.7075,22.8772],[30.5291,23.2595],[30.5151,23.3103],[30.5188,23.342],[30.5834,23.356],[31.6369,23.7196],[31.7117,23.732],[32.3798,23.732],[32.4263,23.7482],[32.4379,23.768],[33.3508,23.8254],[33.4317,23.8083],[33.7251,23.6534],[33.7694,23.5948],[33.8225,23.2119],[33.8375,23.188],[33.8625,23.188],[33.8789,23.1774],[33.895,23.1414],[33.858,22.0947],[33.8308,22.0656],[33.8078,22.062],[33.8375,22.0314],[33.8492,21.9708]]]},"properties":{"id":"territory:Kingdom of Kush:-800","name":"쿠시 왕국","name_en":"Kingdom of Kush","actor":"기타중립","valid_from":-800,"valid_to":-700,"span_from":-1000,"span_to":346,"color":"#A97A60","wikidata":"Q241790","area":336731,"src":"cliopatria","confidence":"medium","finish":"chaikin1cap4km+grow2km+islands+s600m","islands":0}},{"type":"Feature","geometry":{"type":"Point","coordinates":[32.813,19.403]},"properties":{"id":"territory:Kingdom of Kush:-800:label","name":"쿠시 왕국","name_en":"Kingdom of Kush","actor":"기타중립","valid_from":-800,"valid_to":-700,"span_from":-1000,"span_to":346,"color":"#A97A60","wikidata":"Q241790","area":336731,"src":"cliopatria","confidence":"medium"}},{"type":"Feature","geometry":{"type":"Polygon","coordinates":[[[30.9855,28.2592],[31.0093,28.2147],[31.0364,27.464],[31.0645,27.438],[31.1395,27.4366],[31.2094,27.4056],[31.7237,26.8823],[31.7837,26.858],[32.4561,26.8568],[32.5301,26.8273],[32.6143,26.7491],[32.6449,26.6811],[32.6281,26.2888],[32.5976,26.2201],[32.4111,26.018],[32.3889,25.9609],[32.438,23.7652],[32.4263,23.7482],[32.3798,23.732],[31.7117,23.732],[31.6369,23.7196],[30.5834,23.356],[30.5239,23.3425],[30.48,23.342],[30.4361,23.3829],[30.3942,23.5169],[30.3549,23.5673],[30.1172,23.7203],[30.0869,23.7736],[30.0889,23.8402],[30.0654,23.862],[29.9902,23.8636],[29.9214,23.8959],[29.6834,24.1585],[29.6248,24.1991],[28.5998,24.6184],[28.5405,24.6687],[28.2902,25.1236],[28.2736,25.1967],[28.2903,25.5801],[28.279,25.602],[28.25,25.602],[28.2336,25.6127],[28.2164,25.6578],[28.328,26.6064],[28.3669,26.6713],[29.08,27.1544],[29.1519,27.1897],[29.8439,27.4234],[29.8968,27.4626],[29.9323,27.5159],[29.9341,27.5505],[29.9048,27.5798],[29.8996,27.5937],[29.9065,27.6067],[29.9402,27.628],[30.0759,27.628],[30.1331,27.6534],[30.2402,27.7807],[30.2641,27.8398],[30.27,27.951],[30.2473,28.0058],[30.0913,28.1562],[30.0637,28.2149],[30.062,28.2812],[30.0319,28.3187],[29.6009,28.4793],[29.56,28.5359],[29.6571,29.2469],[29.6654,29.2596],[29.7228,29.2898],[29.9437,29.2456],[30.042,29.2376],[30.0471,29.2225],[30.0852,29.1842],[30.2445,29.0924],[30.3244,29.0891],[30.5559,29.1862],[30.5998,29.1848],[30.6253,29.1593],[30.6298,29.1176],[30.5649,28.9303],[30.5934,28.8684],[30.8954,28.7656],[30.9471,28.7698],[30.958,28.7525],[30.9572,28.7122],[30.9415,28.6616],[30.8832,28.5381],[30.8763,28.4759],[30.9185,28.2932],[30.9386,28.268],[30.97,28.268],[30.9855,28.2592]]]},"properties":{"id":"territory:Twenty-second Dynasty of Egypt:-800","name":"Twenty-second Dynasty of Egypt","name_en":"Twenty-second Dynasty of Egypt","actor":"기타중립","valid_from":-800,"valid_to":-750,"span_from":-800,"span_to":-701,"color":"#8D60A9","wikidata":"Q737629","area":166127,"src":"cliopatria","confidence":"medium","finish":"chaikin1cap4km+grow2km+islands+s600m","islands":0}},{"type":"Feature","geometry":{"type":"Polygon","coordinates":[[[30.9855,28.2592],[31.0093,28.2147],[31.0364,27.464],[31.0645,27.438],[31.1395,27.4366],[31.2094,27.4056],[31.7237,26.8823],[31.7837,26.858],[32.4561,26.8568],[32.5301,26.8273],[32.6143,26.7491],[32.6449,26.6811],[32.6281,26.2888],[32.5976,26.2201],[32.4111,26.018],[32.3889,25.9609],[32.438,23.7652],[32.4263,23.7482],[32.3798,23.732],[31.7117,23.732],[31.6369,23.7196],[30.5834,23.356],[30.5239,23.3425],[30.48,23.342],[30.4361,23.3829],[30.3942,23.5169],[30.3549,23.5673],[30.1172,23.7203],[30.0869,23.7736],[30.0889,23.8402],[30.0654,23.862],[29.9902,23.8636],[29.9214,23.8959],[29.6834,24.1585],[29.6248,24.1991],[28.5998,24.6184],[28.5405,24.6687],[28.2902,25.1236],[28.2736,25.1967],[28.2903,25.5801],[28.279,25.602],[28.25,25.602],[28.2336,25.6127],[28.2164,25.6578],[28.328,26.6064],[28.3669,26.6713],[29.08,27.1544],[29.1519,27.1897],[29.8439,27.4234],[29.8968,27.4626],[29.9323,27.5159],[29.9341,27.5505],[29.9048,27.5798],[29.8996,27.5937],[29.9065,27.6067],[29.9402,27.628],[30.0759,27.628],[30.1331,27.6534],[30.2402,27.7807],[30.2641,27.8398],[30.27,27.951],[30.2473,28.0058],[30.0913,28.1562],[30.0637,28.2149],[30.062,28.2812],[30.0319,28.3187],[29.6009,28.4793],[29.56,28.5359],[29.6571,29.2469],[29.6654,29.2596],[29.7228,29.2898],[29.9437,29.2456],[30.042,29.2376],[30.0471,29.2225],[30.0852,29.1842],[30.2445,29.0924],[30.3244,29.0891],[30.5559,29.1862],[30.5998,29.1848],[30.6253,29.1593],[30.6298,29.1176],[30.5649,28.9303],[30.5934,28.8684],[30.8954,28.7656],[30.9471,28.7698],[30.958,28.7525],[30.9572,28.7122],[30.9415,28.6616],[30.8832,28.5381],[30.8763,28.4759],[30.9185,28.2932],[30.9386,28.268],[30.97,28.268],[30.9855,28.2592]]]},"properties":{"id":"territory:Twenty-second Dynasty of Egypt:-750","name":"Twenty-second Dynasty of Egypt","name_en":"Twenty-second Dynasty of Egypt","actor":"기타중립","valid_from":-750,"valid_to":-700,"span_from":-800,"span_to":-701,"color":"#8D60A9","wikidata":"Q737629","area":166127,"src":"cliopatria","confidence":"medium","finish":"chaikin1cap4km+grow2km+islands+s600m","islands":0}},{"type":"Feature","geometry":{"type":"Point","coordinates":[30.485,25.871]},"properties":{"id":"territory:Twenty-second Dynasty of Egypt:-800:label","name":"Twenty-second Dynasty of Egypt","name_en":"Twenty-second Dynasty of Egypt","actor":"기타중립","valid_from":-800,"valid_to":-750,"span_from":-800,"span_to":-701,"color":"#8D60A9","wikidata":"Q737629","area":166127,"src":"cliopatria","confidence":"medium"}},{"type":"Feature","geometry":{"type":"Point","coordinates":[30.485,25.871]},"properties":{"id":"territory:Twenty-second Dynasty of Egypt:-750:label","name":"Twenty-second Dynasty of Egypt","name_en":"Twenty-second Dynasty of Egypt","actor":"기타중립","valid_from":-750,"valid_to":-700,"span_from":-800,"span_to":-701,"color":"#8D60A9","wikidata":"Q737629","area":166127,"src":"cliopatria","confidence":"medium"}},{"type":"Feature","geometry":{"type":"Polygon","coordinates":[[[37.4317,38.9173],[37.4544,38.9677],[37.4192,39.1511],[37.4559,39.2167],[37.55,39.2588],[37.609,39.3041],[38.2432,40.2087],[38.3177,40.2502],[38.8823,40.3036],[38.9757,40.2979],[39.7258,40.1284],[39.7961,40.1418],[40.0825,40.3526],[40.1682,40.371],[40.5426,40.3152],[40.6016,40.3363],[40.7532,40.5362],[40.8135,40.55],[40.8956,40.5159],[40.9571,40.522],[41.5156,40.9299],[41.6005,40.9446],[41.7464,40.902],[41.7925,40.9183],[41.8781,41.1037],[41.9478,41.1458],[42.4314,41.1462],[42.5056,41.1073],[42.5823,40.9859],[42.6345,40.958],[42.7053,40.958],[42.7559,40.9861],[42.833,41.1133],[42.9064,41.148],[43.0498,41.148],[43.1123,41.1755],[43.1696,41.2458],[43.2474,41.2747],[44.025,41.2211],[44.0747,41.1807],[44.08,41.1635],[44.0666,41.1055],[44.0901,41.0665],[44.1601,41.0338],[44.1909,40.9732],[44.1907,40.9586],[44.1067,40.7766],[44.1252,40.7542],[44.8964,40.696],[44.9355,40.6573],[44.9405,40.641],[44.9157,40.5168],[44.9348,40.4622],[45.0731,40.3309],[45.1093,40.2624],[45.1336,40.0176],[45.1643,40.0029],[45.4816,40.1035],[45.5685,40.0958],[45.9327,39.8775],[45.9537,39.8134],[45.9505,39.7982],[45.8032,39.6067],[45.8106,39.5748],[45.873,39.5436],[45.9104,39.4867],[45.9038,39.4163],[45.9307,39.3728],[46.0778,39.2893],[46.1105,39.221],[46.0857,39.0969],[46.0926,39.078],[46.1301,39.0749],[46.1521,39.0215],[46.1334,38.9029],[46.0738,38.8552],[45.688,38.852],[45.6032,38.8367],[45.3496,38.7397],[45.2812,38.698],[45.064,38.4964],[45.0318,38.4384],[45.0042,38.259],[45.0303,38.2112],[45.1723,38.1273],[45.2102,38.0629],[45.154,37.6774],[45.174,37.6214],[45.2484,37.5449],[45.2728,37.4748],[45.2564,37.3986],[45.1982,37.3539],[44.9,37.302],[44.8533,37.3033],[44.7971,37.3257],[44.6516,37.4171],[44.6068,37.4829],[44.5783,37.6676],[44.5422,37.7207],[44.3283,37.8695],[44.3037,37.9403],[44.4204,38.3154],[44.4055,38.3691],[44.3371,38.4375],[44.2702,38.4795],[43.3154,38.8375],[43.2534,38.8888],[43.2218,38.9533],[43.174,38.9715],[42.9405,38.9223],[42.8581,38.9444],[42.7816,39.0154],[42.7218,39.0242],[42.0577,38.7408],[41.9636,38.722],[41.8164,38.722],[41.7511,38.76],[41.7137,38.8834],[41.6684,38.912],[41.5304,38.912],[41.4701,38.8841],[41.4183,38.8149],[41.3419,38.7881],[40.8977,38.8457],[40.8373,38.824],[40.788,38.7599],[40.7123,38.719],[40.1612,38.6575],[40.0994,38.6259],[40.0486,38.5631],[39.9802,38.5382],[39.5284,38.5865],[39.4706,38.5635],[39.2162,38.182],[39.1336,38.142],[38.9104,38.1431],[38.8278,38.174],[38.6808,38.307],[38.6105,38.332],[38.4711,38.332],[38.4197,38.3032],[38.341,38.1171],[38.2636,38.072],[38.064,38.078],[38.07,38.0938],[38.0557,38.1584],[37.3397,38.6478],[37.3302,38.6782],[37.3634,38.7156],[37.3628,38.765],[37.353,38.7786],[37.2871,38.8062],[37.4317,38.9173]]]},"properties":{"id":"territory:Kingdom of Urartu:-750","name":"Kingdom of Urartu","name_en":"Kingdom of Urartu","actor":"기타중립","valid_from":-750,"valid_to":-700,"span_from":-800,"span_to":-551,"color":"#6062A9","wikidata":"Q185068","area":160486,"src":"cliopatria","confidence":"medium","finish":"chaikin1cap4km+grow2km+islands+s600m","islands":0}},{"type":"Feature","geometry":{"type":"Point","coordinates":[41.951,39.544]},"properties":{"id":"territory:Kingdom of Urartu:-750:label","name":"Kingdom of Urartu","name_en":"Kingdom of Urartu","actor":"기타중립","valid_from":-750,"valid_to":-700,"span_from":-800,"span_to":-551,"color":"#6062A9","wikidata":"Q185068","area":160486,"src":"cliopatria","confidence":"medium"}},{"type":"Feature","geometry":{"type":"Polygon","coordinates":[[[34.3786,41.1395],[34.3091,41.018],[34.3446,41.0104],[34.3732,40.967],[34.4023,40.7784],[34.3975,40.7633],[34.3465,40.7153],[34.0448,40.6701],[34.0133,40.6378],[34.0834,40.068],[34.0771,40.052],[34.023,40.012],[33.5714,40.012],[33.5157,39.9833],[33.4534,39.865],[33.3929,39.8072],[33.2111,39.7155],[33.1742,39.6673],[33.1518,39.4219],[33.1844,39.3844],[33.32,39.349],[33.3842,39.2995],[33.4821,39.0456],[33.5329,39.0065],[33.7488,38.9577],[33.7809,38.927],[33.7853,38.9127],[33.7775,38.9001],[33.7383,38.874],[33.7291,38.8355],[33.7667,38.7102],[33.7421,38.6389],[33.6349,38.5597],[33.5481,38.5328],[33.2374,38.5348],[33.174,38.5812],[33.1317,38.7577],[33.0961,38.8163],[33.0221,38.885],[32.9657,38.8905],[32.4668,38.6153],[32.3847,38.5927],[32.2909,38.5945],[32.2287,38.635],[32.2017,38.6935],[32.1522,38.7134],[31.849,38.6603],[31.7719,38.6847],[31.6643,38.8399],[31.6745,38.9115],[31.7968,39.042],[31.7638,39.0522],[31.7466,39.0881],[31.759,39.2812],[31.7505,39.302],[31.7156,39.3065],[31.7054,39.3523],[31.7772,39.5447],[31.7594,39.5809],[31.6908,39.6083],[31.648,39.6618],[31.6488,39.7289],[31.6171,39.752],[30.7665,39.7555],[30.7219,39.788],[30.7146,39.8039],[30.719,39.8612],[30.6863,39.8976],[30.5485,39.9395],[30.4998,39.9945],[30.5079,40.1212],[30.4984,40.142],[30.47,40.142],[30.4537,40.1525],[30.4372,40.1883],[30.4485,40.326],[30.5037,40.3819],[30.7354,40.428],[30.7687,40.4625],[30.7467,40.7821],[30.7823,40.8497],[30.8817,40.9257],[30.9,40.9754],[30.8639,41.0897],[30.8685,41.108],[30.9045,41.1429],[31.299,41.148],[31.36,41.176],[31.4932,41.3685],[31.5647,41.4166],[31.9765,41.5247],[32.0151,41.5608],[32.0196,41.6189],[32.0303,41.634],[32.0703,41.6515],[32.1559,41.623],[32.2287,41.6239],[32.6354,41.7785],[32.6549,41.8133],[32.6276,41.8821],[32.6641,41.9131],[32.6791,41.9158],[32.8176,41.8796],[32.9007,41.8814],[33.2311,41.9837],[33.327,41.998],[34.4357,41.9927],[34.4701,41.9581],[34.4743,41.9392],[34.3834,41.6892],[34.4045,41.668],[34.703,41.668],[34.756,41.6317],[34.7628,41.6148],[34.748,41.5401],[34.6963,41.4882],[34.6204,41.4597],[34.5816,41.4163],[34.5584,41.2834],[34.5035,41.2281],[34.4209,41.1989],[34.3842,41.1724],[34.3786,41.1395]]]},"properties":{"id":"territory:Phrygia:-750","name":"Phrygia","name_en":"Phrygia","actor":"기타중립","valid_from":-750,"valid_to":-700,"span_from":-900,"span_to":-676,"color":"#60A997","wikidata":"Q32579","area":78628,"src":"cliopatria","confidence":"medium","finish":"chaikin1cap4km+grow2km+islands+s600m","islands":0}},{"type":"Feature","geometry":{"type":"Point","coordinates":[32.632,40.444]},"properties":{"id":"territory:Phrygia:-750:label","name":"Phrygia","name_en":"Phrygia","actor":"기타중립","valid_from":-750,"valid_to":-700,"span_from":-900,"span_to":-676,"color":"#60A997","wikidata":"Q32579","area":78628,"src":"cliopatria","confidence":"medium"}},{"type":"Feature","geometry":{"type":"MultiPolygon","coordinates":[[[[33.5051,35.0103],[33.426,34.982],[33.2912,34.982],[33.2663,34.9583],[33.3078,34.7274],[33.3002,34.6802],[33.2547,34.6496],[32.9364,34.5462],[32.8487,34.5638],[32.7689,34.638],[32.7015,34.6695],[32.4104,34.7154],[32.3391,34.7557],[32.2371,34.8985],[32.2164,34.9711],[32.2284,35.0961],[32.2832,35.1444],[32.5044,35.148],[32.5846,35.1629],[32.8298,35.2595],[32.865,35.2998],[32.8772,35.3722],[32.934,35.408],[33.6938,35.408],[33.7695,35.4272],[34.265,35.7053],[34.3239,35.7269],[34.5025,35.728],[34.5497,35.6907],[34.5554,35.6761],[34.5504,35.6111],[34.5051,35.5427],[34.0743,35.267],[34.0195,35.2435],[33.9775,35.242],[33.8456,35.2864],[33.7896,35.2762],[33.5051,35.0103]]],[[[28.1042,35.9995],[27.7735,35.8973],[27.7276,35.9196],[27.7176,35.9335],[27.6789,36.263],[27.7173,36.3265],[27.9772,36.4759],[28.0375,36.498],[28.21,36.498],[28.2548,36.4567],[28.2588,36.4405],[28.1612,36.0524],[28.1042,35.9995]]],[[[27.5845,37.2074],[27.7192,37.1617],[27.747,37.104],[27.7455,37.0883],[27.6991,37.0169],[27.6283,36.9758],[27.2369,36.9187],[27.1831,36.9512],[27.1757,36.9676],[27.1885,37.096],[27.2415,37.1516],[27.4739,37.1993],[27.5845,37.2074]]],[[[27.06,36.948],[27.1118,36.9436],[27.1533,36.906],[27.1883,36.841],[27.1888,36.825],[27.1567,36.7671],[26.9168,36.6696],[26.8987,36.6723],[26.8795,36.6879],[26.8758,36.7117],[27.0041,36.908],[27.06,36.948]]],[[[25.8688,38.462],[25.8281,38.4666],[25.8181,38.5115],[25.8778,38.644],[25.9177,38.6831],[25.97,38.688],[26.034,38.6671],[26.1978,38.5781],[26.2274,38.51],[26.1295,38.1799],[26.0641,38.142],[25.9259,38.142],[25.8708,38.182],[25.8643,38.197],[25.8795,38.4404],[25.8688,38.462]]],[[[23.6543,35.2913],[23.6106,35.4806],[23.6155,35.4975],[23.6514,35.5328],[24.116,35.538],[24.1686,35.5016],[24.1754,35.4861],[24.1709,35.4275],[24.1995,35.3867],[24.2683,35.3546],[24.3459,35.338],[25.646,35.338],[25.6998,35.2978],[25.7061,35.2832],[25.7003,35.1746],[25.7287,35.1534],[26.1844,35.2031],[26.2002,35.1968],[26.2255,35.1605],[26.1769,35.0892],[26.097,35.0497],[24.8649,34.9844],[24.7999,35.0193],[24.7558,35.1435],[24.7108,35.172],[24.4051,35.176],[23.7129,35.2417],[23.6543,35.2913]]],[[[25.3216,37.0182],[25.3146,37.0339],[25.3196,37.0989],[25.3452,37.1402],[25.36,37.148],[25.5325,37.148],[25.5797,37.1107],[25.5854,37.0961],[25.5804,37.0311],[25.5251,36.9852],[25.3641,36.9857],[25.3216,37.0182]]],[[[25.395,37.418],[25.307,37.412],[25.348,37.508],[25.463,37.47],[25.395,37.418]]],[[[25.2491,37.6813],[25.2948,37.5506],[25.2908,37.5322],[25.2446,37.492],[25.0858,37.4948],[25.0223,37.5398],[24.9833,37.6699],[24.9899,37.7135],[25.0075,37.728],[25.1899,37.725],[25.2491,37.6813]]],[[[25.0436,37.7534],[25.031,37.7417],[24.8778,37.7034],[24.7876,37.723],[24.6989,37.7999],[24.6656,37.8684],[24.6728,38.0035],[24.6947,38.0394],[24.71,38.048],[24.7583,38.0459],[24.809,38.0193],[25.0567,37.8013],[25.0436,37.7534]]],[[[24.9565,37.397],[24.8965,37.3715],[24.868,37.4145],[24.9435,37.4355],[24.9565,37.397]]],[[[24.4882,39.0041],[24.6408,38.9546],[24.6861,38.8932],[24.6798,38.775],[24.6691,38.7594],[24.6125,38.741],[24.3864,38.8412],[24.342,38.9025],[24.342,38.9675],[24.3647,39.0094],[24.38,39.018],[24.4882,39.0041]]],[[[24.4505,37.13],[24.4435,37.1785],[24.515,37.206],[24.5345,37.1485],[24.4505,37.13]]],[[[24.478,37.391],[24.412,37.324],[24.368,37.412],[24.4305,37.446],[24.478,37.391]]],[[[24.2017,37.599],[24.2082,37.671],[24.2482,37.706],[24.2928,37.7265],[24.3518,37.7236],[24.3933,37.686],[24.4283,37.621],[24.4289,37.6052],[24.4067,37.5553],[24.3169,37.5109],[24.2479,37.5251],[24.2017,37.599]]],[[[24.3426,38.8341],[24.3524,38.85],[24.3729,38.8407],[24.3578,38.8275],[24.3426,38.8341]]],[[[24.3145,39.3461],[24.3226,39.3688],[24.33,39.3535],[24.321,39.3308],[24.3145,39.3461]]],[[[22.4725,36.652],[22.3975,36.652],[22.3374,36.6898],[22.2177,37.0133],[22.1693,37.042],[21.9618,37.042],[21.9256,37.0148],[21.9136,36.8923],[21.86,36.852],[21.78,36.852],[21.7224,36.8913],[21.6698,37.147],[21.651,37.172],[21.609,37.1758],[21.5935,37.2204],[21.6701,37.4745],[21.6514,37.5228],[21.2633,37.8012],[21.2411,37.8682],[21.3933,38.1431],[21.4658,38.178],[21.6782,38.178],[21.7144,38.2052],[21.7197,38.307],[21.6866,38.3398],[21.3123,38.3955],[21.2603,38.4393],[21.2546,38.4539],[21.2629,38.528],[21.3019,38.5822],[21.5609,38.7361],[21.6479,38.7476],[21.8684,38.6978],[21.954,38.6946],[22.3401,38.7509],[22.4125,38.7814],[22.5041,38.8559],[22.5342,38.9109],[22.54,39.022],[22.5218,39.0838],[22.3469,39.3382],[22.3446,39.3538],[22.3699,39.4158],[22.539,39.5037],[22.5658,39.5493],[22.5177,39.8616],[22.5275,39.9364],[22.5923,40.0791],[22.6275,40.113],[22.68,40.118],[22.6978,40.1025],[22.7025,40.0686],[22.645,39.9339],[22.6609,39.899],[22.7292,39.8717],[22.7741,39.8186],[22.778,39.7476],[22.8078,39.6991],[23.1224,39.4797],[23.1132,39.4354],[23.0997,39.4228],[22.873,39.3732],[22.8353,39.3361],[22.8208,39.1054],[22.8474,39.0888],[23.0846,39.1361],[23.1262,39.1132],[23.1354,39.0961],[23.1312,39.0409],[23.1618,39.018],[23.2942,39.018],[23.3706,38.9854],[23.4847,38.8297],[23.4588,38.7973],[23.4421,38.7924],[23.22,38.8425],[23.1711,38.8694],[23.162,38.8986],[23.1378,38.9009],[22.9928,38.8647],[22.958,38.83],[22.958,38.7796],[22.9925,38.7428],[23.1373,38.6979],[23.2074,38.6496],[23.2988,38.5255],[23.3596,38.498],[23.577,38.498],[23.6004,38.5207],[23.5521,38.7002],[23.5582,38.7189],[23.6076,38.7511],[23.992,38.6933],[24.0733,38.6584],[24.1592,38.5897],[24.1958,38.513],[24.1738,38.2422],[24.1316,38.2063],[24.0466,38.202],[24.0156,38.1755],[23.9998,37.875],[23.9897,37.8597],[23.9323,37.8377],[23.4773,37.9978],[23.3927,38.012],[23.2613,38.012],[23.2247,37.9875],[23.2134,37.9182],[23.1709,37.8857],[23.0882,37.882],[23.0693,37.8603],[23.1161,37.6866],[23.161,37.658],[23.3043,37.6549],[23.3643,37.6078],[23.411,37.3589],[23.4054,37.3423],[23.3663,37.3067],[23.205,37.3056],[23.1617,37.3381],[23.1546,37.3539],[23.1591,37.4128],[23.1302,37.4575],[22.9804,37.5422],[22.902,37.562],[22.7618,37.562],[22.7262,37.5349],[22.7196,37.3611],[22.7496,37.3167],[22.8255,37.2799],[22.8794,37.2216],[23.064,36.6975],[23.0365,36.6802],[23.0175,36.6831],[22.8515,36.8275],[22.7812,36.852],[22.6504,36.852],[22.5987,36.8233],[22.535,36.6888],[22.4725,36.652]]],[[[24.1729,39.4275],[24.183,39.3939],[24.1534,39.3621],[24.1423,39.371],[24.1729,39.4275]]],[[[24.1052,37.6453],[24.0999,37.6594],[24.1264,37.743],[24.1432,37.7527],[24.1486,37.7226],[24.1371,37.7142],[24.1052,37.6453]]],[[[24.1104,39.0696],[24.099,39.0924],[24.1174,39.1031],[24.1138,39.0774],[24.1241,39.0629],[24.099,39.0554],[24.1104,39.0696]]],[[[23.9597,37.6514],[23.9597,37.6428],[23.9356,37.6459],[23.9387,37.6571],[23.9597,37.6514]]],[[[23.9369,40.3093],[23.8837,40.3311],[23.9118,40.3411],[23.92,40.3229],[23.9418,40.3141],[23.9369,40.3093]]],[[[23.9261,37.467],[23.8981,37.4945],[23.9339,37.4785],[23.9404,37.4621],[23.9261,37.467]]],[[[23.7602,40.3552],[23.7653,40.34],[23.758,40.245],[23.7508,40.2306],[23.72,40.212],[23.6692,40.2156],[23.642,40.245],[23.6497,40.345],[23.679,40.3742],[23.73,40.378],[23.7602,40.3552]]],[[[23.6604,39.9311],[23.6501,39.9162],[23.6026,39.8939],[23.3635,39.946],[23.3032,40.0005],[23.2521,40.1901],[23.2628,40.2351],[23.28,40.248],[23.32,40.248],[23.3856,40.2219],[23.6238,40.0683],[23.6654,39.9961],[23.6604,39.9311]]],[[[23.4648,38.758],[23.4775,38.7999],[23.51,38.818],[23.55,38.818],[23.5792,38.7986],[23.5852,38.782],[23.5725,38.7401],[23.54,38.722],[23.4883,38.7264],[23.4648,38.758]]],[[[23.518,40.245],[23.4908,40.2156],[23.44,40.212],[23.4108,40.2314],[23.4048,40.248],[23.4098,40.278],[23.4367,40.3044],[23.4825,40.308],[23.5117,40.2886],[23.518,40.245]]],[[[23.088,36.3836],[23.1328,36.3244],[23.1298,36.195],[23.0764,36.1458],[22.9146,36.142],[22.8611,36.1822],[22.8548,36.1972],[22.8716,36.393],[22.8919,36.4288],[22.9075,36.438],[22.9477,36.4372],[23.088,36.3836]]],[[[22.9698,36.5112],[22.9822,36.4994],[22.9885,36.4642],[22.986,36.4582],[22.9658,36.4761],[22.9317,36.4647],[22.9251,36.4691],[22.9294,36.4841],[22.9698,36.5112]]],[[[20.5939,37.7468],[20.6002,37.865],[20.6247,37.9094],[20.64,37.918],[20.8845,37.918],[20.94,37.878],[20.9466,37.8634],[20.9393,37.6752],[20.9304,37.6604],[20.8723,37.6323],[20.6498,37.6826],[20.5939,37.7468]]],[[[20.616,38.4146],[20.7781,38.3205],[20.8161,38.2532],[20.8097,38.125],[20.8013,38.1107],[20.7424,38.0789],[20.3623,38.1355],[20.3093,38.1831],[20.3039,38.1968],[20.3102,38.315],[20.3559,38.3786],[20.445,38.4198],[20.505,38.4372],[20.55,38.438],[20.616,38.4146]]],[[[20.5461,38.592],[20.4992,38.6321],[20.495,38.6506],[20.561,38.8412],[20.61,38.888],[20.7225,38.888],[20.7389,38.8774],[20.755,38.8414],[20.7493,38.6452],[20.6948,38.5957],[20.5461,38.592]]],[[[20.2455,39.1401],[20.2583,39.1329],[20.2194,39.1401],[20.2175,39.1527],[20.2314,39.1539],[20.2455,39.1401]]]]},"properties":{"id":"territory:Greek City-States:-750","name":"Greek City-States","name_en":"Greek City-States","actor":"기타중립","valid_from":-750,"valid_to":-700,"span_from":-800,"span_to":83,"color":"#87A960","wikidata":"Q148837","area":64105,"src":"cliopatria","confidence":"medium","finish":"chaikin1cap4km+grow2km+islands+s600m","islands":14,"island_rule":"nearest<=40km"}},{"type":"Feature","geometry":{"type":"Point","coordinates":[22.583,38.111]},"properties":{"id":"territory:Greek City-States:-750:label","name":"Greek City-States","name_en":"Greek City-States","actor":"기타중립","valid_from":-750,"valid_to":-700,"span_from":-800,"span_to":83,"color":"#87A960","wikidata":"Q148837","area":64105,"src":"cliopatria","confidence":"medium"}},{"type":"Feature","geometry":{"type":"Polygon","coordinates":[[[32.2575,31.228],[32.2991,31.2267],[32.3535,31.2052],[32.5026,31.117],[32.574,31.098],[32.7983,31.098],[32.8384,31.0578],[32.8405,31.039],[32.7839,30.9197],[32.7845,30.908],[32.8147,30.9032],[32.8228,30.8578],[32.7627,30.7188],[32.7566,30.6561],[32.7966,30.4653],[32.7559,30.4109],[32.6101,30.3665],[32.5817,30.3289],[32.6147,29.9574],[32.5926,29.8853],[32.4782,29.7475],[32.4051,29.7232],[32.2486,29.7614],[32.1796,29.7539],[32.024,29.6727],[31.9425,29.6525],[31.6476,29.652],[31.6148,29.6279],[31.6031,29.558],[31.5483,29.522],[31.1854,29.522],[31.1264,29.4962],[31.0102,29.3595],[30.9856,29.3001],[30.958,28.7845],[30.9411,28.7671],[30.8954,28.7656],[30.5934,28.8684],[30.5649,28.9303],[30.6298,29.1176],[30.6253,29.1593],[30.5998,29.1848],[30.5559,29.1862],[30.3244,29.0891],[30.2445,29.0924],[30.0852,29.1842],[30.0471,29.2225],[30.042,29.265],[30.0765,29.3154],[30.2487,29.4523],[30.2454,29.4643],[30.0361,29.5131],[30.0051,29.5632],[30.0066,29.5811],[30.0486,29.6418],[30.038,29.6714],[29.8115,29.7673],[29.7887,29.8309],[29.8457,29.9575],[29.8316,29.9998],[29.3074,30.3402],[29.2759,30.4077],[29.288,30.5223],[29.2694,30.5801],[29.0967,30.7894],[29.1162,30.8291],[29.1317,30.838],[29.3535,30.838],[29.4019,30.866],[29.4682,30.9936],[29.5321,31.0115],[29.5982,30.9832],[29.6603,30.9868],[29.82,31.0734],[29.8329,31.1109],[29.8017,31.169],[29.8021,31.2259],[29.8092,31.2394],[29.8558,31.2725],[29.9217,31.288],[30.2893,31.288],[30.3013,31.3041],[30.2717,31.359],[30.2721,31.4159],[30.3192,31.4594],[30.3917,31.478],[30.7665,31.478],[30.8417,31.4935],[30.9214,31.5283],[30.952,31.5686],[30.952,31.6275],[30.959,31.6417],[31.0117,31.678],[31.1583,31.678],[31.1731,31.6703],[31.1952,31.6385],[31.1958,31.6188],[31.1593,31.5596],[31.1711,31.526],[31.2391,31.4942],[31.3136,31.478],[31.8383,31.478],[31.8522,31.4714],[31.8803,31.4375],[31.8831,31.4194],[31.8152,31.2497],[31.8215,31.2447],[31.8955,31.2725],[31.9578,31.2519],[31.9681,31.2407],[32.0043,31.1262],[32.0471,31.098],[32.2498,31.098],[32.264,31.1152],[32.2387,31.17],[32.2396,31.2114],[32.2575,31.228]]]},"properties":{"id":"territory:Twenty-third Dynasty of Egypt:-800","name":"Twenty-third Dynasty of Egypt","name_en":"Twenty-third Dynasty of Egypt","actor":"기타중립","valid_from":-800,"valid_to":-750,"span_from":-800,"span_to":-701,"color":"#6065A9","wikidata":"Q748170","area":61633,"src":"cliopatria","confidence":"medium","finish":"chaikin1cap4km+grow2km+islands+s600m","islands":0}},{"type":"Feature","geometry":{"type":"Polygon","coordinates":[[[32.2575,31.228],[32.2991,31.2267],[32.3535,31.2052],[32.5026,31.117],[32.574,31.098],[32.7983,31.098],[32.8384,31.0578],[32.8405,31.039],[32.7839,30.9197],[32.7845,30.908],[32.8147,30.9032],[32.8228,30.8578],[32.7627,30.7188],[32.7566,30.6561],[32.7966,30.4653],[32.7559,30.4109],[32.6101,30.3665],[32.5817,30.3289],[32.6147,29.9574],[32.5926,29.8853],[32.4782,29.7475],[32.4051,29.7232],[32.2486,29.7614],[32.1796,29.7539],[32.024,29.6727],[31.9425,29.6525],[31.6476,29.652],[31.6148,29.6279],[31.6031,29.558],[31.5483,29.522],[31.1854,29.522],[31.1264,29.4962],[31.0102,29.3595],[30.9856,29.3001],[30.958,28.7845],[30.9411,28.7671],[30.8954,28.7656],[30.5934,28.8684],[30.5649,28.9303],[30.6298,29.1176],[30.6253,29.1593],[30.5998,29.1848],[30.5559,29.1862],[30.3244,29.0891],[30.2445,29.0924],[30.0852,29.1842],[30.0471,29.2225],[30.042,29.265],[30.0765,29.3154],[30.2487,29.4523],[30.2454,29.4643],[30.0361,29.5131],[30.0051,29.5632],[30.0066,29.5811],[30.0486,29.6418],[30.038,29.6714],[29.8115,29.7673],[29.7887,29.8309],[29.8457,29.9575],[29.8316,29.9998],[29.3074,30.3402],[29.2759,30.4077],[29.288,30.5223],[29.2694,30.5801],[29.0967,30.7894],[29.1162,30.8291],[29.1317,30.838],[29.3535,30.838],[29.4019,30.866],[29.4682,30.9936],[29.5321,31.0115],[29.5982,30.9832],[29.6603,30.9868],[29.82,31.0734],[29.8329,31.1109],[29.8017,31.169],[29.8021,31.2259],[29.8092,31.2394],[29.8558,31.2725],[29.9217,31.288],[30.2893,31.288],[30.3013,31.3041],[30.2717,31.359],[30.2721,31.4159],[30.3192,31.4594],[30.3917,31.478],[30.7665,31.478],[30.8417,31.4935],[30.9214,31.5283],[30.952,31.5686],[30.952,31.6275],[30.959,31.6417],[31.0117,31.678],[31.1583,31.678],[31.1731,31.6703],[31.1952,31.6385],[31.1958,31.6188],[31.1593,31.5596],[31.1711,31.526],[31.2391,31.4942],[31.3136,31.478],[31.8383,31.478],[31.8522,31.4714],[31.8803,31.4375],[31.8831,31.4194],[31.8152,31.2497],[31.8215,31.2447],[31.8955,31.2725],[31.9578,31.2519],[31.9681,31.2407],[32.0043,31.1262],[32.0471,31.098],[32.2498,31.098],[32.264,31.1152],[32.2387,31.17],[32.2396,31.2114],[32.2575,31.228]]]},"properties":{"id":"territory:Twenty-third Dynasty of Egypt:-750","name":"Twenty-third Dynasty of Egypt","name_en":"Twenty-third Dynasty of Egypt","actor":"기타중립","valid_from":-750,"valid_to":-700,"span_from":-800,"span_to":-701,"color":"#6065A9","wikidata":"Q748170","area":61633,"src":"cliopatria","confidence":"medium","finish":"chaikin1cap4km+grow2km+islands+s600m","islands":0}},{"type":"Feature","geometry":{"type":"Point","coordinates":[31.027,30.41]},"properties":{"id":"territory:Twenty-third Dynasty of Egypt:-800:label","name":"Twenty-third Dynasty of Egypt","name_en":"Twenty-third Dynasty of Egypt","actor":"기타중립","valid_from":-800,"valid_to":-750,"span_from":-800,"span_to":-701,"color":"#6065A9","wikidata":"Q748170","area":61633,"src":"cliopatria","confidence":"medium"}},{"type":"Feature","geometry":{"type":"Point","coordinates":[31.027,30.41]},"properties":{"id":"territory:Twenty-third Dynasty of Egypt:-750:label","name":"Twenty-third Dynasty of Egypt","name_en":"Twenty-third Dynasty of Egypt","actor":"기타중립","valid_from":-750,"valid_to":-700,"span_from":-800,"span_to":-701,"color":"#6065A9","wikidata":"Q748170","area":61633,"src":"cliopatria","confidence":"medium"}},{"type":"Feature","geometry":{"type":"Polygon","coordinates":[[[50.02,32.258],[50.0363,32.2475],[50.0528,32.2048],[50.0435,32.1445],[50.0633,32.0933],[50.2798,31.88],[50.2884,31.8088],[50.0157,31.2987],[50.0189,31.245],[50.1036,31.1212],[50.122,31.0485],[50.0941,30.8586],[50.1179,30.8115],[50.4654,30.5964],[50.4921,30.5323],[50.4112,30.3364],[50.3487,30.2779],[49.6348,29.9888],[49.5586,29.9987],[49.4689,30.078],[49.4046,30.102],[49.2621,30.102],[49.1795,30.1337],[49.0317,30.2761],[49.006,30.3354],[49.0089,30.4002],[48.9854,30.422],[48.9053,30.4268],[48.8728,30.4568],[48.8673,30.473],[48.8756,30.5226],[48.8515,30.542],[48.7121,30.542],[48.6356,30.5701],[48.4175,30.7782],[48.3531,30.8099],[47.6882,30.9251],[47.6411,30.974],[47.637,30.9881],[47.6881,31.3697],[47.7109,31.4411],[47.8743,31.7597],[47.865,31.8072],[47.6532,32.0043],[47.6138,32.0708],[47.5814,32.2005],[47.5849,32.2162],[47.6136,32.2514],[47.6275,32.258],[47.696,32.258],[47.7289,32.2851],[47.7667,32.5272],[47.792,32.5982],[48.064,33.0544],[48.1341,33.0818],[48.951,32.9638],[49.0151,32.9224],[49.0489,32.8553],[49.0969,32.828],[49.2504,32.8229],[49.2869,32.7873],[49.2921,32.7716],[49.275,32.663],[49.2967,32.6451],[49.6859,32.7002],[49.7533,32.6657],[49.9569,32.2841],[49.9867,32.258],[50.02,32.258]]]},"properties":{"id":"territory:Elam:-800","name":"Elam","name_en":"Elam","actor":"기타중립","valid_from":-800,"valid_to":-700,"span_from":-3200,"span_to":-601,"color":"#A98B60","wikidata":"Q128904","area":59563,"src":"cliopatria","confidence":"medium","finish":"chaikin1cap4km+grow2km+islands+s600m","islands":0}},{"type":"Feature","geometry":{"type":"Point","coordinates":[48.999,31.578]},"properties":{"id":"territory:Elam:-800:label","name":"Elam","name_en":"Elam","actor":"기타중립","valid_from":-800,"valid_to":-700,"span_from":-3200,"span_to":-601,"color":"#A98B60","wikidata":"Q128904","area":59563,"src":"cliopatria","confidence":"medium"}},{"type":"Feature","geometry":{"type":"MultiPolygon","coordinates":[[[[33.308,34.695],[33.3002,34.6802],[33.2547,34.6496],[32.9364,34.5462],[32.8575,34.5593],[32.7689,34.638],[32.7015,34.6695],[32.4104,34.7154],[32.3391,34.7557],[32.2345,34.9041],[32.2159,34.9777],[32.2284,35.0961],[32.2354,35.1086],[32.294,35.148],[32.5044,35.148],[32.5846,35.1629],[32.8298,35.2595],[32.865,35.2998],[32.8772,35.3722],[32.934,35.408],[33.6938,35.408],[33.7695,35.4272],[34.265,35.7053],[34.3239,35.7269],[34.5025,35.728],[34.5497,35.6907],[34.5554,35.6761],[34.5504,35.6111],[34.5051,35.5427],[34.0743,35.267],[34.0195,35.2435],[33.9775,35.242],[33.8456,35.2864],[33.7896,35.2762],[33.5051,35.0103],[33.426,34.982],[33.2912,34.982],[33.2663,34.9583],[33.301,34.7779],[33.308,34.695]]],[[[28.0375,36.498],[28.21,36.498],[28.2548,36.4567],[28.2588,36.4405],[28.1661,36.061],[28.1042,35.9995],[27.7735,35.8973],[27.7276,35.9196],[27.7176,35.9335],[27.6789,36.263],[27.7173,36.3265],[27.9772,36.4759],[28.0375,36.498]]],[[[28.1264,36.597],[28.1227,36.5987],[28.1252,36.6009],[28.1264,36.597]]],[[[27.87,36.5895],[27.8765,36.541],[27.76,36.576],[27.818,36.634],[27.87,36.5895]]],[[[27.4728,37.1992],[27.58,37.208],[27.7192,37.1617],[27.747,37.104],[27.7455,37.0883],[27.6991,37.0169],[27.6283,36.9758],[27.2369,36.9187],[27.1831,36.9512],[27.1757,36.9676],[27.1885,37.096],[27.2415,37.1516],[27.4728,37.1992]]],[[[27.295,36.4555],[27.356,36.4795],[27.397,36.4385],[27.378,36.382],[27.295,36.4555]]],[[[27.1338,36.9245],[27.1533,36.906],[27.1883,36.841],[27.1888,36.825],[27.1567,36.7671],[26.9168,36.6696],[26.8987,36.6723],[26.8795,36.6879],[26.8758,36.7117],[27.0081,36.9123],[27.06,36.948],[27.1,36.948],[27.1323,36.9258],[27.109,36.9487],[27.1159,36.9575],[27.1629,36.957],[27.1618,36.9372],[27.1751,36.9225],[27.1338,36.9245]]],[[[27.1594,37.599],[27.1592,37.5889],[27.1844,37.5587],[27.1683,37.5702],[27.1693,37.5648],[27.1495,37.5967],[27.1594,37.599]]],[[[27.0964,37.0534],[27.0779,37.0572],[27.0846,37.0641],[27.106,37.0578],[27.0964,37.0534]]],[[[27.1018,37.2743],[27.0824,37.2781],[27.0877,37.302],[27.1034,37.2995],[27.0922,37.2877],[27.1018,37.2743]]],[[[26.5895,37.687],[26.5805,37.741],[26.658,37.793],[26.772,37.814],[26.9165,37.778],[27.021,37.777],[27.0475,37.727],[26.91,37.678],[26.861,37.6435],[26.7875,37.647],[26.7085,37.7135],[26.5895,37.687]]],[[[27.0415,36.967],[26.9835,36.9295],[26.9115,36.946],[26.951,37.021],[27.0415,37.008],[27.0415,36.967]]],[[[26.9883,37.4588],[26.9743,37.4464],[26.9646,37.4541],[26.9583,37.4439],[26.9269,37.4742],[26.979,37.4757],[27.0073,37.4516],[26.9883,37.4588]]],[[[26.7801,37.274],[26.7748,37.2812],[26.7673,37.2774],[26.7593,37.2977],[26.7389,37.2942],[26.7098,37.3141],[26.714,37.3213],[26.7224,37.3179],[26.7202,37.328],[26.7297,37.3274],[26.7497,37.3091],[26.7845,37.3089],[26.7904,37.2908],[26.7801,37.274]]],[[[26.7098,37.4026],[26.7166,37.4127],[26.759,37.3761],[26.7442,37.3606],[26.7403,37.3746],[26.7098,37.4026]]],[[[26.6935,38.5124],[26.7022,38.5428],[26.7224,38.5327],[26.7312,38.4949],[26.7476,38.4759],[26.7438,38.4637],[26.7316,38.4584],[26.6929,38.4829],[26.6935,38.5124]]],[[[26.5138,37.5986],[26.5101,37.6243],[26.4971,37.6274],[26.4964,37.6377],[26.5135,37.6533],[26.5307,37.6418],[26.5283,37.626],[26.5407,37.6167],[26.5313,37.5974],[26.4991,37.5753],[26.5109,37.5495],[26.5029,37.5275],[26.4741,37.5688],[26.4746,37.6047],[26.4981,37.5854],[26.5138,37.5986]]],[[[26.396,37.5761],[26.4404,37.6026],[26.4569,37.5751],[26.4467,37.5647],[26.4297,37.5775],[26.396,37.5761]]],[[[26.2305,37.5715],[26.128,37.556],[26.058,37.519],[25.9795,37.5485],[26.074,37.638],[26.1975,37.6325],[26.281,37.6755],[26.362,37.6865],[26.319,37.6345],[26.2305,37.5715]]],[[[26.3291,38.422],[26.3254,38.4413],[26.3554,38.4532],[26.3609,38.4444],[26.354,38.4262],[26.3291,38.422]]],[[[26.2749,38.512],[26.2791,38.5152],[26.2933,38.4985],[26.2832,38.4937],[26.2749,38.512]]],[[[26.2273,38.5098],[26.1295,38.1799],[26.0641,38.142],[25.9259,38.142],[25.8708,38.182],[25.8643,38.197],[25.8795,38.4404],[25.8688,38.462],[25.8281,38.4666],[25.8181,38.5115],[25.8778,38.644],[25.9177,38.6831],[25.97,38.688],[26.034,38.6671],[26.1901,38.5859],[26.2203,38.5344],[26.2699,38.518],[26.2525,38.502],[26.2481,38.5094],[26.2273,38.5098]]],[[[24.7919,35.0294],[24.7558,35.1435],[24.7108,35.172],[24.4051,35.176],[23.7129,35.2417],[23.6543,35.2913],[23.6106,35.4806],[23.6155,35.4975],[23.664,35.538],[24.116,35.538],[24.1686,35.5016],[24.1754,35.4861],[24.1709,35.4275],[24.1995,35.3867],[24.2683,35.3546],[24.3459,35.338],[25.646,35.338],[25.6998,35.2978],[25.7061,35.2832],[25.7003,35.1746],[25.7287,35.1534],[26.1844,35.2031],[26.2002,35.1968],[26.2255,35.1605],[26.1769,35.0892],[26.097,35.0497],[24.8548,34.9869],[24.7919,35.0294]]],[[[26.1475,34.9431],[26.1498,34.9333],[26.133,34.9226],[26.123,34.9425],[26.1475,34.9431]]],[[[25.6801,34.8745],[25.688,34.8813],[25.7318,34.8793],[25.7096,34.8659],[25.6801,34.8745]]],[[[25.3216,37.0182],[25.3146,37.0339],[25.3196,37.0989],[25.3452,37.1402],[25.36,37.148],[25.5325,37.148],[25.5797,37.1107],[25.5854,37.0961],[25.5804,37.0311],[25.5251,36.9852],[25.3641,36.9857],[25.3216,37.0182]]],[[[25.5182,38.5291],[25.4937,38.5322],[25.5078,38.5526],[25.523,38.5456],[25.5182,38.5291]]],[[[25.273,36.72],[25.2625,36.7675],[25.307,36.795],[25.3995,36.728],[25.395,36.679],[25.338,36.6685],[25.273,36.72]]],[[[25.2595,37.124],[25.28,37.049],[25.2045,36.989],[25.1035,37.013],[25.15,37.1105],[25.21,37.144],[25.2595,37.124]]],[[[25.2226,35.4637],[25.2461,35.4497],[25.2388,35.4282],[25.1841,35.4444],[25.2226,35.4637]]],[[[24.2541,38.02],[24.283,37.9984],[24.265,37.9785],[24.2396,37.9777],[24.2279,37.9883],[24.2541,38.02]]],[[[22.8515,36.8275],[22.7812,36.852],[22.6504,36.852],[22.5987,36.8233],[22.535,36.6888],[22.4725,36.652],[22.3873,36.6552],[22.3307,36.6985],[22.2177,37.0133],[22.1693,37.042],[21.9618,37.042],[21.9256,37.0148],[21.9136,36.8923],[21.86,36.852],[21.7691,36.8557],[21.7157,36.9022],[21.6698,37.147],[21.651,37.172],[21.609,37.1758],[21.5935,37.2204],[21.6701,37.4745],[21.6514,37.5228],[21.2633,37.8012],[21.2411,37.8682],[21.3933,38.1431],[21.4658,38.178],[21.6782,38.178],[21.7144,38.2052],[21.7197,38.307],[21.6866,38.3398],[21.3123,38.3955],[21.2603,38.4393],[21.2546,38.4539],[21.2596,38.5189],[21.3073,38.5871],[21.5609,38.7361],[21.6479,38.7476],[21.8684,38.6978],[21.954,38.6946],[22.3401,38.7509],[22.4125,38.7814],[22.5041,38.8559],[22.5342,38.9109],[22.54,39.022],[22.5218,39.0838],[22.3469,39.3382],[22.3446,39.3538],[22.3699,39.4158],[22.539,39.5037],[22.5658,39.5493],[22.5177,39.8668],[22.5289,39.9413],[22.5884,40.0735],[22.64,40.118],[22.6918,40.1136],[22.7025,40.0686],[22.645,39.9339],[22.6609,39.899],[22.7292,39.8717],[22.7741,39.8186],[22.778,39.7476],[22.8078,39.6991],[23.1224,39.4797],[23.1132,39.4354],[23.0997,39.4228],[22.873,39.3732],[22.8353,39.3361],[22.8209,39.1068],[22.8404,39.0973],[22.9223,39.1303],[22.993,39.1212],[23.0884,39.0425],[23.1588,39.018],[23.3016,39.0164],[23.3776,38.9798],[23.4847,38.8297],[23.4588,38.7973],[23.4421,38.7924],[23.22,38.8425],[23.1711,38.8694],[23.162,38.8986],[23.1378,38.9009],[22.9928,38.8647],[22.958,38.83],[22.958,38.7796],[22.9925,38.7428],[23.1373,38.6979],[23.2074,38.6496],[23.2988,38.5255],[23.3596,38.498],[23.577,38.498],[23.6004,38.5207],[23.5521,38.7002],[23.5582,38.7189],[23.6076,38.7511],[23.992,38.6933],[24.0733,38.6584],[24.1592,38.5897],[24.1958,38.513],[24.1738,38.2422],[24.1316,38.2063],[24.0466,38.202],[24.0156,38.1755],[23.9998,37.875],[23.9897,37.8597],[23.9323,37.8377],[23.5383,37.9764],[23.5435,37.929],[23.467,37.884],[23.4085,37.8985],[23.4772,37.9979],[23.3927,38.012],[23.2613,38.012],[23.2247,37.9875],[23.2134,37.9182],[23.1709,37.8857],[23.0882,37.882],[23.0693,37.8603],[23.1161,37.6866],[23.161,37.658],[23.3043,37.6549],[23.3643,37.6078],[23.411,37.3589],[23.4054,37.3423],[23.3663,37.3067],[23.205,37.3056],[23.1617,37.3381],[23.1546,37.3539],[23.1591,37.4128],[23.1302,37.4575],[22.9804,37.5422],[22.902,37.562],[22.7618,37.562],[22.7262,37.5349],[22.7196,37.3611],[22.7496,37.3167],[22.8255,37.2799],[22.8794,37.2216],[23.0644,36.7107],[23.0546,36.6881],[23.0365,36.6802],[23.0175,36.6831],[22.8515,36.8275]]],[[[23.7925,39.118],[23.741,39.0805],[23.6695,39.118],[23.6655,39.1695],[23.7925,39.118]]],[[[23.7635,37.776],[23.7668,37.7695],[23.7566,37.763],[23.7516,37.7695],[23.7635,37.776]]],[[[23.587,37.371],[23.497,37.32],[23.4635,37.3575],[23.587,37.371]]],[[[23.5852,38.782],[23.5725,38.7401],[23.54,38.722],[23.5,38.722],[23.4708,38.7414],[23.4648,38.758],[23.4775,38.7999],[23.51,38.818],[23.5617,38.8136],[23.5852,38.782]]],[[[23.546,37.7745],[23.5255,37.6925],[23.4575,37.6925],[23.4255,37.768],[23.546,37.7745]]],[[[21.5466,37.0323],[21.549,37.0454],[21.5373,37.0574],[21.5528,37.0644],[21.5587,37.0538],[21.5466,37.0323]]]]},"properties":{"id":"territory:Greek City-States:-800","name":"Greek City-States","name_en":"Greek City-States","actor":"기타중립","valid_from":-800,"valid_to":-750,"span_from":-800,"span_to":83,"color":"#87A960","wikidata":"Q148837","area":58484,"src":"cliopatria","confidence":"medium","finish":"chaikin1cap4km+grow2km+islands+s600m","islands":32,"island_rule":"nearest<=40km"}},{"type":"Feature","geometry":{"type":"Point","coordinates":[22.582,38.11]},"properties":{"id":"territory:Greek City-States:-800:label","name":"Greek City-States","name_en":"Greek City-States","actor":"기타중립","valid_from":-800,"valid_to":-750,"span_from":-800,"span_to":83,"color":"#87A960","wikidata":"Q148837","area":58484,"src":"cliopatria","confidence":"medium"}},{"type":"Feature","geometry":{"type":"Polygon","coordinates":[[[45.6952,40.012],[45.6919,39.9919],[45.72,39.9673],[45.9271,39.8744],[45.9368,39.8638],[45.9533,39.8148],[45.9505,39.7982],[45.8023,39.6056],[45.8067,39.5607],[46.0867,39.2955],[46.1189,39.2245],[46.127,38.9064],[46.1202,38.8918],[46.0635,38.852],[45.6885,38.852],[45.6071,38.8334],[45.1697,38.6148],[45.1214,38.5657],[45.0206,38.3175],[44.9435,38.272],[44.4488,38.276],[44.4044,38.3127],[44.3269,38.4354],[44.2693,38.4798],[43.3155,38.8375],[43.2534,38.8888],[43.2218,38.9533],[43.1739,38.9715],[42.9421,38.922],[42.8539,38.9364],[42.7117,39.0204],[42.6442,39.023],[42.0573,38.7427],[41.9635,38.722],[41.8165,38.722],[41.7511,38.76],[41.7137,38.8834],[41.6683,38.912],[41.5265,38.912],[41.467,38.9385],[41.4717,38.9911],[41.5462,39.1025],[41.5353,39.1348],[41.3329,39.2256],[41.3065,39.2852],[41.3092,39.3019],[41.4521,39.4899],[41.5292,39.5264],[41.9902,39.528],[42.0578,39.5541],[42.3848,39.8877],[42.4646,39.9219],[43.1684,39.9835],[43.2259,40.016],[43.303,40.1433],[43.3765,40.178],[43.5183,40.178],[43.5585,40.2033],[43.5672,40.2602],[43.5779,40.274],[43.627,40.295],[43.7894,40.2534],[43.8284,40.2094],[43.8242,40.1392],[43.8538,40.112],[44.3718,40.0535],[44.4327,40.076],[44.489,40.1456],[44.5665,40.178],[45.0235,40.178],[45.0889,40.14],[45.1257,40.0188],[45.1612,40.0056],[45.4079,40.1016],[45.4985,40.104],[45.642,40.0604],[45.6877,40.0298],[45.6952,40.012]]]},"properties":{"id":"territory:Kingdom of Urartu:-800","name":"Kingdom of Urartu","name_en":"Kingdom of Urartu","actor":"기타중립","valid_from":-800,"valid_to":-750,"span_from":-800,"span_to":-551,"color":"#6062A9","wikidata":"Q185068","area":53103,"src":"cliopatria","confidence":"medium","finish":"chaikin1cap4km+grow2km+islands+s600m","islands":0}},{"type":"Feature","geometry":{"type":"Point","coordinates":[43.988,39.336]},"properties":{"id":"territory:Kingdom of Urartu:-800:label","name":"Kingdom of Urartu","name_en":"Kingdom of Urartu","actor":"기타중립","valid_from":-800,"valid_to":-750,"span_from":-800,"span_to":-551,"color":"#6062A9","wikidata":"Q185068","area":53103,"src":"cliopatria","confidence":"medium"}},{"type":"Feature","geometry":{"type":"MultiPolygon","coordinates":[[[[11.06,42.612],[11.008,42.6526],[11.002,42.7785],[10.9684,42.8275],[10.5707,43.043],[10.5147,43.1027],[10.2851,43.7593],[10.2897,43.7782],[10.3262,43.813],[11.9414,43.818],[12.0356,43.7901],[12.5219,43.4515],[12.5982,43.4354],[12.9099,43.4792],[12.9792,43.4412],[13.1832,42.8648],[13.2325,42.8181],[13.4642,42.724],[13.4964,42.6649],[13.4953,42.6481],[13.4486,42.5767],[13.38,42.542],[13.3077,42.542],[13.2857,42.5186],[13.3399,42.1981],[13.2798,42.1659],[13.1353,42.2081],[13.0817,42.1922],[13.0511,42.1426],[13.0679,42.1157],[13.2955,42.0634],[13.3421,42.0207],[13.348,41.9502],[13.385,41.9148],[13.5262,41.8795],[13.6138,41.8795],[13.7596,41.9159],[13.8539,41.8971],[14.019,41.7606],[14.055,41.6921],[14.049,41.4254],[14.027,41.352],[13.9054,41.1533],[13.8394,41.1387],[13.7336,41.2177],[13.6576,41.2471],[13.0464,41.3074],[12.9572,41.336],[12.3913,41.6887],[12.3597,41.7591],[12.423,42.0677],[12.3947,42.092],[11.91,42.092],[11.7637,42.1382],[11.6995,42.1978],[11.6503,42.321],[11.611,42.3333],[11.5255,42.3001],[11.468,42.3151],[11.4241,42.3844],[11.3753,42.412],[11.2903,42.4149],[11.2295,42.4578],[11.1792,42.5835],[11.1347,42.612],[11.06,42.612]]],[[[13.05,40.9669],[13.0536,40.9744],[13.0622,40.9755],[13.061,40.9652],[13.05,40.9669]]],[[[12.9583,40.882],[12.9489,40.8857],[12.9421,40.8998],[12.9485,40.9179],[12.9896,40.9365],[12.9686,40.9195],[12.9609,40.9032],[12.9665,40.8931],[12.9583,40.882]]],[[[12.8531,40.948],[12.8604,40.9483],[12.8617,40.9307],[12.8504,40.926],[12.8531,40.948]]],[[[11.1049,42.2457],[11.1065,42.2378],[11.0913,42.2518],[11.0938,42.2602],[11.1105,42.2612],[11.1125,42.2529],[11.1024,42.2543],[11.1049,42.2457]]],[[[10.1323,42.8932],[10.15,42.908],[10.4216,42.9045],[10.4706,42.8686],[10.478,42.8541],[10.478,42.7259],[10.4706,42.7114],[10.411,42.672],[10.2503,42.6743],[10.1795,42.7178],[10.1261,42.8587],[10.1323,42.8932]]],[[[9.9085,43.4269],[9.8942,43.4325],[9.9081,43.4466],[9.9154,43.4354],[9.9085,43.4269]]]]},"properties":{"id":"territory:Etruscans:-750","name":"Etruscans","name_en":"Etruscans","actor":"이탈리아세력","valid_from":-750,"valid_to":-650,"span_from":-750,"span_to":-265,"wikidata":"Q17161","area":42547,"src":"cliopatria","confidence":"medium","finish":"chaikin1cap4km+grow2km+islands+s600m","islands":5,"island_rule":"nearest<=40km"}},{"type":"Feature","geometry":{"type":"Point","coordinates":[12.209,42.692]},"properties":{"id":"territory:Etruscans:-750:label","name":"Etruscans","name_en":"Etruscans","actor":"이탈리아세력","valid_from":-750,"valid_to":-650,"span_from":-750,"span_to":-265,"wikidata":"Q17161","area":42547,"src":"cliopatria","confidence":"medium"}},{"type":"Feature","geometry":{"type":"Polygon","coordinates":[[[34.5597,36.7225],[34.5229,36.7737],[34.5227,36.7916],[35.0518,37.7322],[35.1211,37.7757],[35.5785,37.8589],[35.6307,37.8957],[35.7185,38.0934],[35.7748,38.1527],[36.1307,38.344],[36.1719,38.3936],[36.2041,38.5288],[36.259,38.5894],[36.329,38.6144],[36.404,38.6006],[36.5362,38.4854],[36.574,38.4882],[36.7423,38.71],[36.8162,38.7522],[37.2227,38.8114],[37.2966,38.8054],[37.353,38.7786],[37.3628,38.765],[37.3634,38.7156],[37.3302,38.6782],[37.3397,38.6478],[38.0557,38.1584],[38.0634,38.1458],[38.065,38.079],[37.639,37.6444],[37.5736,37.5926],[36.8853,37.1669],[36.2069,36.8516],[36.1129,36.8503],[36.0077,36.8947],[35.9463,36.8867],[35.6391,36.63],[35.5607,36.5921],[35.3977,36.553],[35.3064,36.552],[34.5597,36.7225]]]},"properties":{"id":"territory:Tabal Kingdom:-900","name":"Tabal Kingdom","name_en":"Tabal Kingdom","actor":"기타중립","valid_from":-900,"valid_to":-750,"span_from":-900,"span_to":-701,"color":"#72A960","wikidata":"Q727710","area":38587,"src":"cliopatria","confidence":"medium","finish":"chaikin1cap4km+grow2km+islands+s600m","islands":0}},{"type":"Feature","geometry":{"type":"Polygon","coordinates":[[[34.5597,36.7225],[34.5229,36.7737],[34.5227,36.7916],[35.0518,37.7322],[35.1211,37.7757],[35.5785,37.8589],[35.6307,37.8957],[35.7185,38.0934],[35.7748,38.1527],[36.1307,38.344],[36.1719,38.3936],[36.2041,38.5288],[36.259,38.5894],[36.329,38.6144],[36.404,38.6006],[36.5362,38.4854],[36.574,38.4882],[36.7423,38.71],[36.8162,38.7522],[37.2227,38.8114],[37.2966,38.8054],[37.353,38.7786],[37.3628,38.765],[37.3634,38.7156],[37.3302,38.6782],[37.3397,38.6478],[38.0557,38.1584],[38.0634,38.1458],[38.065,38.079],[37.639,37.6444],[37.5736,37.5926],[36.8853,37.1669],[36.2069,36.8516],[36.1129,36.8503],[36.0077,36.8947],[35.9463,36.8867],[35.6391,36.63],[35.5607,36.5921],[35.3977,36.553],[35.3064,36.552],[34.5597,36.7225]]]},"properties":{"id":"territory:Tabal Kingdom:-750","name":"Tabal Kingdom","name_en":"Tabal Kingdom","actor":"기타중립","valid_from":-750,"valid_to":-700,"span_from":-900,"span_to":-701,"color":"#72A960","wikidata":"Q727710","area":38587,"src":"cliopatria","confidence":"medium","finish":"chaikin1cap4km+grow2km+islands+s600m","islands":0}},{"type":"Feature","geometry":{"type":"Point","coordinates":[36.301,37.652]},"properties":{"id":"territory:Tabal Kingdom:-900:label","name":"Tabal Kingdom","name_en":"Tabal Kingdom","actor":"기타중립","valid_from":-900,"valid_to":-750,"span_from":-900,"span_to":-701,"color":"#72A960","wikidata":"Q727710","area":38587,"src":"cliopatria","confidence":"medium"}},{"type":"Feature","geometry":{"type":"Point","coordinates":[36.301,37.652]},"properties":{"id":"territory:Tabal Kingdom:-750:label","name":"Tabal Kingdom","name_en":"Tabal Kingdom","actor":"기타중립","valid_from":-750,"valid_to":-700,"span_from":-900,"span_to":-701,"color":"#72A960","wikidata":"Q727710","area":38587,"src":"cliopatria","confidence":"medium"}}]}